{
"type": "FeatureCollection",
"name": "GR_VAM16",
"crs": { "type": "name", "properties": { "name": "urn:ogc:def:crs:OGC:1.3:CRS84" } },
"features": [
{ "type": "Feature", "properties": { "Id": 0, "Shape_Leng": 4.6552407455299996, "IDAS": 101, "Shape_Le_1": 5.5721634942299998, "Shape_Area": 1.47399089468 }, "geometry": { "type": "Polygon", "coordinates": [ [ [ 17.595503109181209, 42.730747918981308 ], [ 18.062664895168837, 43.170184969660681 ], [ 19.700000000299838, 42.150000000399757 ], [ 19.800000000099999, 41.750000000299849 ], [ 19.149999999600368, 41.599999999700287 ], [ 17.595503109181209, 42.730747918981308 ] ] ] } },
{ "type": "Feature", "properties": { "Id": 0, "Shape_Leng": 4.260873985, "IDAS": 2, "Shape_Le_1": 4.260873985, "Shape_Area": 1.14625000052 }, "geometry": { "type": "Polygon", "coordinates": [ [ [ 19.149999999600368, 41.599999999700287 ], [ 19.800000000099999, 41.750000000299849 ], [ 20.250000000099988, 41.0 ], [ 20.250000000099988, 40.649999999800229 ], [ 18.999999999900126, 40.500000000099988 ], [ 19.149999999600368, 41.599999999700287 ] ] ] } },
{ "type": "Feature", "properties": { "Id": 0, "Shape_Leng": 4.0729740520200002, "IDAS": 3, "Shape_Le_1": 4.0729740520200002, "Shape_Area": 0.93250000016199996 }, "geometry": { "type": "Polygon", "coordinates": [ [ [ 18.999999999900126, 40.500000000099988 ], [ 20.250000000099988, 40.649999999800229 ], [ 20.600000000299815, 40.000000000199918 ], [ 19.4, 39.749999999800195 ], [ 18.999999999900126, 40.500000000099988 ] ] ] } },
{ "type": "Feature", "properties": { "Id": 0, "Shape_Leng": 4.7990759267099996, "IDAS": 4, "Shape_Le_1": 4.7990759267099996, "Shape_Area": 1.38255000027 }, "geometry": { "type": "Polygon", "coordinates": [ [ [ 19.4, 39.749999999800195 ], [ 20.600000000299815, 40.000000000199918 ], [ 20.640000000399766, 39.950000000299838 ], [ 21.23000000029981, 38.970000000099958 ], [ 20.899999999700299, 38.93 ], [ 20.259999999900117, 38.809999999700267 ], [ 20.179999999700271, 38.780000000299822 ], [ 19.650000000399757, 39.150000000099965 ], [ 19.4, 39.749999999800195 ] ] ] } },
{ "type": "Feature", "properties": { "Id": 0, "Shape_Leng": 5.4074295001600001, "IDAS": 5, "Shape_Le_1": 5.4074295001600001, "Shape_Area": 1.2957500004 }, "geometry": { "type": "Polygon", "coordinates": [ [ [ 18.999999999900126, 40.500000000099988 ], [ 19.4, 39.749999999800195 ], [ 19.650000000399757, 39.150000000099965 ], [ 20.179999999700271, 38.780000000299822 ], [ 19.300000000199873, 38.499999999600334 ], [ 18.549999999900137, 39.600000000099953 ], [ 18.999999999900126, 40.500000000099988 ] ] ] } },
{ "type": "Feature", "properties": { "Id": 0, "Shape_Leng": 4.1579623761200004, "IDAS": 601, "Shape_Le_1": 4.93622080947, "Shape_Area": 1.08169279812 }, "geometry": { "type": "Polygon", "coordinates": [ [ [ 19.000107499461592, 43.384878386928051 ], [ 20.150000000299826, 42.499999999700265 ], [ 20.280000000399752, 42.150000000399757 ], [ 19.700000000299838, 42.150000000399757 ], [ 18.248147479822364, 43.054615136779205 ], [ 19.000107499461592, 43.384878386928051 ] ] ] } },
{ "type": "Feature", "properties": { "Id": 0, "Shape_Leng": 3.59534907317, "IDAS": 7, "Shape_Le_1": 3.59534907317, "Shape_Area": 0.76774999998899995 }, "geometry": { "type": "Polygon", "coordinates": [ [ [ 19.700000000299838, 42.150000000399757 ], [ 20.280000000399752, 42.150000000399757 ], [ 20.75, 41.549999999800207 ], [ 20.849999999800218, 41.250000000399723 ], [ 20.250000000099988, 41.0 ], [ 19.800000000099999, 41.750000000299849 ], [ 19.700000000299838, 42.150000000399757 ] ] ] } },
{ "type": "Feature", "properties": { "Id": 0, "Shape_Leng": 3.3060375503600001, "IDAS": 8, "Shape_Le_1": 3.3060375503600001, "Shape_Area": 0.70875000024699997 }, "geometry": { "type": "Polygon", "coordinates": [ [ [ 20.250000000099988, 41.0 ], [ 20.849999999800218, 41.250000000399723 ], [ 21.050000000299804, 40.749999999600334 ], [ 21.000000000399723, 40.149999999900103 ], [ 20.600000000299815, 40.000000000199918 ], [ 20.250000000099988, 40.649999999800229 ], [ 20.250000000099988, 41.0 ] ] ] } },
{ "type": "Feature", "properties": { "Id": 0, "Shape_Leng": 3.1472487978800001, "IDAS": 9, "Shape_Le_1": 3.1472487978800001, "Shape_Area": 0.47649999966500001 }, "geometry": { "type": "Polygon", "coordinates": [ [ [ 20.600000000299815, 40.000000000199918 ], [ 21.000000000399723, 40.149999999900103 ], [ 21.249999999900126, 39.699999999900115 ], [ 21.500000000299849, 39.299999999800207 ], [ 21.450000000399768, 39.000000000399723 ], [ 21.23000000029981, 38.970000000099958 ], [ 20.600000000299815, 40.000000000199918 ] ] ] } },
{ "type": "Feature", "properties": { "Id": 0, "Shape_Leng": 5.7067453754499997, "IDAS": 10, "Shape_Le_1": 5.7067453754499997, "Shape_Area": 1.41429999921 }, "geometry": { "type": "Polygon", "coordinates": [ [ [ 20.259999999900117, 38.809999999700267 ], [ 20.200000000199907, 38.539999999700285 ], [ 19.599999999600357, 37.800000000099999 ], [ 19.4, 37.4 ], [ 19.099999999700287, 36.800000000299804 ], [ 18.400000000199896, 37.350000000099953 ], [ 19.300000000199873, 38.499999999600334 ], [ 19.454164539961596, 38.549052353283514 ], [ 19.650749982825516, 38.611602267330852 ], [ 19.896458216073881, 38.689782159319236 ], [ 20.179999999700271, 38.780000000299822 ], [ 20.259999999900117, 38.809999999700267 ] ] ] } },
{ "type": "Feature", "properties": { "Id": 0, "Shape_Leng": 1.88928393561, "IDAS": 11, "Shape_Le_1": 1.88928393561, "Shape_Area": 0.18810000006300001 }, "geometry": { "type": "Polygon", "coordinates": [ [ [ 20.259999999900117, 38.809999999700267 ], [ 20.899999999700299, 38.93 ], [ 20.740000000199927, 38.539999999700285 ], [ 20.200000000199907, 38.539999999700285 ], [ 20.259999999900117, 38.809999999700267 ] ] ] } },
{ "type": "Feature", "properties": { "Id": 0, "Shape_Leng": 1.6268573986599999, "IDAS": 1209, "Shape_Le_1": 3.7417476297499999, "Shape_Area": 0.55527470125699996 }, "geometry": { "type": "Polygon", "coordinates": [ [ [ 22.82, 38.420000000299808 ], [ 22.379999999800191, 38.460000000399759 ], [ 22.199999999800184, 38.499999999600334 ], [ 21.65, 38.529999999900156 ], [ 21.297521062646979, 38.537499551663018 ], [ 21.248610273945019, 38.972537764606216 ], [ 21.450000000399768, 39.000000000399723 ], [ 21.799999999700276, 38.979999999900144 ], [ 21.970145958069565, 38.976455292377921 ], [ 21.99621998236637, 38.917919974427321 ], [ 22.307987876939023, 38.835002980902914 ], [ 22.558000000199911, 38.682300000444741 ], [ 22.82, 38.420000000299808 ] ] ] } },
{ "type": "Feature", "properties": { "Id": 0, "Shape_Leng": 3.2271435208199999, "IDAS": 13, "Shape_Le_1": 3.2271435208199999, "Shape_Area": 0.56130000003000002 }, "geometry": { "type": "Polygon", "coordinates": [ [ [ 20.200000000199907, 38.539999999700285 ], [ 20.740000000199927, 38.539999999700285 ], [ 20.399999999800173, 37.899999999900103 ], [ 20.049999999600345, 37.549999999700276 ], [ 19.599999999600357, 37.800000000099999 ], [ 20.200000000199907, 38.539999999700285 ] ] ] } },
{ "type": "Feature", "properties": { "Id": 0, "Shape_Leng": 2.2585347539199998, "IDAS": 14, "Shape_Le_1": 2.2585347539199998, "Shape_Area": 0.24580000002300001 }, "geometry": { "type": "Polygon", "coordinates": [ [ [ 20.740000000199927, 38.539999999700285 ], [ 21.18000000039973, 38.539999999700285 ], [ 20.849999999800218, 37.999999999700265 ], [ 20.399999999800173, 37.899999999900103 ], [ 20.740000000199927, 38.539999999700285 ] ] ] } },
{ "type": "Feature", "properties": { "Id": 0, "Shape_Leng": 5.4148013550299998, "IDAS": 15, "Shape_Le_1": 5.4148013550299998, "Shape_Area": 1.3100000006500001 }, "geometry": { "type": "Polygon", "coordinates": [ [ [ 19.4, 37.4 ], [ 21.000000000399723, 35.900000000299826 ], [ 20.499999999600334, 35.500000000199918 ], [ 19.099999999700287, 36.800000000299804 ], [ 19.4, 37.4 ] ] ] } },
{ "type": "Feature", "properties": { "Id": 0, "Shape_Leng": 5.5970749460300002, "IDAS": 16, "Shape_Le_1": 5.5970749460300002, "Shape_Area": 1.4102499987499999 }, "geometry": { "type": "Polygon", "coordinates": [ [ [ 19.599999999600357, 37.800000000099999 ], [ 20.049999999600345, 37.549999999700276 ], [ 20.75, 37.099999999700287 ], [ 21.399999999600368, 36.419999999800211 ], [ 21.150000000099965, 36.000000000099988 ], [ 21.000000000399723, 35.900000000299826 ], [ 19.4, 37.4 ], [ 19.599999999600357, 37.800000000099999 ] ] ] } },
{ "type": "Feature", "properties": { "Id": 0, "Shape_Leng": 3.2642247496399999, "IDAS": 17, "Shape_Le_1": 3.2642247496399999, "Shape_Area": 0.66140000013400002 }, "geometry": { "type": "Polygon", "coordinates": [ [ [ 20.849999999800218, 37.999999999700265 ], [ 21.219999999600361, 37.629999999900122 ], [ 21.38, 37.499999999800195 ], [ 21.1199999998002, 37.319999999800189 ], [ 20.75, 37.099999999700287 ], [ 20.049999999600345, 37.549999999700276 ], [ 20.399999999800173, 37.899999999900103 ], [ 20.849999999800218, 37.999999999700265 ] ] ] } },
{ "type": "Feature", "properties": { "Id": 0, "Shape_Leng": 3.3694019121799998, "IDAS": 18, "Shape_Le_1": 3.1157723560199999, "Shape_Area": 0.47383531888699998 }, "geometry": { "type": "Polygon", "coordinates": [ [ [ 20.75, 37.099999999700287 ], [ 21.1199999998002, 37.319999999800189 ], [ 21.252813951602661, 37.187181680889921 ], [ 21.399999999600368, 37.049999999800207 ], [ 22.000000000199918, 36.750000000399723 ], [ 21.399999999600368, 36.419999999800211 ], [ 20.75, 37.099999999700287 ] ] ] } },
{ "type": "Feature", "properties": { "Id": 0, "Shape_Leng": 9.6216171920600004, "IDAS": 19, "Shape_Le_1": 9.6216171920600004, "Shape_Area": 3.27250000073 }, "geometry": { "type": "Polygon", "coordinates": [ [ [ 21.150000000099965, 36.000000000099988 ], [ 22.500000000099988, 34.899999999600368 ], [ 24.250000000199918, 33.700000000199907 ], [ 23.599999999700287, 32.999999999800195 ], [ 20.499999999600334, 35.500000000199918 ], [ 20.547215859424398, 35.537772687159816 ], [ 20.597010433484741, 35.577608346947727 ], [ 20.624693431256901, 35.599754744985546 ], [ 20.66752372913686, 35.634018983289479 ], [ 20.715925448500684, 35.672740358780572 ], [ 20.748657546008985, 35.698926036607361 ], [ 20.776514650730576, 35.72121172074435 ], [ 20.813947634076101, 35.75115810796035 ], [ 20.844068129140908, 35.775254503292729 ], [ 20.870184164367743, 35.796147330934616 ], [ 20.896996627392468, 35.817597302073864 ], [ 20.920152845377572, 35.836122275922321 ], [ 20.944701918958458, 35.855761534966916 ], [ 20.971514381983184, 35.877211505206844 ], [ 21.000000000399723, 35.900000000299826 ], [ 21.0324395097756, 35.921626340183479 ], [ 21.060773399073184, 35.940515599715184 ], [ 21.097343884912391, 35.964895922708706 ], [ 21.150000000099965, 36.000000000099988 ] ] ] } },
{ "type": "Feature", "properties": { "Id": 0, "Shape_Leng": 5.6922462326699996, "IDAS": 20, "Shape_Le_1": 5.6922462326699996, "Shape_Area": 1.7460000006800001 }, "geometry": { "type": "Polygon", "coordinates": [ [ [ 22.000000000199918, 36.750000000399723 ], [ 22.500000000099988, 36.000000000099988 ], [ 23.250000000399723, 35.6 ], [ 22.500000000099988, 34.899999999600368 ], [ 21.916687792407743, 35.375291428456705 ], [ 21.150000000099965, 36.000000000099988 ], [ 21.275066886028014, 36.210112367991428 ], [ 21.399999999600368, 36.419999999800211 ], [ 21.687984252471324, 36.578391338789288 ], [ 22.000000000199918, 36.750000000399723 ] ] ] } },
{ "type": "Feature", "properties": { "Id": 0, "Shape_Leng": 6.2276242659200003, "IDAS": 21, "Shape_Le_1": 6.2276242659200003, "Shape_Area": 2.0684999997800002 }, "geometry": { "type": "Polygon", "coordinates": [ [ [ 22.500000000099988, 34.899999999600368 ], [ 23.250000000399723, 35.6 ], [ 23.850000000099953, 35.15 ], [ 24.300000000099999, 34.870000000199923 ], [ 24.949999999700253, 34.449999999600379 ], [ 24.250000000199918, 33.700000000199907 ], [ 22.500000000099988, 34.899999999600368 ] ] ] } },
{ "type": "Feature", "properties": { "Id": 0, "Shape_Leng": 8.3811628860899994, "IDAS": 22, "Shape_Le_1": 8.3811628860899994, "Shape_Area": 2.2400000012099999 }, "geometry": { "type": "Polygon", "coordinates": [ [ [ 24.250000000199918, 33.700000000199907 ], [ 26.749999999700265, 33.700000000199907 ], [ 27.5, 32.999999999800195 ], [ 23.599999999700287, 32.999999999800195 ], [ 24.250000000199918, 33.700000000199907 ] ] ] } },
{ "type": "Feature", "properties": { "Id": 0, "Shape_Leng": 5.61699949588, "IDAS": 23, "Shape_Le_1": 5.61699949588, "Shape_Area": 1.3049999990100001 }, "geometry": { "type": "Polygon", "coordinates": [ [ [ 24.949999999700253, 34.449999999600379 ], [ 26.050000000199873, 34.399999999700299 ], [ 26.749999999700265, 33.700000000199907 ], [ 24.250000000199918, 33.700000000199907 ], [ 24.949999999700253, 34.449999999600379 ] ] ] } },
{ "type": "Feature", "properties": { "Id": 0, "Shape_Leng": 5.1353727613900002, "IDAS": 24, "Shape_Le_1": 5.1353727613900002, "Shape_Area": 1.3887499995100001 }, "geometry": { "type": "Polygon", "coordinates": [ [ [ 26.900000000299826, 34.899999999600368 ], [ 27.300000000399734, 35.450000000299838 ], [ 27.900000000099965, 34.749999999900126 ], [ 26.749999999700265, 33.700000000199907 ], [ 26.050000000199873, 34.399999999700299 ], [ 26.900000000299826, 34.899999999600368 ] ] ] } },
{ "type": "Feature", "properties": { "Id": 0, "Shape_Leng": 9.8745815811999993, "IDAS": 25, "Shape_Le_1": 9.8745815811999993, "Shape_Area": 4.38000000151 }, "geometry": { "type": "Polygon", "coordinates": [ [ [ 28.650000000399757, 36.05 ], [ 30.000000000399723, 35.500000000199918 ], [ 30.500000000299849, 35.349999999600357 ], [ 27.5, 32.999999999800195 ], [ 26.749999999700265, 33.700000000199907 ], [ 27.900000000099965, 34.749999999900126 ], [ 28.650000000399757, 36.05 ] ] ] } },
{ "type": "Feature", "properties": { "Id": 0, "Shape_Leng": 5.4223562039099997, "IDAS": 26, "Shape_Le_1": 5.4223562039099997, "Shape_Area": 1.40499999987 }, "geometry": { "type": "Polygon", "coordinates": [ [ [ 27.649999999700299, 36.249999999600334 ], [ 28.750000000199918, 36.699999999600379 ], [ 28.949999999800184, 36.599999999800218 ], [ 28.650000000399757, 36.05 ], [ 27.900000000099965, 34.749999999900126 ], [ 27.300000000399734, 35.450000000299838 ], [ 27.649999999700299, 35.749999999700265 ], [ 27.649999999700299, 36.249999999600334 ] ] ] } },
{ "type": "Feature", "properties": { "Id": 0, "Shape_Leng": 5.622580172, "IDAS": 27, "Shape_Le_1": 4.13676081898, "Shape_Area": 0.91901308533500004 }, "geometry": { "type": "Polygon", "coordinates": [ [ [ 30.000000000399723, 35.500000000199918 ], [ 28.650000000399757, 36.05 ], [ 28.949999999800184, 36.599999999800218 ], [ 29.499999999600334, 36.400000000199896 ], [ 30.169407714294607, 36.266118456901324 ], [ 30.000000000399723, 35.500000000199918 ] ] ] } },
{ "type": "Feature", "properties": { "Id": 0, "Shape_Leng": 5.2368033681800004, "IDAS": 2801, "Shape_Le_1": 5.37173582481, "Shape_Area": 1.74016230075 }, "geometry": { "type": "Polygon", "coordinates": [ [ [ 22.138096356561675, 41.919576968402396 ], [ 21.847170953676596, 42.651130246663627 ], [ 21.661236978603711, 43.027256565837888 ], [ 22.897738028087588, 43.423568256469935 ], [ 23.149999999700299, 42.999999999600334 ], [ 23.599999999700287, 42.250000000199918 ], [ 22.500000000099988, 41.999999999800195 ], [ 22.138096356561675, 41.919576968402396 ] ] ] } },
{ "type": "Feature", "properties": { "Id": 0, "Shape_Leng": 2.62930350799, "IDAS": 3001, "Shape_Le_1": 3.55455682858, "Shape_Area": 0.79025000018699998 }, "geometry": { "type": "Polygon", "coordinates": [ [ [ 21.500000000299849, 40.950000000099976 ], [ 21.050000000299804, 40.749999999600334 ], [ 20.849999999800218, 41.250000000399723 ], [ 20.75, 41.549999999800207 ], [ 21.2, 41.700000000399768 ], [ 21.600000000099953, 41.80000000019993 ], [ 21.849999999600357, 41.45 ], [ 22.000000000199918, 41.120000000299854 ], [ 21.500000000299849, 40.950000000099976 ] ] ] } },
{ "type": "Feature", "properties": { "Id": 0, "Shape_Leng": 4.9808362662299999, "IDAS": 32, "Shape_Le_1": 4.9808362662299999, "Shape_Area": 1.05999999988 }, "geometry": { "type": "Polygon", "coordinates": [ [ [ 23.599999999700287, 42.250000000199918 ], [ 23.599999999700287, 41.499999999900126 ], [ 21.849999999600357, 41.45 ], [ 21.600000000099953, 41.80000000019993 ], [ 22.500000000099988, 41.999999999800195 ], [ 23.599999999700287, 42.250000000199918 ] ] ] } },
{ "type": "Feature", "properties": { "Id": 0, "Shape_Leng": 3.92337232062, "IDAS": 33, "Shape_Le_1": 3.92337232062, "Shape_Area": 0.45849999962 }, "geometry": { "type": "Polygon", "coordinates": [ [ [ 23.599999999700287, 41.499999999900126 ], [ 23.599999999700287, 41.300000000299804 ], [ 22.599999999900149, 41.18 ], [ 22.000000000199918, 41.120000000299854 ], [ 21.849999999600357, 41.45 ], [ 23.599999999700287, 41.499999999900126 ] ] ] } },
{ "type": "Feature", "properties": { "Id": 0, "Shape_Leng": 3.4504859810699999, "IDAS": 3401, "Shape_Le_1": 5.3112557688199997, "Shape_Area": 1.5548528556500001 }, "geometry": { "type": "Polygon", "coordinates": [ [ [ 24.480000000099949, 42.700000000199907 ], [ 24.480000000099949, 42.35 ], [ 24.480000000099949, 41.750000000299849 ], [ 24.480000000099949, 41.599999999700287 ], [ 23.599999999700287, 41.499999999900126 ], [ 23.599999999700287, 42.250000000199918 ], [ 23.149999999700299, 42.999999999600334 ], [ 24.288121824662539, 43.20884899448555 ], [ 24.480000000099949, 42.700000000199907 ] ] ] } },
{ "type": "Feature", "properties": { "Id": 0, "Shape_Leng": 5.2399999996000002, "IDAS": 3501, "Shape_Le_1": 6.2618810945099996, "Shape_Area": 1.7625424248799999 }, "geometry": { "type": "Polygon", "coordinates": [ [ [ 26.749999999700265, 42.700000000199907 ], [ 26.749999999700265, 42.35 ], [ 24.480000000099949, 42.35 ], [ 24.480000000099949, 42.499999999700265 ], [ 24.480000000099949, 42.700000000199907 ], [ 24.314525777842448, 43.138827351900829 ], [ 26.751094962962213, 43.085742642309128 ], [ 26.749999999700265, 42.700000000199907 ] ] ] } },
{ "type": "Feature", "properties": { "Id": 0, "Shape_Leng": 5.7399999986000001, "IDAS": 36, "Shape_Le_1": 6.18836000704, "Shape_Area": 2.0029999994300001 }, "geometry": { "type": "Polygon", "coordinates": [ [ [ 26.000000000299849, 41.48000000029981 ], [ 24.899999999800229, 41.400000000099965 ], [ 24.480000000099949, 41.599999999700287 ], [ 24.480000000099949, 41.750000000299849 ], [ 24.480000000099949, 42.35 ], [ 26.749999999700265, 42.35 ], [ 26.749999999700265, 41.750000000299849 ], [ 26.749999999700265, 41.499999999900126 ], [ 26.000000000299849, 41.48000000029981 ] ] ] } },
{ "type": "Feature", "properties": { "Id": 0, "Shape_Leng": 4.3529309704200001, "IDAS": 3801, "Shape_Le_1": 5.4046564307300002, "Shape_Area": 1.3907499996299999 }, "geometry": { "type": "Polygon", "coordinates": [ [ [ 22.400000000299826, 40.350000000399746 ], [ 21.249999999900126, 39.699999999900115 ], [ 21.000000000399723, 40.149999999900103 ], [ 21.050000000299804, 40.749999999600334 ], [ 21.500000000299849, 40.950000000099976 ], [ 22.000000000199918, 41.120000000299854 ], [ 22.599999999900149, 41.18 ], [ 22.649999999800173, 40.850000000299815 ], [ 22.1, 40.649999999800229 ], [ 22.400000000299826, 40.350000000399746 ] ] ] } },
{ "type": "Feature", "properties": { "Id": 0, "Shape_Leng": 2.6922555293700001, "IDAS": 39, "Shape_Le_1": 2.6922555293700001, "Shape_Area": 0.35799999984600001 }, "geometry": { "type": "Polygon", "coordinates": [ [ [ 23.599999999700287, 41.300000000299804 ], [ 23.599999999700287, 40.900000000199896 ], [ 22.649999999800173, 40.850000000299815 ], [ 22.599999999900149, 41.18 ], [ 23.599999999700287, 41.300000000299804 ] ] ] } },
{ "type": "Feature", "properties": { "Id": 0, "Shape_Leng": 3.5246719565300002, "IDAS": 40, "Shape_Le_1": 3.5246719565300002, "Shape_Area": 0.66149999991499997 }, "geometry": { "type": "Polygon", "coordinates": [ [ [ 24.480000000099949, 41.599999999700287 ], [ 24.899999999800229, 41.400000000099965 ], [ 24.899999999800229, 41.149999999700299 ], [ 23.599999999700287, 40.900000000199896 ], [ 23.599999999700287, 41.300000000299804 ], [ 23.599999999700287, 41.499999999900126 ], [ 24.480000000099949, 41.599999999700287 ] ] ] } },
{ "type": "Feature", "properties": { "Id": 0, "Shape_Leng": 2.8704762871299998, "IDAS": 42, "Shape_Le_1": 2.8704762871299998, "Shape_Area": 0.35749999969500001 }, "geometry": { "type": "Polygon", "coordinates": [ [ [ 23.300000000299804, 40.55 ], [ 23.300000000299804, 40.350000000399746 ], [ 22.400000000299826, 40.350000000399746 ], [ 22.1, 40.649999999800229 ], [ 22.649999999800173, 40.850000000299815 ], [ 23.0, 40.55 ], [ 23.300000000299804, 40.55 ] ] ] } },
{ "type": "Feature", "properties": { "Id": 0, "Shape_Leng": 2.3938609065300001, "IDAS": 43, "Shape_Le_1": 2.3938609065300001, "Shape_Area": 0.25875000031500001 }, "geometry": { "type": "Polygon", "coordinates": [ [ [ 23.599999999700287, 40.900000000199896 ], [ 23.700000000399768, 40.649999999800229 ], [ 23.300000000299804, 40.55 ], [ 23.0, 40.55 ], [ 22.649999999800173, 40.850000000299815 ], [ 23.599999999700287, 40.900000000199896 ] ] ] } },
{ "type": "Feature", "properties": { "Id": 0, "Shape_Leng": 2.9049985469199999, "IDAS": 4401, "Shape_Le_1": 2.65209313663, "Shape_Area": 0.30967140682799998 }, "geometry": { "type": "Polygon", "coordinates": [ [ [ 23.700000000399768, 40.649999999800229 ], [ 24.198495323900147, 40.509926245599786 ], [ 24.449999999800184, 40.249999999700265 ], [ 23.800000000199873, 40.249999999700265 ], [ 23.499999999900126, 40.320000000099981 ], [ 23.300000000299804, 40.350000000399746 ], [ 23.300000000299804, 40.55 ], [ 23.700000000399768, 40.649999999800229 ] ] ] } },
{ "type": "Feature", "properties": { "Id": 0, "Shape_Leng": 2.80152545884, "IDAS": 45, "Shape_Le_1": 2.80152545884, "Shape_Area": 0.39300000020999998 }, "geometry": { "type": "Polygon", "coordinates": [ [ [ 23.300000000299804, 40.350000000399746 ], [ 23.499999999900126, 40.320000000099981 ], [ 23.099999999800218, 39.849999999600357 ], [ 22.850000000299815, 39.699999999900115 ], [ 22.400000000299826, 40.350000000399746 ], [ 23.300000000299804, 40.350000000399746 ] ] ] } },
{ "type": "Feature", "properties": { "Id": 0, "Shape_Leng": 3.5261546181700001, "IDAS": 46, "Shape_Le_1": 3.5261546181700001, "Shape_Area": 0.53424999997400002 }, "geometry": { "type": "Polygon", "coordinates": [ [ [ 23.800000000199873, 40.249999999700265 ], [ 24.449999999800184, 40.249999999700265 ], [ 24.650000000299826, 40.249999999700265 ], [ 23.98000000019988, 39.820000000199911 ], [ 23.599999999700287, 39.65 ], [ 23.099999999800218, 39.849999999600357 ], [ 23.499999999900126, 40.320000000099981 ], [ 23.800000000199873, 40.249999999700265 ] ] ] } },
{ "type": "Feature", "properties": { "Id": 0, "Shape_Leng": 2.6315108840899999, "IDAS": 47, "Shape_Le_1": 2.6315108840899999, "Shape_Area": 0.38924999969899998 }, "geometry": { "type": "Polygon", "coordinates": [ [ [ 23.099999999800218, 39.849999999600357 ], [ 23.599999999700287, 39.65 ], [ 23.800000000199873, 39.100000000199884 ], [ 23.350000000199884, 39.1199999998002 ], [ 22.850000000299815, 39.699999999900115 ], [ 23.099999999800218, 39.849999999600357 ] ] ] } },
{ "type": "Feature", "properties": { "Id": 0, "Shape_Leng": 3.2263000069899999, "IDAS": 4801, "Shape_Le_1": 3.9854625888599999, "Shape_Area": 0.81907859337300004 }, "geometry": { "type": "Polygon", "coordinates": [ [ [ 24.650000000299826, 40.249999999700265 ], [ 24.449999999800184, 40.249999999700265 ], [ 24.198495323900147, 40.509926245599786 ], [ 23.700000000399768, 40.649999999800229 ], [ 23.599999999700287, 40.900000000199896 ], [ 24.899999999800229, 41.149999999700299 ], [ 24.899999999800229, 40.950000000099976 ], [ 25.200000000099976, 40.599999999900149 ], [ 24.650000000299826, 40.249999999700265 ] ] ] } },
{ "type": "Feature", "properties": { "Id": 0, "Shape_Leng": 3.0359598804600001, "IDAS": 5001, "Shape_Le_1": 3.9939086767299998, "Shape_Area": 0.77100000029100002 }, "geometry": { "type": "Polygon", "coordinates": [ [ [ 26.100000000099953, 40.620000000399727 ], [ 25.200000000099976, 40.599999999900149 ], [ 24.899999999800229, 40.950000000099976 ], [ 24.899999999800229, 41.149999999700299 ], [ 24.899999999800229, 41.400000000099965 ], [ 26.000000000299849, 41.48000000029981 ], [ 25.749999999900126, 40.900000000199896 ], [ 26.100000000099953, 40.620000000399727 ] ] ] } },
{ "type": "Feature", "properties": { "Id": 0, "Shape_Leng": 4.4171837211699998, "IDAS": 52, "Shape_Le_1": 4.4171837211699998, "Shape_Area": 1.0787499999700001 }, "geometry": { "type": "Polygon", "coordinates": [ [ [ 26.749999999700265, 41.499999999900126 ], [ 27.450000000099976, 41.520000000399762 ], [ 27.450000000099976, 41.049999999900137 ], [ 26.100000000099953, 40.620000000399727 ], [ 25.749999999900126, 40.900000000199896 ], [ 26.000000000299849, 41.48000000029981 ], [ 26.749999999700265, 41.499999999900126 ] ] ] } },
{ "type": "Feature", "properties": { "Id": 0, "Shape_Leng": 8.0908062430199994, "IDAS": 53, "Shape_Le_1": 5.0388163639899997, "Shape_Area": 0.963221495195 }, "geometry": { "type": "Polygon", "coordinates": [ [ [ 27.450000000099976, 41.520000000399762 ], [ 29.498814869410751, 41.520000000399762 ], [ 29.499999999600334, 41.049999999900137 ], [ 27.450000000099976, 41.049999999900137 ], [ 27.450000000099976, 41.520000000399762 ] ] ] } },
{ "type": "Feature", "properties": { "Id": 0, "Shape_Leng": 4.0129799511600002, "IDAS": 54, "Shape_Le_1": 4.0129799511600002, "Shape_Area": 0.92625000072700003 }, "geometry": { "type": "Polygon", "coordinates": [ [ [ 22.400000000299826, 40.350000000399746 ], [ 22.850000000299815, 39.699999999900115 ], [ 22.1, 39.349999999700287 ], [ 21.500000000299849, 39.299999999800207 ], [ 21.249999999900126, 39.699999999900115 ], [ 22.400000000299826, 40.350000000399746 ] ] ] } },
{ "type": "Feature", "properties": { "Id": 0, "Shape_Leng": 4.4396870830499999, "IDAS": 55, "Shape_Le_1": 3.5565940441100001, "Shape_Area": 0.62803185439099996 }, "geometry": { "type": "Polygon", "coordinates": [ [ [ 22.850000000299815, 39.699999999900115 ], [ 23.350000000199884, 39.1199999998002 ], [ 23.0, 38.949999999600379 ], [ 22.502487639093317, 38.9638197879529 ], [ 22.500900000234878, 38.971000000349761 ], [ 22.306499050191064, 39.000387761985678 ], [ 22.0461028446706, 39.167599624623051 ], [ 21.816886693865854, 39.326407223814385 ], [ 22.1, 39.349999999700287 ], [ 22.850000000299815, 39.699999999900115 ] ] ] } },
{ "type": "Feature", "properties": { "Id": 0, "Shape_Leng": 3.36190654447, "IDAS": 59, "Shape_Le_1": 3.36190654447, "Shape_Area": 0.57570000018699996 }, "geometry": { "type": "Polygon", "coordinates": [ [ [ 24.150000000399757, 38.849999999800218 ], [ 24.499999999700265, 38.600000000299815 ], [ 24.750000000099988, 38.449999999700253 ], [ 24.499999999700265, 38.319999999600327 ], [ 24.150000000399757, 38.200000000199907 ], [ 23.829999999600375, 38.319999999600327 ], [ 23.570000000299842, 38.250000000099988 ], [ 23.499999999900126, 38.449999999700253 ], [ 23.350000000199884, 38.780000000299822 ], [ 24.150000000399757, 38.849999999800218 ] ] ] } },
{ "type": "Feature", "properties": { "Id": 0, "Shape_Leng": 2.1561695242300001, "IDAS": 60, "Shape_Le_1": 2.1561695242300001, "Shape_Area": 0.20054999988 }, "geometry": { "type": "Polygon", "coordinates": [ [ [ 21.65, 38.529999999900156 ], [ 21.65, 38.349999999900149 ], [ 20.849999999800218, 37.999999999700265 ], [ 21.18000000039973, 38.539999999700285 ], [ 21.65, 38.529999999900156 ] ] ] } },
{ "type": "Feature", "properties": { "Id": 0, "Shape_Leng": 2.2180698670500001, "IDAS": 61, "Shape_Le_1": 2.2180698670500001, "Shape_Area": 0.27549999975299999 }, "geometry": { "type": "Polygon", "coordinates": [ [ [ 22.199999999800184, 38.499999999600334 ], [ 22.379999999800191, 38.460000000399759 ], [ 22.400000000299826, 37.999999999700265 ], [ 22.000000000199918, 38.100000000399746 ], [ 21.65, 38.349999999900149 ], [ 21.65, 38.529999999900156 ], [ 22.199999999800184, 38.499999999600334 ] ] ] } },
{ "type": "Feature", "properties": { "Id": 0, "Shape_Leng": 2.2706541789000001, "IDAS": 6204, "Shape_Le_1": 2.5899251995600001, "Shape_Area": 0.37919999999699999 }, "geometry": { "type": "Polygon", "coordinates": [ [ [ 23.229999999900144, 37.67 ], [ 22.699999999700253, 37.819999999700258 ], [ 22.795249498965234, 37.967636724055637 ], [ 22.944320240886441, 38.198696372639517 ], [ 23.059515522323522, 38.377249058597215 ], [ 23.099999999800218, 38.439999999900124 ], [ 23.499999999900126, 38.449999999700253 ], [ 23.570000000299842, 38.250000000099988 ], [ 23.499999999900126, 38.200000000199907 ], [ 23.250000000399723, 37.800000000099999 ], [ 23.229999999900144, 37.67 ] ] ] } },
{ "type": "Feature", "properties": { "Id": 0, "Shape_Leng": 2.1536264794800002, "IDAS": 6409, "Shape_Le_1": 3.5033956311900001, "Shape_Area": 0.58275000016300005 }, "geometry": { "type": "Polygon", "coordinates": [ [ [ 24.499999999700265, 38.319999999600327 ], [ 24.700000000199907, 37.949999999800184 ], [ 23.700000000399768, 37.499999999800195 ], [ 23.229999999900144, 37.67 ], [ 23.250000000399723, 37.800000000099999 ], [ 23.85851038804401, 38.070449061275212 ], [ 24.150000000399757, 38.200000000199907 ], [ 24.499999999700265, 38.319999999600327 ] ] ] } },
{ "type": "Feature", "properties": { "Id": 0, "Shape_Leng": 4.0707371692800001, "IDAS": 66, "Shape_Le_1": 4.0707371692800001, "Shape_Area": 0.57905000004899998 }, "geometry": { "type": "Polygon", "coordinates": [ [ [ 23.700000000399768, 37.499999999800195 ], [ 23.45, 37.149999999600368 ], [ 22.699999999700253, 37.449999999900115 ], [ 22.500000000099988, 37.449999999900115 ], [ 22.000000000199918, 38.100000000399746 ], [ 22.400000000299826, 37.999999999700265 ], [ 22.699999999700253, 37.819999999700258 ], [ 23.229999999900144, 37.67 ], [ 23.700000000399768, 37.499999999800195 ] ] ] } },
{ "type": "Feature", "properties": { "Id": 0, "Shape_Leng": 2.7372468438499999, "IDAS": 67, "Shape_Le_1": 2.7372468438499999, "Shape_Area": 0.39249999997399998 }, "geometry": { "type": "Polygon", "coordinates": [ [ [ 21.65, 38.349999999900149 ], [ 22.000000000199918, 38.100000000399746 ], [ 21.219999999600361, 37.629999999900122 ], [ 20.849999999800218, 37.999999999700265 ], [ 21.65, 38.349999999900149 ] ] ] } },
{ "type": "Feature", "properties": { "Id": 0, "Shape_Leng": 3.8296575541400002, "IDAS": 68, "Shape_Le_1": 3.82289792634, "Shape_Area": 0.70743560124500005 }, "geometry": { "type": "Polygon", "coordinates": [ [ [ 22.000000000199918, 38.100000000399746 ], [ 22.500000000099988, 37.449999999900115 ], [ 22.000000000199918, 37.350000000099953 ], [ 21.399999999600368, 37.049999999800207 ], [ 21.286966421263401, 37.15302808797594 ], [ 21.1199999998002, 37.319999999800189 ], [ 21.38, 37.499999999800195 ], [ 21.219999999600361, 37.629999999900122 ], [ 22.000000000199918, 38.100000000399746 ] ] ] } },
{ "type": "Feature", "properties": { "Id": 0, "Shape_Leng": 4.3082582525799999, "IDAS": 69, "Shape_Le_1": 4.3082582525799999, "Shape_Area": 0.89549999969000005 }, "geometry": { "type": "Polygon", "coordinates": [ [ [ 22.000000000199918, 37.350000000099953 ], [ 22.500000000099988, 37.449999999900115 ], [ 22.779999999900099, 36.649999999700299 ], [ 22.500000000099988, 36.000000000099988 ], [ 22.000000000199918, 36.750000000399723 ], [ 21.399999999600368, 37.049999999800207 ], [ 22.000000000199918, 37.350000000099953 ] ] ] } },
{ "type": "Feature", "properties": { "Id": 0, "Shape_Leng": 3.0778533061500002, "IDAS": 70, "Shape_Le_1": 3.0778533061500002, "Shape_Area": 0.547999999977 }, "geometry": { "type": "Polygon", "coordinates": [ [ [ 23.45, 37.149999999600368 ], [ 23.499999999900126, 36.649999999700299 ], [ 22.779999999900099, 36.649999999700299 ], [ 22.500000000099988, 37.449999999900115 ], [ 22.699999999700253, 37.449999999900115 ], [ 23.45, 37.149999999600368 ] ] ] } },
{ "type": "Feature", "properties": { "Id": 0, "Shape_Leng": 3.4312962808599998, "IDAS": 71, "Shape_Le_1": 3.4312962808599998, "Shape_Area": 0.77774999952599999 }, "geometry": { "type": "Polygon", "coordinates": [ [ [ 23.499999999900126, 36.649999999700299 ], [ 23.499999999900126, 36.249999999600334 ], [ 23.499999999900126, 35.850000000399746 ], [ 23.250000000399723, 35.6 ], [ 22.500000000099988, 36.000000000099988 ], [ 22.779999999900099, 36.649999999700299 ], [ 23.499999999900126, 36.649999999700299 ] ] ] } },
{ "type": "Feature", "properties": { "Id": 0, "Shape_Leng": 2.2047345693899998, "IDAS": 72, "Shape_Le_1": 2.2047345693899998, "Shape_Area": 0.25374999979500001 }, "geometry": { "type": "Polygon", "coordinates": [ [ [ 23.499999999900126, 35.850000000399746 ], [ 24.099999999600357, 35.349999999600357 ], [ 23.850000000099953, 35.15 ], [ 23.250000000399723, 35.6 ], [ 23.499999999900126, 35.850000000399746 ] ] ] } },
{ "type": "Feature", "properties": { "Id": 0, "Shape_Leng": 1.9662924416300001, "IDAS": 73, "Shape_Le_1": 1.9662924416300001, "Shape_Area": 0.20199999980399999 }, "geometry": { "type": "Polygon", "coordinates": [ [ [ 24.700000000199907, 35.130000000399775 ], [ 24.300000000099999, 34.870000000199923 ], [ 23.850000000099953, 35.15 ], [ 24.099999999600357, 35.349999999600357 ], [ 24.700000000199907, 35.130000000399775 ] ] ] } },
{ "type": "Feature", "properties": { "Id": 0, "Shape_Leng": 5.5543695560900002, "IDAS": 74, "Shape_Le_1": 5.5543695560900002, "Shape_Area": 1.2535000005100001 }, "geometry": { "type": "Polygon", "coordinates": [ [ [ 25.399999999700299, 35.119999999700269 ], [ 26.900000000299826, 34.899999999600368 ], [ 26.050000000199873, 34.399999999700299 ], [ 24.949999999700253, 34.449999999600379 ], [ 24.300000000099999, 34.870000000199923 ], [ 24.700000000199907, 35.130000000399775 ], [ 25.399999999700299, 35.119999999700269 ] ] ] } },
{ "type": "Feature", "properties": { "Id": 0, "Shape_Leng": 5.1527206228300004, "IDAS": 75, "Shape_Le_1": 5.1527206228300004, "Shape_Area": 1.3559999991 }, "geometry": { "type": "Polygon", "coordinates": [ [ [ 25.399999999700299, 35.799999999600345 ], [ 25.399999999700299, 35.119999999700269 ], [ 24.700000000199907, 35.130000000399775 ], [ 24.099999999600357, 35.349999999600357 ], [ 23.499999999900126, 35.850000000399746 ], [ 23.499999999900126, 36.249999999600334 ], [ 25.399999999700299, 35.799999999600345 ] ] ] } },
{ "type": "Feature", "properties": { "Id": 0, "Shape_Leng": 4.4678330692600001, "IDAS": 76, "Shape_Le_1": 4.4678330692600001, "Shape_Area": 1.1325000007899999 }, "geometry": { "type": "Polygon", "coordinates": [ [ [ 26.699999999800184, 35.850000000399746 ], [ 26.900000000299826, 34.899999999600368 ], [ 25.399999999700299, 35.119999999700269 ], [ 25.399999999700299, 35.799999999600345 ], [ 26.699999999800184, 35.850000000399746 ] ] ] } },
{ "type": "Feature", "properties": { "Id": 0, "Shape_Leng": 4.0986758815600002, "IDAS": 77, "Shape_Le_1": 4.0986758815600002, "Shape_Area": 0.95249999985800005 }, "geometry": { "type": "Polygon", "coordinates": [ [ [ 27.199999999700253, 36.5 ], [ 27.649999999700299, 36.249999999600334 ], [ 27.649999999700299, 35.749999999700265 ], [ 27.300000000399734, 35.450000000299838 ], [ 26.900000000299826, 34.899999999600368 ], [ 26.699999999800184, 35.850000000399746 ], [ 26.850000000399746, 36.450000000099976 ], [ 27.199999999700253, 36.5 ] ] ] } },
{ "type": "Feature", "properties": { "Id": 0, "Shape_Leng": 3.6382362049000001, "IDAS": 78, "Shape_Le_1": 3.6382362049000001, "Shape_Area": 0.73399999999800003 }, "geometry": { "type": "Polygon", "coordinates": [ [ [ 24.650000000299826, 40.249999999700265 ], [ 24.899999999800229, 39.799999999700276 ], [ 24.250000000199918, 39.249999999900126 ], [ 23.800000000199873, 39.100000000199884 ], [ 23.599999999700287, 39.65 ], [ 23.98000000019988, 39.820000000199911 ], [ 24.650000000299826, 40.249999999700265 ] ] ] } },
{ "type": "Feature", "properties": { "Id": 0, "Shape_Leng": 2.4618202080599998, "IDAS": 79, "Shape_Le_1": 2.4618202080599998, "Shape_Area": 0.24824999993899999 }, "geometry": { "type": "Polygon", "coordinates": [ [ [ 23.800000000199873, 39.100000000199884 ], [ 24.150000000399757, 38.849999999800218 ], [ 23.350000000199884, 38.780000000299822 ], [ 23.0, 38.949999999600379 ], [ 23.350000000199884, 39.1199999998002 ], [ 23.800000000199873, 39.100000000199884 ] ] ] } },
{ "type": "Feature", "properties": { "Id": 0, "Shape_Leng": 2.3284399894200001, "IDAS": 80, "Shape_Le_1": 2.3284399894200001, "Shape_Area": 0.27749999979000001 }, "geometry": { "type": "Polygon", "coordinates": [ [ [ 24.250000000199918, 39.249999999900126 ], [ 24.750000000099988, 38.849999999800218 ], [ 24.499999999700265, 38.600000000299815 ], [ 23.800000000199873, 39.100000000199884 ], [ 24.250000000199918, 39.249999999900126 ] ] ] } },
{ "type": "Feature", "properties": { "Id": 0, "Shape_Leng": 3.43952792817, "IDAS": 81, "Shape_Le_1": 3.43952792817, "Shape_Area": 0.63874999992000003 }, "geometry": { "type": "Polygon", "coordinates": [ [ [ 24.899999999800229, 39.799999999700276 ], [ 25.650000000099965, 39.600000000099953 ], [ 24.750000000099988, 38.849999999800218 ], [ 24.250000000199918, 39.249999999900126 ], [ 24.899999999800229, 39.799999999700276 ] ] ] } },
{ "type": "Feature", "properties": { "Id": 0, "Shape_Leng": 4.0693149282499999, "IDAS": 82, "Shape_Le_1": 4.0693149282499999, "Shape_Area": 0.50000000020500002 }, "geometry": { "type": "Polygon", "coordinates": [ [ [ 25.650000000099965, 39.600000000099953 ], [ 26.100000000099953, 39.640000000199905 ], [ 25.650000000099965, 39.2 ], [ 24.750000000099988, 38.449999999700253 ], [ 24.499999999700265, 38.600000000299815 ], [ 24.750000000099988, 38.849999999800218 ], [ 25.650000000099965, 39.600000000099953 ] ] ] } },
{ "type": "Feature", "properties": { "Id": 0, "Shape_Leng": 4.3310549174000004, "IDAS": 83, "Shape_Le_1": 4.3310549174000004, "Shape_Area": 0.75874999943599997 }, "geometry": { "type": "Polygon", "coordinates": [ [ [ 26.529999999600363, 38.920000000199877 ], [ 26.400000000399757, 38.700000000099976 ], [ 26.15, 38.75 ], [ 25.25, 38.150000000299826 ], [ 24.750000000099988, 38.449999999700253 ], [ 25.650000000099965, 39.2 ], [ 25.899999999600368, 38.949999999600379 ], [ 26.529999999600363, 38.920000000199877 ] ] ] } },
{ "type": "Feature", "properties": { "Id": 0, "Shape_Leng": 2.93902964844, "IDAS": 84, "Shape_Le_1": 2.93902964844, "Shape_Area": 0.26150000007399998 }, "geometry": { "type": "Polygon", "coordinates": [ [ [ 26.299999999700276, 39.680000000299799 ], [ 27.000000000099988, 39.500000000299849 ], [ 25.650000000099965, 39.2 ], [ 26.100000000099953, 39.640000000199905 ], [ 26.299999999700276, 39.680000000299799 ] ] ] } },
{ "type": "Feature", "properties": { "Id": 0, "Shape_Leng": 3.1137242250299999, "IDAS": 85, "Shape_Le_1": 3.1137242250299999, "Shape_Area": 0.39600000012999997 }, "geometry": { "type": "Polygon", "coordinates": [ [ [ 27.000000000099988, 39.500000000299849 ], [ 26.529999999600363, 38.920000000199877 ], [ 25.899999999600368, 38.949999999600379 ], [ 25.650000000099965, 39.2 ], [ 27.000000000099988, 39.500000000299849 ] ] ] } },
{ "type": "Feature", "properties": { "Id": 0, "Shape_Leng": 4.1325974034800002, "IDAS": 86, "Shape_Le_1": 4.1325974034800002, "Shape_Area": 0.97850000002299997 }, "geometry": { "type": "Polygon", "coordinates": [ [ [ 26.100000000099953, 40.620000000399727 ], [ 26.299999999700276, 40.000000000199918 ], [ 24.899999999800229, 39.799999999700276 ], [ 24.650000000299826, 40.249999999700265 ], [ 25.200000000099976, 40.599999999900149 ], [ 26.100000000099953, 40.620000000399727 ] ] ] } },
{ "type": "Feature", "properties": { "Id": 0, "Shape_Leng": 3.1661573573499999, "IDAS": 87, "Shape_Le_1": 3.1661573573499999, "Shape_Area": 0.32399999985200001 }, "geometry": { "type": "Polygon", "coordinates": [ [ [ 26.299999999700276, 40.000000000199918 ], [ 26.299999999700276, 39.680000000299799 ], [ 26.100000000099953, 39.640000000199905 ], [ 25.650000000099965, 39.600000000099953 ], [ 24.899999999800229, 39.799999999700276 ], [ 26.299999999700276, 40.000000000199918 ] ] ] } },
{ "type": "Feature", "properties": { "Id": 0, "Shape_Leng": 4.5586852123100003, "IDAS": 88, "Shape_Le_1": 4.5586852123100003, "Shape_Area": 0.95149999999699997 }, "geometry": { "type": "Polygon", "coordinates": [ [ [ 27.450000000099976, 41.049999999900137 ], [ 27.999999999900126, 40.699999999700253 ], [ 26.299999999700276, 40.000000000199918 ], [ 26.100000000099953, 40.620000000399727 ], [ 27.450000000099976, 41.049999999900137 ] ] ] } },
{ "type": "Feature", "properties": { "Id": 0, "Shape_Leng": 5.1754043774899996, "IDAS": 89, "Shape_Le_1": 5.1754043774899996, "Shape_Area": 1.4052499999300001 }, "geometry": { "type": "Polygon", "coordinates": [ [ [ 27.999999999900126, 40.699999999700253 ], [ 28.200000000399768, 40.249999999700265 ], [ 28.350000000099953, 39.879999999900122 ], [ 27.000000000099988, 39.500000000299849 ], [ 26.299999999700276, 39.680000000299799 ], [ 26.299999999700276, 40.000000000199918 ], [ 27.999999999900126, 40.699999999700253 ] ] ] } },
{ "type": "Feature", "properties": { "Id": 0, "Shape_Leng": 4.5519202398600003, "IDAS": 90, "Shape_Le_1": 4.5519202398600003, "Shape_Area": 0.62125000021499999 }, "geometry": { "type": "Polygon", "coordinates": [ [ [ 29.499999999600334, 41.049999999900137 ], [ 29.499999999600334, 40.699999999700253 ], [ 27.999999999900126, 40.699999999700253 ], [ 27.450000000099976, 41.049999999900137 ], [ 29.499999999600334, 41.049999999900137 ] ] ] } },
{ "type": "Feature", "properties": { "Id": 0, "Shape_Leng": 7.3726007893599999, "IDAS": 91, "Shape_Le_1": 5.5573514191899998, "Shape_Area": 1.0782145788 }, "geometry": { "type": "Polygon", "coordinates": [ [ [ 28.200000000399768, 40.249999999700265 ], [ 27.999999999900126, 40.699999999700253 ], [ 29.499999999600334, 40.699999999700253 ], [ 29.499999999600334, 41.049999999900137 ], [ 30.050956530919223, 41.067772791581092 ], [ 30.058062559139842, 40.263824418662068 ], [ 30.000000000399723, 40.249999999700265 ], [ 28.200000000399768, 40.249999999700265 ] ] ] } },
{ "type": "Feature", "properties": { "Id": 0, "Shape_Leng": 6.8388980592299999, "IDAS": 92, "Shape_Le_1": 4.5359533735899999, "Shape_Area": 0.80475815052599997 }, "geometry": { "type": "Polygon", "coordinates": [ [ [ 30.067852542960566, 39.712857590105727 ], [ 28.350000000099953, 39.879999999900122 ], [ 28.200000000399768, 40.249999999700265 ], [ 30.000000000399723, 40.249999999700265 ], [ 30.058062559139842, 40.263824418662068 ], [ 30.067852542960566, 39.712857590105727 ] ] ] } },
{ "type": "Feature", "properties": { "Id": 0, "Shape_Leng": 8.32929315278, "IDAS": 9301, "Shape_Le_1": 8.32929315278, "Shape_Area": 3.4830000004100001 }, "geometry": { "type": "Polygon", "coordinates": [ [ [ 26.500000000199918, 37.30000000019993 ], [ 25.500000000399723, 36.649999999700299 ], [ 25.100000000299815, 36.450000000099976 ], [ 24.8, 36.750000000399723 ], [ 24.399999999900103, 36.450000000099976 ], [ 23.999999999800195, 36.649999999700299 ], [ 23.45, 37.149999999600368 ], [ 23.700000000399768, 37.499999999800195 ], [ 24.700000000199907, 37.949999999800184 ], [ 24.499999999700265, 38.319999999600327 ], [ 24.750000000099988, 38.449999999700253 ], [ 25.25, 38.150000000299826 ], [ 26.500000000199918, 37.750000000199918 ], [ 26.500000000199918, 37.30000000019993 ] ] ] } },
{ "type": "Feature", "properties": { "Id": 0, "Shape_Leng": 5.7678584652799998, "IDAS": 94, "Shape_Le_1": 5.7678584652799998, "Shape_Area": 1.1430000007700001 }, "geometry": { "type": "Polygon", "coordinates": [ [ [ 23.45, 37.149999999600368 ], [ 23.999999999800195, 36.649999999700299 ], [ 24.399999999900103, 36.450000000099976 ], [ 24.8, 36.750000000399723 ], [ 25.100000000299815, 36.450000000099976 ], [ 25.399999999700299, 36.220000000199889 ], [ 25.399999999700299, 35.799999999600345 ], [ 23.499999999900126, 36.249999999600334 ], [ 23.499999999900126, 36.649999999700299 ], [ 23.45, 37.149999999600368 ] ] ] } },
{ "type": "Feature", "properties": { "Id": 0, "Shape_Leng": 3.8791327831100002, "IDAS": 96, "Shape_Le_1": 3.8791327831100002, "Shape_Area": 0.82875000031599999 }, "geometry": { "type": "Polygon", "coordinates": [ [ [ 25.650000000099965, 36.450000000099976 ], [ 26.850000000399746, 36.450000000099976 ], [ 26.699999999800184, 35.850000000399746 ], [ 25.399999999700299, 35.799999999600345 ], [ 25.399999999700299, 36.220000000199889 ], [ 25.650000000099965, 36.450000000099976 ] ] ] } },
{ "type": "Feature", "properties": { "Id": 0, "Shape_Leng": 4.275125885, "IDAS": 97, "Shape_Le_1": 4.275125885, "Shape_Area": 0.97124999987299998 }, "geometry": { "type": "Polygon", "coordinates": [ [ [ 26.400000000399757, 38.700000000099976 ], [ 27.099999999900149, 38.049999999600345 ], [ 26.500000000199918, 37.750000000199918 ], [ 25.25, 38.150000000299826 ], [ 26.15, 38.75 ], [ 26.400000000399757, 38.700000000099976 ] ] ] } },
{ "type": "Feature", "properties": { "Id": 0, "Shape_Leng": 5.0447944303099996, "IDAS": 98, "Shape_Le_1": 5.0447944303099996, "Shape_Area": 1.2057499994700001 }, "geometry": { "type": "Polygon", "coordinates": [ [ [ 27.649999999700299, 38.899999999700299 ], [ 28.599999999600357, 38.150000000299826 ], [ 27.300000000399734, 38.070000000099981 ], [ 27.099999999900149, 38.049999999600345 ], [ 26.400000000399757, 38.700000000099976 ], [ 26.529999999600363, 38.920000000199877 ], [ 27.649999999700299, 38.899999999700299 ] ] ] } },
{ "type": "Feature", "properties": { "Id": 0, "Shape_Leng": 4.4796091414600001, "IDAS": 9901, "Shape_Le_1": 5.6538260337499997, "Shape_Area": 1.64931982467 }, "geometry": { "type": "Polygon", "coordinates": [ [ [ 30.246797470027275, 38.486017794585621 ], [ 28.175891934565186, 38.816162155259292 ], [ 28.251615930031221, 39.042276890566086 ], [ 28.365999999600376, 39.479999999800214 ], [ 28.376463611606425, 39.496161633552617 ], [ 30.244344921680863, 39.464502630492063 ], [ 30.246797470027275, 38.486017794585621 ] ] ] } },
{ "type": "Feature", "properties": { "Id": 0, "Shape_Leng": 6.3885780388800004, "IDAS": 100, "Shape_Le_1": 4.3133033381399999, "Shape_Area": 0.57771226615899995 }, "geometry": { "type": "Polygon", "coordinates": [ [ [ 30.062313605888278, 39.467587904957895 ], [ 28.149999999600368, 39.500000000299849 ], [ 28.350000000099953, 39.879999999900122 ], [ 30.067852542960566, 39.712857590105727 ], [ 30.062313605888278, 39.467587904957895 ] ] ] } },
{ "type": "Feature", "properties": { "Id": 0, "Shape_Leng": 7.6644924856900003, "IDAS": 10201, "Shape_Le_1": 5.9960380212500004, "Shape_Area": 1.1040183380599999 }, "geometry": { "type": "Polygon", "coordinates": [ [ [ 30.000000000399723, 37.949999999800184 ], [ 29.583500000224888, 38.061199999880159 ], [ 29.129999999800191, 38.212999999850183 ], [ 28.814, 38.259999999900117 ], [ 28.503050540650008, 38.226539046839605 ], [ 27.649999999700299, 38.899999999700299 ], [ 30.246797470027275, 38.486017794585621 ], [ 30.2, 37.949999999800184 ], [ 30.000000000399723, 37.949999999800184 ] ] ] } },
{ "type": "Feature", "properties": { "Id": 0, "Shape_Leng": 3.0183440629199998, "IDAS": 103, "Shape_Le_1": 3.0183440629199998, "Shape_Area": 0.55850000007 }, "geometry": { "type": "Polygon", "coordinates": [ [ [ 27.300000000399734, 38.070000000099981 ], [ 27.400000000199896, 37.279999999700294 ], [ 26.500000000199918, 37.30000000019993 ], [ 26.500000000199918, 37.750000000199918 ], [ 27.099999999900149, 38.049999999600345 ], [ 27.300000000399734, 38.070000000099981 ] ] ] } },
{ "type": "Feature", "properties": { "Id": 0, "Shape_Leng": 4.41290067013, "IDAS": 104, "Shape_Le_1": 4.41290067013, "Shape_Area": 1.1527499999099999 }, "geometry": { "type": "Polygon", "coordinates": [ [ [ 28.599999999600357, 38.150000000299826 ], [ 28.750000000199918, 37.200000000399768 ], [ 27.400000000199896, 37.279999999700294 ], [ 27.300000000399734, 38.070000000099981 ], [ 28.599999999600357, 38.150000000299826 ] ] ] } },
{ "type": "Feature", "properties": { "Id": 0, "Shape_Leng": 1.4149405130599999, "IDAS": 10701, "Shape_Le_1": 4.4768653738599999, "Shape_Area": 0.77699999972699996 }, "geometry": { "type": "Polygon", "coordinates": [ [ [ 25.650000000099965, 36.450000000099976 ], [ 25.399999999700299, 36.220000000199889 ], [ 25.100000000299815, 36.450000000099976 ], [ 25.500000000399723, 36.649999999700299 ], [ 26.500000000199918, 37.30000000019993 ], [ 26.850000000399746, 36.450000000099976 ], [ 25.650000000099965, 36.450000000099976 ] ] ] } },
{ "type": "Feature", "properties": { "Id": 0, "Shape_Leng": 3.17655577761, "IDAS": 10801, "Shape_Le_1": 5.3540509351900001, "Shape_Area": 1.19750000009 }, "geometry": { "type": "Polygon", "coordinates": [ [ [ 27.199999999700253, 36.5 ], [ 26.850000000399746, 36.450000000099976 ], [ 26.500000000199918, 37.30000000019993 ], [ 27.263834785047322, 37.283025893730041 ], [ 27.400000000199896, 37.279999999700294 ], [ 28.750000000199918, 37.200000000399768 ], [ 28.750000000199918, 36.999999999900126 ], [ 27.5, 36.599999999800218 ], [ 27.45768618277117, 36.58589539435701 ], [ 27.199999999700253, 36.5 ] ] ] } },
{ "type": "Feature", "properties": { "Id": 0, "Shape_Leng": 3.63193618171, "IDAS": 110, "Shape_Le_1": 3.63193618171, "Shape_Area": 0.4737500004 }, "geometry": { "type": "Polygon", "coordinates": [ [ [ 28.750000000199918, 36.999999999900126 ], [ 28.750000000199918, 36.699999999600379 ], [ 27.649999999700299, 36.249999999600334 ], [ 27.199999999700253, 36.5 ], [ 27.5, 36.599999999800218 ], [ 28.750000000199918, 36.999999999900126 ] ] ] } },
{ "type": "Feature", "properties": { "Id": 0, "Shape_Leng": 3.16009145129, "IDAS": 111, "Shape_Le_1": 3.16009145129, "Shape_Area": 0.61124999964799998 }, "geometry": { "type": "Polygon", "coordinates": [ [ [ 29.899999999700299, 36.900000000099965 ], [ 29.499999999600334, 36.400000000199896 ], [ 28.949999999800184, 36.599999999800218 ], [ 28.750000000199918, 36.699999999600379 ], [ 28.750000000199918, 36.999999999900126 ], [ 28.750000000199918, 37.200000000399768 ], [ 29.399999999800229, 37.149999999600368 ], [ 29.899999999700299, 36.900000000099965 ] ] ] } },
{ "type": "Feature", "properties": { "Id": 0, "Shape_Leng": 5.2368033681800004, "IDAS": 2802, "Shape_Le_1": 7.0594498732700002, "Shape_Area": 2.6778992886099999 }, "geometry": { "type": "Polygon", "coordinates": [ [ [ 21.2, 41.700000000399768 ], [ 20.75, 41.549999999800207 ], [ 20.280000000399752, 42.150000000399757 ], [ 20.150000000299826, 42.499999999700265 ], [ 19.499999999800195, 42.999999999600334 ], [ 20.47542079423431, 43.140104038470668 ], [ 21.464290547870519, 43.425660010301272 ], [ 21.847170953676596, 42.651130246663627 ], [ 22.138096356561675, 41.919576968402396 ], [ 21.600000000099953, 41.80000000019993 ], [ 21.2, 41.700000000399768 ] ] ] } },
{ "type": "Feature", "properties": { "Id": 0, "Shape_Leng": 7.6644924856900003, "IDAS": 10202, "Shape_Le_1": 4.6101225828399999, "Shape_Area": 1.1316331482899999 }, "geometry": { "type": "Polygon", "coordinates": [ [ [ 30.2, 37.949999999800184 ], [ 29.399999999800229, 37.149999999600368 ], [ 28.750000000199918, 37.200000000399768 ], [ 28.599999999600357, 38.150000000299826 ], [ 28.503050540650008, 38.226539046839605 ], [ 28.814, 38.259999999900117 ], [ 29.129999999800191, 38.212999999850183 ], [ 29.583500000224888, 38.061199999880159 ], [ 30.000000000399723, 37.949999999800184 ], [ 30.2, 37.949999999800184 ] ] ] } },
{ "type": "Feature", "properties": { "Id": 0, "Shape_Leng": 4.4796091414600001, "IDAS": 9902, "Shape_Le_1": 5.1677453024800002, "Shape_Area": 1.15081381184 }, "geometry": { "type": "Polygon", "coordinates": [ [ [ 28.175891934565186, 38.816162155259292 ], [ 27.649999999700299, 38.899999999700299 ], [ 26.529999999600363, 38.920000000199877 ], [ 27.000000000099988, 39.500000000299849 ], [ 28.350000000099953, 39.879999999900122 ], [ 28.149999999600368, 39.500000000299849 ], [ 28.376463611606425, 39.496161633552617 ], [ 28.365999999600376, 39.479999999800214 ], [ 28.251615930031221, 39.042276890566086 ], [ 28.175891934565186, 38.816162155259292 ] ] ] } },
{ "type": "Feature", "properties": { "Id": 0, "Shape_Leng": 1.6268573986599999, "IDAS": 1201, "Shape_Le_1": 1.76806941518, "Shape_Area": 0.18518969203300001 }, "geometry": { "type": "Polygon", "coordinates": [ [ [ 21.297521062646979, 38.537499551663018 ], [ 21.18000000039973, 38.539999999700285 ], [ 20.740000000199927, 38.539999999700285 ], [ 20.899999999700299, 38.93 ], [ 21.23000000029981, 38.970000000099958 ], [ 21.248610273945019, 38.972537764606216 ], [ 21.297521062646979, 38.537499551663018 ] ] ] } },
{ "type": "Feature", "properties": { "Id": 0, "Shape_Leng": 2.1536264794800002, "IDAS": 6401, "Shape_Le_1": 2.1536264794800002, "Shape_Area": 0.17304999997100001 }, "geometry": { "type": "Polygon", "coordinates": [ [ [ 23.250000000399723, 37.800000000099999 ], [ 23.499999999900126, 38.200000000199907 ], [ 23.570000000299842, 38.250000000099988 ], [ 23.829999999600375, 38.319999999600327 ], [ 24.150000000399757, 38.200000000199907 ], [ 23.85851038804401, 38.070449061275212 ], [ 23.250000000399723, 37.800000000099999 ] ] ] } },
{ "type": "Feature", "properties": { "Id": 0, "Shape_Leng": 2.2706541789000001, "IDAS": 6201, "Shape_Le_1": 2.2706541789000001, "Shape_Area": 0.284400000328 }, "geometry": { "type": "Polygon", "coordinates": [ [ [ 22.379999999800191, 38.460000000399759 ], [ 22.82, 38.420000000299808 ], [ 23.099999999800218, 38.439999999900124 ], [ 23.059515522323522, 38.377249058597215 ], [ 22.944320240886441, 38.198696372639517 ], [ 22.795249498965234, 37.967636724055637 ], [ 22.699999999700253, 37.819999999700258 ], [ 22.400000000299826, 37.999999999700265 ], [ 22.379999999800191, 38.460000000399759 ] ] ] } },
{ "type": "Feature", "properties": { "Id": 0, "Shape_Leng": 5.0728433769, "IDAS": 106, "Shape_Le_1": 2.47386293379, "Shape_Area": 0.35066264850599999 }, "geometry": { "type": "Polygon", "coordinates": [ [ [ 29.899999999700299, 36.900000000099965 ], [ 29.399999999800229, 37.149999999600368 ], [ 29.968089045972761, 37.718089045772899 ], [ 30.288753947037094, 37.528248380658283 ], [ 29.899999999700299, 36.900000000099965 ] ] ] } },
{ "type": "Feature", "properties": { "Id": 0, "Shape_Leng": 4.0107500636099997, "IDAS": 112, "Shape_Le_1": 1.9585061002299999, "Shape_Area": 0.217699528517 }, "geometry": { "type": "Polygon", "coordinates": [ [ [ 29.999261450155871, 36.300147710448528 ], [ 29.499999999600334, 36.400000000199896 ], [ 29.899999999700299, 36.900000000099965 ], [ 30.157297786263882, 36.814234071245437 ], [ 29.999261450155871, 36.300147710448528 ] ] ] } },
{ "type": "Feature", "properties": { "Id": 0, "Shape_Leng": 1.6268573986599999, "IDAS": 1205, "Shape_Le_1": 3.5130098472500002, "Shape_Area": 0.45733560694399999 }, "geometry": { "type": "Polygon", "coordinates": [ [ [ 23.099999999800218, 38.439999999900124 ], [ 22.82, 38.420000000299808 ], [ 22.558000000199911, 38.682300000444741 ], [ 22.307987876939023, 38.835002980902914 ], [ 21.99621998236637, 38.917919974427321 ], [ 21.970145958069565, 38.976455292377921 ], [ 22.28, 38.970000000099958 ], [ 23.0, 38.949999999600379 ], [ 23.350000000199884, 38.780000000299822 ], [ 23.499999999900126, 38.449999999700253 ], [ 23.099999999800218, 38.439999999900124 ] ] ] } },
{ "type": "Feature", "properties": { "Id": 0, "Shape_Leng": 4.4396870830499999, "IDAS": 55001, "Shape_Le_1": 2.4676505480399999, "Shape_Area": 0.2052681452 }, "geometry": { "type": "Polygon", "coordinates": [ [ [ 22.502487639093317, 38.9638197879529 ], [ 22.28, 38.970000000099958 ], [ 21.799999999700276, 38.979999999900144 ], [ 21.450000000399768, 39.000000000399723 ], [ 21.500000000299849, 39.299999999800207 ], [ 21.816886693865854, 39.326407223814385 ], [ 22.0461028446706, 39.167599624623051 ], [ 22.306499050191064, 39.000387761985678 ], [ 22.500900000234878, 38.971000000349761 ], [ 22.502487639093317, 38.9638197879529 ] ] ] } }
]
}
