{
"type": "FeatureCollection",
"name": "rcs_reverse",
"crs": { "type": "name", "properties": { "name": "urn:ogc:def:crs:OGC:1.3:CRS84" } },
"features": [
{ "type": "Feature", "properties": { "LonA": 19.4952, "LatA": 40.1065, "LonB": 18.9701, "LatB": 40.551, "SS_ID": 116.0, "Shape_Leng": 0.68797788005100002 }, "geometry": { "type": "LineString", "coordinates": [ [ 19.4952, 40.1065 ], [ 19.487413143000026, 40.113152022000065 ], [ 19.479624768000065, 40.119803512000033 ], [ 19.471834876000059, 40.126454471000045 ], [ 19.464043465000032, 40.133104898000056 ], [ 19.456250535000038, 40.139754794000055 ], [ 19.448456086000078, 40.146404157000063 ], [ 19.44066011600006, 40.153052987000081 ], [ 19.432862626000031, 40.159701286000029 ], [ 19.425063615000056, 40.166349051000054 ], [ 19.417263082000034, 40.172996283000032 ], [ 19.409461027000077, 40.179642982000075 ], [ 19.401657450000073, 40.186289147000025 ], [ 19.393852349000042, 40.192934779000041 ], [ 19.386045724000041, 40.19957987600003 ], [ 19.378237575000071, 40.206224440000028 ], [ 19.370427901000028, 40.212868469000057 ], [ 19.362616702000025, 40.219511963000059 ], [ 19.354803976000028, 40.226154922000035 ], [ 19.346989725000071, 40.23279734700003 ], [ 19.339173946000074, 40.239439236000067 ], [ 19.331356640000024, 40.24608058900003 ], [ 19.323537805000058, 40.252721407000024 ], [ 19.31571744300004, 40.259361689000059 ], [ 19.307895550000069, 40.266001434000032 ], [ 19.300072129000057, 40.272640643000045 ], [ 19.292247177000036, 40.279279316000043 ], [ 19.284420694000062, 40.285917451000046 ], [ 19.276592680000022, 40.292555049000043 ], [ 19.268763134000039, 40.299192110000035 ], [ 19.260932056000058, 40.305828634000079 ], [ 19.253099445000032, 40.312464619000025 ], [ 19.245265301000074, 40.319100067000079 ], [ 19.237429622000036, 40.325734976000035 ], [ 19.229592409000077, 40.332369347000053 ], [ 19.221753661000037, 40.339003179000031 ], [ 19.213913378000029, 40.345636472000081 ], [ 19.206071558000076, 40.352269226000033 ], [ 19.198228202000053, 40.358901440000068 ], [ 19.190383308000037, 40.365533115000062 ], [ 19.182536877000075, 40.372164250000026 ], [ 19.174688907000075, 40.378794845000073 ], [ 19.166839399000025, 40.385424900000032 ], [ 19.158988351000062, 40.392054414000029 ], [ 19.15113576400006, 40.398683388000052 ], [ 19.14328163600004, 40.405311820000065 ], [ 19.13542596700006, 40.411939711000059 ], [ 19.127568756000073, 40.418567061000033 ], [ 19.119710004000069, 40.425193869000054 ], [ 19.111849709000069, 40.431820135000066 ], [ 19.103987870000026, 40.438445859000069 ], [ 19.096124488000044, 40.445071041000062 ], [ 19.088259562000076, 40.451695680000057 ], [ 19.080393092000065, 40.458319776000053 ], [ 19.072525075000044, 40.46494332900005 ], [ 19.064655514000037, 40.471566339000049 ], [ 19.05678440500003, 40.478188806000048 ], [ 19.048911750000059, 40.48481072900006 ], [ 19.04103754700003, 40.491432107000037 ], [ 19.033161797000048, 40.498052942000072 ], [ 19.025284498000076, 40.504673232000073 ], [ 19.017405650000057, 40.511292978000029 ], [ 19.00952525200006, 40.517912178000074 ], [ 19.001643304000027, 40.524530834000075 ], [ 18.993759805000025, 40.531148944000051 ], [ 18.985874755000054, 40.537766508000061 ], [ 18.977988154000059, 40.544383527000036 ], [ 18.9701, 40.551 ] ] } },
{ "type": "Feature", "properties": { "LonA": 20.0455, "LatA": 40.2946, "LonB": 19.778, "LatB": 40.8235, "SS_ID": 117.0, "Shape_Leng": 0.59269961398899995 }, "geometry": { "type": "LineString", "coordinates": [ [ 20.0455, 40.2946 ], [ 20.041286679000052, 40.303000428000075 ], [ 20.037072313000067, 40.311400691000074 ], [ 20.032856903000038, 40.319800788000066 ], [ 20.028640449000022, 40.328200718000062 ], [ 20.024422948000051, 40.336600483000041 ], [ 20.020204402000047, 40.34500008200007 ], [ 20.015984809000031, 40.353399515000035 ], [ 20.01176416800007, 40.361798781000061 ], [ 20.007542480000041, 40.37019788200007 ], [ 20.003319744000066, 40.378596816000027 ], [ 19.999095959000044, 40.386995583000044 ], [ 19.994871124000042, 40.395394184000054 ], [ 19.990645240000049, 40.403792618000068 ], [ 19.98641830400004, 40.41219088500003 ], [ 19.98219031800005, 40.420588986000041 ], [ 19.977961281000034, 40.428986920000057 ], [ 19.97373119100007, 40.437384687000076 ], [ 19.969500048000043, 40.445782287000043 ], [ 19.965267852000068, 40.454179719000081 ], [ 19.961034602000041, 40.462576985000055 ], [ 19.956800298000076, 40.470974083000044 ], [ 19.952564939000069, 40.479371013000048 ], [ 19.948328524000033, 40.487767777000045 ], [ 19.944091054000069, 40.496164372000067 ], [ 19.939852526000038, 40.504560800000036 ], [ 19.935612942000034, 40.512957061000066 ], [ 19.931372300000078, 40.521353153000064 ], [ 19.927130599000066, 40.529749078000066 ], [ 19.922887840000044, 40.538144835000026 ], [ 19.918644021000034, 40.546540423000067 ], [ 19.914399142000036, 40.554935843000067 ], [ 19.91015320300005, 40.56333109600007 ], [ 19.905906203000029, 40.571726179000052 ], [ 19.901658141000041, 40.580121095000038 ], [ 19.89740901600004, 40.588515842000049 ], [ 19.893158830000061, 40.596910420000029 ], [ 19.888907579000033, 40.60530483000008 ], [ 19.884655265000049, 40.613699071000042 ], [ 19.880401886000072, 40.622093143000029 ], [ 19.876147443000036, 40.630487046000042 ], [ 19.871891934000075, 40.638880780000079 ], [ 19.86763535800003, 40.647274345000028 ], [ 19.863377716000059, 40.655667741000059 ], [ 19.859119007000061, 40.664060968000058 ], [ 19.854859230000045, 40.672454025000036 ], [ 19.850598384000023, 40.680846913000039 ], [ 19.84633647000004, 40.689239631000078 ], [ 19.842073486000061, 40.697632180000028 ], [ 19.837809432000029, 40.70602455900007 ], [ 19.833544307000068, 40.714416768000035 ], [ 19.829278111000065, 40.722808808000025 ], [ 19.825010844000076, 40.731200677000061 ], [ 19.820742504000066, 40.739592377000065 ], [ 19.816473091000034, 40.747983906000059 ], [ 19.812202605000039, 40.756375265000031 ], [ 19.807931044000043, 40.764766454000039 ], [ 19.803658409000036, 40.773157472000037 ], [ 19.799384699000029, 40.78154832000007 ], [ 19.795109913000033, 40.789938998000025 ], [ 19.790834050000058, 40.798329504000037 ], [ 19.786557111000036, 40.806719840000028 ], [ 19.782279095000035, 40.815110006000054 ], [ 19.778, 40.8235 ] ] } },
{ "type": "Feature", "properties": { "LonA": 20.4223, "LatA": 39.9027, "LonB": 20.0686, "LatB": 40.2619, "SS_ID": 118.0, "Shape_Leng": 0.50411239383499995 }, "geometry": { "type": "LineString", "coordinates": [ [ 20.4223, 39.9027 ], [ 20.415400322000039, 39.909753694000074 ], [ 20.408499229000029, 39.91680696800006 ], [ 20.401596719000054, 39.923859823000043 ], [ 20.394692793000047, 39.930912259000024 ], [ 20.387787450000076, 39.93796427500007 ], [ 20.380880689000037, 39.945015870000077 ], [ 20.373972510000044, 39.952067046000025 ], [ 20.367062912000051, 39.959117801000048 ], [ 20.360151895000058, 39.966168136000078 ], [ 20.353239458000076, 39.973218050000071 ], [ 20.346325600000057, 39.980267544000071 ], [ 20.339410322000049, 39.987316616000044 ], [ 20.332493621000026, 39.994365267000035 ], [ 20.325575499000024, 40.001413496000055 ], [ 20.318655954000064, 40.008461304000036 ], [ 20.311734985000044, 40.015508690000047 ], [ 20.304812593000065, 40.02255565400003 ], [ 20.297888776000036, 40.029602196000042 ], [ 20.29096353400007, 40.036648316000026 ], [ 20.284036867000054, 40.04369401200006 ], [ 20.277108773000066, 40.050739287000056 ], [ 20.270179253000038, 40.057784138000045 ], [ 20.263248305000047, 40.064828566000074 ], [ 20.256315930000028, 40.071872571000029 ], [ 20.249382126000057, 40.078916152000033 ], [ 20.242446893000078, 40.085959310000078 ], [ 20.235510231000035, 40.09300204300007 ], [ 20.228572138000061, 40.100044353000044 ], [ 20.221632615000033, 40.107086238000079 ], [ 20.214691661000074, 40.114127699000051 ], [ 20.207749275000026, 40.121168736000072 ], [ 20.200805457000058, 40.128209347000052 ], [ 20.193860205000078, 40.135249534000025 ], [ 20.186913520000076, 40.142289295000069 ], [ 20.179965401000061, 40.14932863100006 ], [ 20.173015848000034, 40.156367541000066 ], [ 20.166064859000073, 40.163406026000075 ], [ 20.159112434000065, 40.170444085000042 ], [ 20.152158573000065, 40.177481717000035 ], [ 20.145203275000028, 40.184518923000041 ], [ 20.138246540000068, 40.191555703000063 ], [ 20.131288367000025, 40.198592056000052 ], [ 20.124328755000022, 40.205627982000067 ], [ 20.11736770400006, 40.21266348100005 ], [ 20.110405213000035, 40.219698553000057 ], [ 20.103441281000073, 40.226733197000044 ], [ 20.096475909000048, 40.233767414000056 ], [ 20.089509096000029, 40.240801203000046 ], [ 20.082540840000036, 40.247834563000026 ], [ 20.075571141000069, 40.254867496000031 ], [ 20.0686, 40.2619 ] ] } },
{ "type": "Feature", "properties": { "LonA": 20.3825, "LatA": 39.7671, "LonB": 20.0105, "LatB": 40.0729, "SS_ID": 119.0, "Shape_Leng": 0.48155831187999998 }, "geometry": { "type": "LineString", "coordinates": [ [ 20.3825, 39.7671 ], [ 20.374619477000067, 39.773618938000027 ], [ 20.366737468000053, 39.780137334000074 ], [ 20.35885397100003, 39.786655187000065 ], [ 20.350968986000055, 39.793172497000057 ], [ 20.343082512000024, 39.799689264000051 ], [ 20.33519455000004, 39.806205487000057 ], [ 20.327305099000057, 39.812721167000063 ], [ 20.319414158000029, 39.819236303000025 ], [ 20.311521726000024, 39.825750895000056 ], [ 20.30362780400003, 39.832264943000041 ], [ 20.295732390000069, 39.838778446000049 ], [ 20.287835484000027, 39.845291404000079 ], [ 20.279937086000075, 39.851803817000075 ], [ 20.272037196000042, 39.858315685000036 ], [ 20.264135811000074, 39.864827008000077 ], [ 20.256232933000035, 39.871337785000037 ], [ 20.248328561000051, 39.87784801600003 ], [ 20.240422693000028, 39.884357701000056 ], [ 20.232515331000059, 39.890866840000058 ], [ 20.224606472000062, 39.897375432000047 ], [ 20.216696117000026, 39.903883477000079 ], [ 20.208784265000077, 39.910390976000031 ], [ 20.200870916000042, 39.916897927000036 ], [ 20.192956069000047, 39.923404331000029 ], [ 20.185039723000045, 39.929910187000075 ], [ 20.177121878000037, 39.936415495000062 ], [ 20.169202534000078, 39.942920255000047 ], [ 20.161281691000056, 39.949424466000039 ], [ 20.153359346000059, 39.955928129000029 ], [ 20.145435501000065, 39.962431244000072 ], [ 20.13751015400004, 39.968933809000077 ], [ 20.129583306000029, 39.975435825000034 ], [ 20.121654955000054, 39.981937291000065 ], [ 20.113725101000057, 39.988438208000048 ], [ 20.105793743000049, 39.994938575000049 ], [ 20.097860882000077, 40.001438392000068 ], [ 20.089926516000048, 40.00793765800006 ], [ 20.081990645000076, 40.01443637400007 ], [ 20.074053269000046, 40.020934539000052 ], [ 20.066114386000038, 40.027432152000074 ], [ 20.058173998000029, 40.033929215000057 ], [ 20.050232102000052, 40.04042572600008 ], [ 20.04228869800005, 40.046921685000029 ], [ 20.034343787000068, 40.053417092000075 ], [ 20.026397367000072, 40.059911947000046 ], [ 20.018449438000061, 40.066406250000057 ], [ 20.0105, 40.0729 ] ] } },
{ "type": "Feature", "properties": { "LonA": 20.5606, "LatA": 39.7419, "LonB": 20.4654, "LatB": 39.9063, "SS_ID": 121.0, "Shape_Leng": 0.189974776401 }, "geometry": { "type": "LineString", "coordinates": [ [ 20.5606, 39.7419 ], [ 20.555850761000045, 39.750121963000026 ], [ 20.551100392000023, 39.758343720000028 ], [ 20.546348893000072, 39.766565271000047 ], [ 20.541596264000077, 39.774786616000029 ], [ 20.536842504000049, 39.783007755000028 ], [ 20.532087613000044, 39.791228687000057 ], [ 20.527331589000028, 39.799449412000058 ], [ 20.522574433000045, 39.807669931000078 ], [ 20.517816144000051, 39.815890243000069 ], [ 20.513056720000066, 39.824110348000033 ], [ 20.508296162000022, 39.832330246000026 ], [ 20.503534470000034, 39.840549937000048 ], [ 20.498771642000065, 39.848769421000043 ], [ 20.49400767700007, 39.856988698000066 ], [ 20.489242576000038, 39.865207767000072 ], [ 20.484476338000036, 39.873426629000051 ], [ 20.479708961000028, 39.881645284000058 ], [ 20.474940447000051, 39.889863730000059 ], [ 20.470170793000023, 39.898081969000032 ], [ 20.4654, 39.9063 ] ] } },
{ "type": "Feature", "properties": { "LonA": 20.4938, "LatA": 39.5054, "LonB": 20.4657, "LatB": 39.7111, "SS_ID": 122.0, "Shape_Leng": 0.20761045809600001 }, "geometry": { "type": "LineString", "coordinates": [ [ 20.4938, 39.5054 ], [ 20.49258171200006, 39.514343771000028 ], [ 20.491363111000055, 39.523287516000039 ], [ 20.490144198000053, 39.532231234000051 ], [ 20.488924972000063, 39.541174925000064 ], [ 20.487705433000031, 39.550118590000068 ], [ 20.486485581000068, 39.559062228000073 ], [ 20.485265415000072, 39.568005840000069 ], [ 20.484044936000032, 39.576949425000066 ], [ 20.482824143000073, 39.585892983000065 ], [ 20.48160303700007, 39.594836515000054 ], [ 20.480381616000045, 39.603780020000045 ], [ 20.479159881000044, 39.612723498000037 ], [ 20.477937831000077, 39.621666950000076 ], [ 20.476715467000076, 39.63061037500006 ], [ 20.475492788000054, 39.639553774000035 ], [ 20.474269794000065, 39.648497146000068 ], [ 20.473046484000065, 39.657440491000045 ], [ 20.471822860000032, 39.666383809000024 ], [ 20.470598920000043, 39.67532710100005 ], [ 20.469374664000043, 39.684270366000078 ], [ 20.46815009200003, 39.69321360400005 ], [ 20.466925204000063, 39.70215681500008 ], [ 20.4657, 39.7111 ] ] } },
{ "type": "Feature", "properties": { "LonA": 20.6122, "LatA": 39.7214, "LonB": 20.7103, "LatB": 39.5435, "SS_ID": 123.0, "Shape_Leng": 0.20315521006600001 }, "geometry": { "type": "LineString", "coordinates": [ [ 20.6122, 39.7214 ], [ 20.616670011000053, 39.713315555000065 ], [ 20.621138979000023, 39.705230927000059 ], [ 20.625606904000051, 39.697146116000056 ], [ 20.630073786000025, 39.689061121000066 ], [ 20.634539626000048, 39.680975944000068 ], [ 20.639004425000053, 39.672890583000026 ], [ 20.643468183000039, 39.664805039000044 ], [ 20.647930901000052, 39.656719313000053 ], [ 20.652392579000036, 39.648633404000066 ], [ 20.656853218000037, 39.640547312000081 ], [ 20.661312817000066, 39.632461038000031 ], [ 20.665771379000034, 39.62437458200003 ], [ 20.670228902000076, 39.616287943000032 ], [ 20.674685389000047, 39.608201121000036 ], [ 20.679140838000023, 39.600114118000079 ], [ 20.683595252000032, 39.592026932000067 ], [ 20.688048629000036, 39.583939565000037 ], [ 20.692500972000062, 39.575852015000066 ], [ 20.696952280000062, 39.567764284000077 ], [ 20.701402553000037, 39.55967637100008 ], [ 20.705851793000022, 39.551588276000075 ], [ 20.7103, 39.5435 ] ] } },
{ "type": "Feature", "properties": { "LonA": 20.648, "LatA": 39.8677, "LonB": 20.9169, "LatB": 39.6943, "SS_ID": 124.0, "Shape_Leng": 0.31996078205200001 }, "geometry": { "type": "LineString", "coordinates": [ [ 20.648, 39.8677 ], [ 20.656695287000048, 39.862116274000073 ], [ 20.665389164000032, 39.856531891000031 ], [ 20.674081632000025, 39.85094685200005 ], [ 20.682772691000025, 39.845361155000035 ], [ 20.691462342000023, 39.839774803000068 ], [ 20.700150585000074, 39.834187794000059 ], [ 20.708837419000076, 39.828600129000051 ], [ 20.717522847000055, 39.823011808000047 ], [ 20.72620686700003, 39.817422832000034 ], [ 20.734889480000049, 39.81183320100007 ], [ 20.743570687000044, 39.806242915000041 ], [ 20.752250488000072, 39.800651974000061 ], [ 20.760928883000076, 39.795060379000063 ], [ 20.769605873000046, 39.789468129000056 ], [ 20.778281457000048, 39.783875225000031 ], [ 20.786955637000062, 39.778281667000044 ], [ 20.795628412000042, 39.772687456000028 ], [ 20.804299784000023, 39.76709259200004 ], [ 20.812969751000026, 39.761497074000033 ], [ 20.821638316000076, 39.755900903000054 ], [ 20.830305477000024, 39.750304080000035 ], [ 20.838971236000077, 39.744706604000044 ], [ 20.847635592000074, 39.739108476000069 ], [ 20.856298546000062, 39.733509696000056 ], [ 20.864960099000029, 39.727910264000059 ], [ 20.873620251000034, 39.722310181000068 ], [ 20.882279001000029, 39.716709446000038 ], [ 20.89093635100005, 39.711108061000061 ], [ 20.899592300000052, 39.705506024000044 ], [ 20.908246850000069, 39.69990333700008 ], [ 20.9169, 39.6943 ] ] } },
{ "type": "Feature", "properties": { "LonA": 20.5267, "LatA": 39.2177, "LonB": 20.3682, "LatB": 39.458, "SS_ID": 126.0, "Shape_Leng": 0.28786529550700002 }, "geometry": { "type": "LineString", "coordinates": [ [ 20.5267, 39.2177 ], [ 20.521434112000065, 39.22571362900004 ], [ 20.516167027000051, 39.233727009000063 ], [ 20.510898744000031, 39.241740140000047 ], [ 20.505629261000024, 39.24975302200005 ], [ 20.500358579000078, 39.257765654000025 ], [ 20.495086697000033, 39.265778036000029 ], [ 20.48981361400007, 39.273790169000051 ], [ 20.484539330000075, 39.281802051000057 ], [ 20.479263845000048, 39.28981368400008 ], [ 20.473987157000067, 39.29782506600003 ], [ 20.468709266000076, 39.305836199000055 ], [ 20.463430171000027, 39.313847080000073 ], [ 20.458149872000035, 39.321857712000053 ], [ 20.452868369000043, 39.329868093000073 ], [ 20.447585660000072, 39.337878223000075 ], [ 20.442301746000055, 39.34588810200006 ], [ 20.437016625000069, 39.353897730000028 ], [ 20.431730297000058, 39.361907107000036 ], [ 20.426442761000033, 39.369916233000026 ], [ 20.421154017000049, 39.377925107000067 ], [ 20.415864065000051, 39.385933730000033 ], [ 20.410572903000059, 39.39394210200004 ], [ 20.405280531000074, 39.40195022100005 ], [ 20.399986949000038, 39.409958089000042 ], [ 20.39469215500003, 39.417965705000029 ], [ 20.389396150000039, 39.425973069000065 ], [ 20.384098932000029, 39.433980180000049 ], [ 20.378800502000047, 39.441987039000026 ], [ 20.373500858000057, 39.449993646000053 ], [ 20.3682, 39.458 ] ] } },
{ "type": "Feature", "properties": { "LonA": 20.6548, "LatA": 39.2668, "LonB": 20.522, "LatB": 39.4869, "SS_ID": 127.0, "Shape_Leng": 0.25706011519700001 }, "geometry": { "type": "LineString", "coordinates": [ [ 20.6548, 39.2668 ], [ 20.649896324000053, 39.274954698000045 ], [ 20.644991510000068, 39.283109177000028 ], [ 20.640085560000045, 39.291263438000044 ], [ 20.635178471000074, 39.299417482000081 ], [ 20.630270243000041, 39.307571306000057 ], [ 20.625360876000059, 39.315724913000054 ], [ 20.620450370000071, 39.323878301000036 ], [ 20.615538723000043, 39.332031470000061 ], [ 20.61062593500003, 39.34018442100006 ], [ 20.605712005000044, 39.348337152000056 ], [ 20.600796933000026, 39.356489665000026 ], [ 20.595880719000036, 39.364641959000039 ], [ 20.590963362000025, 39.372794033000048 ], [ 20.586044860000072, 39.380945888000042 ], [ 20.581125215000043, 39.389097524000078 ], [ 20.576204424000025, 39.397248940000054 ], [ 20.571282488000065, 39.405400137000072 ], [ 20.566359406000061, 39.413551114000029 ], [ 20.561435177000078, 39.421701871000039 ], [ 20.556509801000061, 39.429852408000045 ], [ 20.551583278000066, 39.438002725000047 ], [ 20.546655605000069, 39.446152822000045 ], [ 20.541726784000048, 39.454302698000049 ], [ 20.53679681400007, 39.462452355000039 ], [ 20.531865694000032, 39.470601790000046 ], [ 20.52693342200007, 39.478751006000039 ], [ 20.522, 39.4869 ] ] } },
{ "type": "Feature", "properties": { "LonA": 19.7449, "LatA": 39.3313, "LonB": 19.2972, "LatB": 39.842, "SS_ID": 128.0, "Shape_Leng": 0.67915601289799998 }, "geometry": { "type": "LineString", "coordinates": [ [ 19.7449, 39.3313 ], [ 19.738458313000024, 39.338714024000069 ], [ 19.73201526400004, 39.346127682000031 ], [ 19.725570854000068, 39.353540973000065 ], [ 19.719125082000062, 39.360953898000048 ], [ 19.712677947000032, 39.368366457000036 ], [ 19.706229449000034, 39.37577864900004 ], [ 19.699779586000034, 39.38319047400006 ], [ 19.693328360000066, 39.390601932000038 ], [ 19.68687576800005, 39.398013022000043 ], [ 19.680421811000031, 39.405423746000054 ], [ 19.67396648700003, 39.412834101000044 ], [ 19.667509796000047, 39.42024408900005 ], [ 19.661051738000026, 39.427653710000072 ], [ 19.654592312000034, 39.435062962000075 ], [ 19.648131518000071, 39.442471845000057 ], [ 19.641669354000044, 39.449880361000055 ], [ 19.635205821000056, 39.457288508000033 ], [ 19.628740917000073, 39.464696286000049 ], [ 19.622274642000036, 39.472103695000044 ], [ 19.61580699600006, 39.479510735000076 ], [ 19.609337978000042, 39.486917406000032 ], [ 19.602867587000048, 39.494323707000035 ], [ 19.596395823000023, 39.501729639000075 ], [ 19.589922685000033, 39.509135201000049 ], [ 19.583448173000022, 39.516540393000071 ], [ 19.576972285000068, 39.523945215000026 ], [ 19.570495022000046, 39.53134966600004 ], [ 19.564016383000023, 39.538753748000033 ], [ 19.557536367000068, 39.546157458000039 ], [ 19.551054973000078, 39.553560798000035 ], [ 19.54457220200004, 39.560963767000032 ], [ 19.538088052000035, 39.568366364000042 ], [ 19.531602523000061, 39.575768591000042 ], [ 19.525115614000072, 39.583170446000054 ], [ 19.518627325000068, 39.590571929000077 ], [ 19.51213765500006, 39.597973040000056 ], [ 19.505646604000049, 39.605373780000036 ], [ 19.499154171000043, 39.612774147000039 ], [ 19.492660354000066, 39.620174142000053 ], [ 19.486165155000037, 39.627573764000033 ], [ 19.479668572000037, 39.634973014000025 ], [ 19.473170604000074, 39.642371891000039 ], [ 19.466671252000026, 39.649770395000075 ], [ 19.460170513000037, 39.657168526000078 ], [ 19.453668389000029, 39.664566283000056 ], [ 19.447164877000034, 39.671963667000057 ], [ 19.440659979000031, 39.679360677000034 ], [ 19.434153692000052, 39.686757313000044 ], [ 19.427646017000029, 39.69415357500003 ], [ 19.42113695300003, 39.701549463000049 ], [ 19.414626499000065, 39.708944977000044 ], [ 19.40811465400003, 39.716340116000026 ], [ 19.401601419000031, 39.723734880000052 ], [ 19.395086792000029, 39.731129269000064 ], [ 19.388570773000026, 39.738523283000063 ], [ 19.382053361000033, 39.745916922000049 ], [ 19.375534556000048, 39.753310186000078 ], [ 19.369014357000026, 39.760703073000059 ], [ 19.362492763000034, 39.768095586000072 ], [ 19.355969775000062, 39.775487722000037 ], [ 19.349445390000028, 39.782879482000055 ], [ 19.342919610000024, 39.790270865000025 ], [ 19.336392432000025, 39.797661873000038 ], [ 19.329863858000067, 39.80505250300007 ], [ 19.323333885000068, 39.812442757000042 ], [ 19.316802513000027, 39.819832634000079 ], [ 19.31026974200006, 39.827222133000078 ], [ 19.303735571000061, 39.834611255000027 ], [ 19.2972, 39.842 ] ] } },
{ "type": "Feature", "properties": { "LonA": 20.3974, "LatA": 38.8288, "LonB": 19.8868, "LatB": 39.3007, "SS_ID": 129.0, "Shape_Leng": 0.69527351504900003 }, "geometry": { "type": "LineString", "coordinates": [ [ 20.3974, 38.8288 ], [ 20.390048356000023, 38.835655292000069 ], [ 20.382695302000059, 38.84251011200007 ], [ 20.375340836000078, 38.84936446200004 ], [ 20.367984959000069, 38.856218340000055 ], [ 20.360627670000042, 38.863071747000049 ], [ 20.353268968000066, 38.869924683000079 ], [ 20.345908853000026, 38.876777147000041 ], [ 20.338547325000036, 38.88362913800006 ], [ 20.33118438200006, 38.890480658000058 ], [ 20.323820024000042, 38.897331705000056 ], [ 20.316454252000028, 38.904182279000054 ], [ 20.30908706300005, 38.911032381000041 ], [ 20.301718458000039, 38.917882009000039 ], [ 20.294348436000064, 38.924731164000036 ], [ 20.286976997000068, 38.931579846000034 ], [ 20.27960414000006, 38.938428055000031 ], [ 20.272229865000043, 38.94527578900005 ], [ 20.264854171000025, 38.952123049000079 ], [ 20.257477057000074, 38.958969836000051 ], [ 20.250098523000077, 38.965816147000055 ], [ 20.242718569000033, 38.972661984000069 ], [ 20.235337194000067, 38.979507347000037 ], [ 20.227954397000076, 38.986352234000037 ], [ 20.220570179000049, 38.993196646000058 ], [ 20.213184538000064, 39.000040582000054 ], [ 20.205797473000075, 39.006884043000071 ], [ 20.198408985000071, 39.013727028000062 ], [ 20.191019073000064, 39.020569537000029 ], [ 20.183627736000062, 39.027411570000027 ], [ 20.176234974000067, 39.034253126000067 ], [ 20.168840787000022, 39.041094205000036 ], [ 20.161445173000061, 39.047934808000036 ], [ 20.154048132000071, 39.054774934000079 ], [ 20.146649664000051, 39.061614582000061 ], [ 20.13924976800007, 39.068453753000028 ], [ 20.13184844400007, 39.075292446000049 ], [ 20.124445691000062, 39.082130661000065 ], [ 20.117041509000046, 39.088968398000077 ], [ 20.109635896000043, 39.095805657000028 ], [ 20.102228854000032, 39.102642438000032 ], [ 20.094820380000044, 39.109478739000053 ], [ 20.08741047500007, 39.116314562000071 ], [ 20.079999137000073, 39.123149906000037 ], [ 20.072586368000032, 39.129984770000078 ], [ 20.065172165000035, 39.136819155000069 ], [ 20.057756528000027, 39.143653060000076 ], [ 20.050339458000053, 39.150486485000044 ], [ 20.042920952000031, 39.15731943000003 ], [ 20.035501012000054, 39.164151895000032 ], [ 20.028079636000029, 39.170983879000062 ], [ 20.020656823000024, 39.177815382000063 ], [ 20.013232574000028, 39.18464640500008 ], [ 20.005806888000052, 39.19147694600008 ], [ 19.998379763000059, 39.19830700600005 ], [ 19.99095120100003, 39.205136584000059 ], [ 19.983521199000052, 39.211965681000038 ], [ 19.976089758000057, 39.218794295000066 ], [ 19.968656877000058, 39.225622428000065 ], [ 19.961222556000052, 39.232450077000067 ], [ 19.953786793000063, 39.239277245000039 ], [ 19.946349590000068, 39.246103929000071 ], [ 19.938910944000042, 39.252930131000028 ], [ 19.931470855000043, 39.259755849000044 ], [ 19.92402932300007, 39.266581084000052 ], [ 19.916586348000067, 39.273405835000062 ], [ 19.909141929000043, 39.280230103000065 ], [ 19.901696065000067, 39.287053886000081 ], [ 19.894248755000035, 39.293877185000042 ], [ 19.8868, 39.3007 ] ] } },
{ "type": "Feature", "properties": { "LonA": 20.7858, "LatA": 38.072, "LonB": 20.5441, "LatB": 38.4446, "SS_ID": 132.0, "Shape_Leng": 0.444128485844 }, "geometry": { "type": "LineString", "coordinates": [ [ 20.7858, 38.072 ], [ 20.780683060000058, 38.079933070000038 ], [ 20.775565014000051, 38.087865907000037 ], [ 20.770445862000031, 38.095798510000066 ], [ 20.765325603000065, 38.103730879000068 ], [ 20.760204237000039, 38.111663015000033 ], [ 20.755081763000078, 38.11959491600004 ], [ 20.749958181000068, 38.127526583000076 ], [ 20.744833490000076, 38.13545801600003 ], [ 20.739707689000056, 38.14338921500007 ], [ 20.734580779000055, 38.151320179000038 ], [ 20.729452758000036, 38.159250909000036 ], [ 20.724323626000057, 38.167181404000075 ], [ 20.719193382000071, 38.175111664000042 ], [ 20.714062027000068, 38.183041689000049 ], [ 20.708929559000069, 38.190971479000041 ], [ 20.703795978000073, 38.198901034000073 ], [ 20.698661283000035, 38.206830354000033 ], [ 20.693525475000058, 38.214759439000034 ], [ 20.68838855100006, 38.222688288000029 ], [ 20.683250513000075, 38.230616901000076 ], [ 20.678111358000024, 38.23854527900005 ], [ 20.672971088000054, 38.246473421000076 ], [ 20.667829701000073, 38.254401327000039 ], [ 20.662687196000036, 38.262328997000054 ], [ 20.657543574000044, 38.270256430000074 ], [ 20.652398833000063, 38.278183628000079 ], [ 20.647252973000036, 38.286110589000032 ], [ 20.642105994000076, 38.294037314000036 ], [ 20.636957895000023, 38.301963802000046 ], [ 20.631808676000048, 38.309890053000061 ], [ 20.626658336000048, 38.31781606800007 ], [ 20.621506874000033, 38.325741845000039 ], [ 20.616354290000061, 38.333667386000059 ], [ 20.611200583000027, 38.341592689000038 ], [ 20.606045753000046, 38.349517755000079 ], [ 20.600889800000061, 38.357442584000069 ], [ 20.595732723000026, 38.365367175000074 ], [ 20.590574520000075, 38.373291529000028 ], [ 20.585415193000074, 38.381215645000054 ], [ 20.580254740000044, 38.38913952300004 ], [ 20.575093160000051, 38.397063163000041 ], [ 20.56993045400003, 38.404986565000058 ], [ 20.564766620000057, 38.412909729000035 ], [ 20.559601658000076, 38.420832654000037 ], [ 20.554435568000031, 38.428755341000056 ], [ 20.549268349000045, 38.436677790000033 ], [ 20.5441, 38.4446 ] ] } },
{ "type": "Feature", "properties": { "LonA": 20.7778, "LatA": 38.0486, "LonB": 20.465, "LatB": 38.2146, "SS_ID": 133.0, "Shape_Leng": 0.35411863003900002 }, "geometry": { "type": "LineString", "coordinates": [ [ 20.7778, 38.0486 ], [ 20.768620207000026, 38.053494289000071 ], [ 20.75943919100007, 38.058387856000024 ], [ 20.750256952000029, 38.063280703000032 ], [ 20.741073491000066, 38.068172828000058 ], [ 20.731888806000029, 38.073064231000046 ], [ 20.722702898000023, 38.077954913000042 ], [ 20.713515766000057, 38.082844872000067 ], [ 20.704327411000065, 38.087734109000053 ], [ 20.695137832000057, 38.092622623000068 ], [ 20.685947028000044, 38.097510415000045 ], [ 20.67675500100006, 38.102397483000061 ], [ 20.667561749000072, 38.10728382800005 ], [ 20.658367272000078, 38.112169450000067 ], [ 20.649171570000078, 38.117054348000067 ], [ 20.639974643000073, 38.12193852300004 ], [ 20.630776491000063, 38.126821973000062 ], [ 20.621577113000058, 38.131704699000068 ], [ 20.612376510000047, 38.136586700000066 ], [ 20.603174681000041, 38.141467976000058 ], [ 20.593971625000052, 38.146348528000033 ], [ 20.584767344000056, 38.151228354000068 ], [ 20.57556183500003, 38.15610745500004 ], [ 20.566355101000056, 38.160985830000072 ], [ 20.557147139000051, 38.165863479000052 ], [ 20.547937950000062, 38.170740402000035 ], [ 20.538727534000031, 38.17561659900008 ], [ 20.529515890000027, 38.180492070000071 ], [ 20.520303019000039, 38.18536681300003 ], [ 20.511088920000077, 38.19024083000005 ], [ 20.501873593000028, 38.195114119000038 ], [ 20.492657038000061, 38.199986681000041 ], [ 20.483439254000075, 38.204858515000069 ], [ 20.474220241000069, 38.209729622000054 ], [ 20.465, 38.2146 ] ] } },
{ "type": "Feature", "properties": { "LonA": 20.9003, "LatA": 37.4159, "LonB": 20.8483, "LatB": 37.6278, "SS_ID": 138.0, "Shape_Leng": 0.218187114967 }, "geometry": { "type": "LineString", "coordinates": [ [ 20.9003, 37.4159 ], [ 20.898139194000066, 37.42472977500006 ], [ 20.895977880000032, 37.433559497000033 ], [ 20.893816058000027, 37.442389167000044 ], [ 20.891653729000041, 37.451218783000058 ], [ 20.889490890000047, 37.460048347000054 ], [ 20.887327544000073, 37.468877858000042 ], [ 20.885163688000034, 37.477707317000068 ], [ 20.882999323000035, 37.486536722000039 ], [ 20.880834449000076, 37.495366075000049 ], [ 20.878669064000064, 37.504195374000062 ], [ 20.876503170000035, 37.513024621000056 ], [ 20.874336765000066, 37.521853814000053 ], [ 20.872169850000034, 37.530682955000032 ], [ 20.870002424000063, 37.539512043000059 ], [ 20.867834486000049, 37.548341078000078 ], [ 20.865666038000029, 37.557170059000043 ], [ 20.863497077000034, 37.565998988000047 ], [ 20.861327604000053, 37.574827863000053 ], [ 20.85915761900003, 37.58365668600004 ], [ 20.856987122000078, 37.59248545500003 ], [ 20.854816111000048, 37.60131417100007 ], [ 20.852644588000032, 37.610142834000044 ], [ 20.850472551000053, 37.618971444000067 ], [ 20.8483, 37.6278 ] ] } },
{ "type": "Feature", "properties": { "LonA": 27.8028, "LatA": 35.7031, "LonB": 27.2707, "LatB": 35.4827, "SS_ID": 160.0, "Shape_Leng": 0.57594051253 }, "geometry": { "type": "LineString", "coordinates": [ [ 27.8028, 35.7031 ], [ 27.793099406000067, 35.699113813000054 ], [ 27.783399778000046, 35.695126841000047 ], [ 27.773701115000051, 35.691139086000078 ], [ 27.764003418000073, 35.687150546000055 ], [ 27.754306686000064, 35.68316122300007 ], [ 27.744610920000071, 35.679171116000077 ], [ 27.734916120000037, 35.675180226000066 ], [ 27.72522228400004, 35.671188553000036 ], [ 27.715529414000059, 35.667196096000055 ], [ 27.705837509000048, 35.663202857000044 ], [ 27.696146569000064, 35.659208835000072 ], [ 27.686456595000038, 35.655214031000071 ], [ 27.67676758500005, 35.65121844500004 ], [ 27.667079541000078, 35.647222077000038 ], [ 27.657392462000075, 35.643224926000073 ], [ 27.647706347000053, 35.639226994000069 ], [ 27.638021198000047, 35.635228281000025 ], [ 27.628337013000078, 35.631228787000055 ], [ 27.618653793000078, 35.627228511000055 ], [ 27.608971538000048, 35.623227454000073 ], [ 27.599290248000045, 35.619225617000041 ], [ 27.589609922000079, 35.615222999000025 ], [ 27.579930561000026, 35.611219601000073 ], [ 27.570252164000067, 35.607215423000071 ], [ 27.560574732000077, 35.603210465000075 ], [ 27.550898264000068, 35.599204727000028 ], [ 27.541222761000029, 35.595198210000035 ], [ 27.531548222000026, 35.591190913000048 ], [ 27.521874647000061, 35.587182837000057 ], [ 27.512202037000066, 35.583173982000062 ], [ 27.50253039100005, 35.579164349000052 ], [ 27.492859708000026, 35.575153936000049 ], [ 27.483189990000028, 35.571142746000078 ], [ 27.473521236000067, 35.567130777000045 ], [ 27.46385344600003, 35.563118030000055 ], [ 27.45418662000003, 35.55910450500005 ], [ 27.444520758000067, 35.555090203000077 ], [ 27.434855860000027, 35.551075123000032 ], [ 27.425191925000036, 35.547059266000076 ], [ 27.415528954000024, 35.543042632000038 ], [ 27.40586694700005, 35.539025221000031 ], [ 27.396205903000066, 35.535007033000056 ], [ 27.386545823000063, 35.530988069000045 ], [ 27.37688670700004, 35.526968328000066 ], [ 27.367228553000075, 35.522947811000051 ], [ 27.357571364000023, 35.518926519000047 ], [ 27.34791513700003, 35.514904451000064 ], [ 27.338259874000073, 35.510881607000044 ], [ 27.328605574000051, 35.506857987000046 ], [ 27.318952238000065, 35.502833593000048 ], [ 27.309299864000025, 35.49880842400006 ], [ 27.299648454000078, 35.494782479000037 ], [ 27.289998006000076, 35.490755761000059 ], [ 27.280348522000054, 35.486728267000046 ], [ 27.2707, 35.4827 ] ] } },
{ "type": "Feature", "properties": { "LonA": 19.693, "LatA": 37.411, "LonB": 19.6473, "LatB": 37.7419, "SS_ID": 190.0, "Shape_Leng": 0.33404088627 }, "geometry": { "type": "LineString", "coordinates": [ [ 19.693, 37.411 ], [ 19.691770165000037, 37.419943719000059 ], [ 19.690540038000051, 37.428887413000041 ], [ 19.689309618000038, 37.437831079000034 ], [ 19.688078906000044, 37.446774720000064 ], [ 19.686847900000032, 37.455718334000039 ], [ 19.685616601000049, 37.464661921000072 ], [ 19.684385008000049, 37.473605483000028 ], [ 19.683153122000078, 37.482549017000053 ], [ 19.681920943000023, 37.491492526000059 ], [ 19.680688469000074, 37.500436008000065 ], [ 19.679455702000041, 37.509379463000073 ], [ 19.678222640000058, 37.518322892000072 ], [ 19.676989284000058, 37.527266295000061 ], [ 19.675755633000051, 37.536209671000051 ], [ 19.674521688000027, 37.545153021000033 ], [ 19.673287448000053, 37.554096344000072 ], [ 19.672052913000073, 37.563039640000056 ], [ 19.670818082000039, 37.571982911000077 ], [ 19.669582957000046, 37.580926154000053 ], [ 19.668347535000066, 37.589869372000067 ], [ 19.66711181900007, 37.598812562000035 ], [ 19.665875806000031, 37.60775572600005 ], [ 19.664639497000053, 37.616698864000057 ], [ 19.663402892000022, 37.625641975000065 ], [ 19.662165991000052, 37.634585060000063 ], [ 19.660928793000039, 37.643528118000063 ], [ 19.659691299000031, 37.652471149000064 ], [ 19.658453507000047, 37.661414154000056 ], [ 19.657215419000067, 37.670357132000049 ], [ 19.655977033000056, 37.679300084000033 ], [ 19.654738351000049, 37.688243009000075 ], [ 19.653499370000077, 37.697185907000062 ], [ 19.652260092000063, 37.706128779000039 ], [ 19.651020516000074, 37.715071624000075 ], [ 19.649780642000053, 37.724014443000044 ], [ 19.648540470000057, 37.732957235000072 ], [ 19.6473, 37.7419 ] ] } },
{ "type": "Feature", "properties": { "LonA": 19.6753, "LatA": 39.6836, "LonB": 19.9715, "LatB": 39.7362, "SS_ID": 250.0, "Shape_Leng": 0.30083426729899998 }, "geometry": { "type": "LineString", "coordinates": [ [ 19.6753, 39.6836 ], [ 19.686262334000048, 39.685561624000059 ], [ 19.697225289000073, 39.687522213000079 ], [ 19.708188863000032, 39.689481766000029 ], [ 19.719153058000074, 39.691440283000077 ], [ 19.730117871000061, 39.693397765000043 ], [ 19.741083304000028, 39.695354210000062 ], [ 19.752049356000043, 39.697309619000066 ], [ 19.763016027000049, 39.699263992000056 ], [ 19.773983316000056, 39.701217328000041 ], [ 19.784951224000054, 39.703169628000069 ], [ 19.795919749000063, 39.705120890000046 ], [ 19.806888893000064, 39.707071117000055 ], [ 19.81785865300003, 39.70902030600007 ], [ 19.828829031000055, 39.710968458000025 ], [ 19.839800026000034, 39.712915573000032 ], [ 19.850771638000026, 39.714861650000046 ], [ 19.86174386600004, 39.716806690000055 ], [ 19.872716711000066, 39.718750692000071 ], [ 19.883690171000069, 39.720693657000027 ], [ 19.894664247000037, 39.722635584000045 ], [ 19.905638939000028, 39.72457647300007 ], [ 19.916614246000051, 39.726516323000055 ], [ 19.927590168000052, 39.728455136000036 ], [ 19.938566704000038, 39.730392910000035 ], [ 19.949543855000059, 39.73232964500005 ], [ 19.960521621000055, 39.734265342000072 ], [ 19.9715, 39.7362 ] ] } }
]
}
