{
"type": "FeatureCollection",
"name": "RCS_reverse_planes",
"crs": { "type": "name", "properties": { "name": "urn:ogc:def:crs:OGC:1.3:CRS84" } },
"features": [
{ "type": "Feature", "properties": { "Shape_Leng": 1.42253077464, "SS_ID": 26, "START_OBJE": 1, "END_OBJECT": 1, "START_Lon": 20.648, "END_Lon": 20.648, "START_Lat": 39.8677, "END_Lat": 39.8677, "START_poin": "A", "END_point_": "A", "START_po_1": 1, "END_point1": 1, "START_SS_I": 26, "END_SS_ID": 26, "START_Name": "Mitsikeli", "END_NameEN": "Mitsikeli", "START_Na_1": "Μιτσικέλι", "END_NameEL": "Μιτσικέλι", "START_Stri": 130, "END_Strike": 130, "START_Dip_": 220, "END_Dip_Di": 220, "START_Dip": 60, "END_Dip": 60, "START_Rake": 90, "END_Rake": 90, "START_Ra_1": 90, "END_Rake__": 90, "START_Kine": "R", "END_Kinema": "R", "START_Leng": 30.0, "END_Length": 30.0, "START_Widt": 14.0, "END_Width_": 14.0, "START_Min_": 0.0, "END_Min_De": 0.0, "START_Max_": 12.1, "END_Max_De": 12.1, "START_Rupt": 420.0, "END_Ruptur": 420.0, "START_Aver": 1.07, "END_Averag": 1.07, "START_Mw__": 6.7, "END_Mw__W_": 6.7, "START_Mw_1": 6.7, "END_Mw__K_": 6.7, "START_M0__": 1.35e+19, "END_M0__Nm": 1.35e+19, "START_LonA": 20.648, "END_LonA": 20.648, "START_LatA": 39.8677, "END_LatA": 39.8677, "START_LonB": 20.9169, "END_LonB": 20.9169, "START_LatB": 39.6943, "END_LatB": 39.6943, "START_Lon1": 20.648, "END_Lon1": 20.648, "START_Lat1": 39.8677, "END_Lat1": 39.8677, "START_Lon2": 20.9169, "END_Lon2": 20.9169, "START_Lat2": 39.6943, "END_Lat2": 39.6943, "START_Lon3": 20.8643, "END_Lon3": 20.8643, "START_Lat3": 39.6461, "END_Lat3": 39.6461, "START_Lon4": 20.5954, "END_Lon4": 20.5954, "START_Lat4": 39.8195, "END_Lat4": 39.8195, "START_SR_m": null, "END_SR_min": null, "START_SR_1": null, "END_SR_max": null, "START_SR_a": null, "END_SR_avg": null, "START_SR_R": null, "END_SR_Ref": null, "START_SR_C": null, "END_SR_Com": null, "START_po_2": "A", "END_poin_1": "A", "START_po_3": 1, "END_poin_2": 1 }, "geometry": { "type": "LineString", "coordinates": [ [ 20.648, 39.8677 ], [ 20.9169, 39.6943 ], [ 20.648, 39.8677 ], [ 20.9169, 39.6943 ], [ 20.8643, 39.6461 ], [ 20.5954, 39.8195 ], [ 20.648, 39.8677 ] ] } },
{ "type": "Feature", "properties": { "Shape_Leng": 0.94944085437600001, "SS_ID": 27, "START_OBJE": 7, "END_OBJECT": 7, "START_Lon": 20.5606, "END_Lon": 20.5606, "START_Lat": 39.7419, "END_Lat": 39.7419, "START_poin": "A", "END_point_": "A", "START_po_1": 1, "END_point1": 1, "START_SS_I": 27, "END_SS_ID": 27, "START_Name": "Kasidiáris", "END_NameEN": "Kasidiáris", "START_Na_1": "Κασιδιάρης", "END_NameEL": "Κασιδιάρης", "START_Stri": 336, "END_Strike": 336, "START_Dip_": 66, "END_Dip_Di": 66, "START_Dip": 37, "END_Dip": 37, "START_Rake": 90, "END_Rake": 90, "START_Ra_1": 90, "END_Rake__": 90, "START_Kine": "R", "END_Kinema": "R", "START_Leng": 20.0, "END_Length": 20.0, "START_Widt": 10.5, "END_Width_": 10.5, "START_Min_": 0.0, "END_Min_De": 0.0, "START_Max_": 6.3, "END_Max_De": 6.3, "START_Rupt": 210.0, "END_Ruptur": 210.0, "START_Aver": 0.84, "END_Averag": 0.84, "START_Mw__": 6.4, "END_Mw__W_": 6.4, "START_Mw_1": 6.4, "END_Mw__K_": 6.4, "START_M0__": 5.31e+18, "END_M0__Nm": 5.31e+18, "START_LonA": 20.5606, "END_LonA": 20.5606, "START_LatA": 39.7419, "END_LatA": 39.7419, "START_LonB": 20.4654, "END_LonB": 20.4654, "START_LatB": 39.9063, "END_LatB": 39.9063, "START_Lon1": 20.5606, "END_Lon1": 20.5606, "START_Lat1": 39.7419, "END_Lat1": 39.7419, "START_Lon2": 20.4654, "END_Lon2": 20.4654, "START_Lat2": 39.9063, "END_Lat2": 39.9063, "START_Lon3": 20.5552, "END_Lon3": 20.5552, "START_Lat3": 39.9369, "END_Lat3": 39.9369, "START_Lon4": 20.6503, "END_Lon4": 20.6503, "START_Lat4": 39.7726, "END_Lat4": 39.7726, "START_SR_m": null, "END_SR_min": null, "START_SR_1": null, "END_SR_max": null, "START_SR_a": null, "END_SR_avg": null, "START_SR_R": null, "END_SR_Ref": null, "START_SR_C": null, "END_SR_Com": null, "START_po_2": "A", "END_poin_1": "A", "START_po_3": 1, "END_poin_2": 1 }, "geometry": { "type": "LineString", "coordinates": [ [ 20.5606, 39.7419 ], [ 20.4654, 39.9063 ], [ 20.5606, 39.7419 ], [ 20.4654, 39.9063 ], [ 20.5552, 39.9369 ], [ 20.6503, 39.7726 ], [ 20.5606, 39.7419 ] ] } },
{ "type": "Feature", "properties": { "Shape_Leng": 0.93722576693600002, "SS_ID": 28, "START_OBJE": 13, "END_OBJECT": 13, "START_Lon": 20.6122, "END_Lon": 20.6122, "START_Lat": 39.7214, "END_Lat": 39.7214, "START_poin": "A", "END_point_": "A", "START_po_1": 1, "END_point1": 1, "START_SS_I": 28, "END_SS_ID": 28, "START_Name": "Kourénta", "END_NameEN": "Kourénta", "START_Na_1": "Κουρέντα", "END_NameEL": "Κουρέντα", "START_Stri": 157, "END_Strike": 157, "START_Dip_": 247, "END_Dip_Di": 247, "START_Dip": 60, "END_Dip": 60, "START_Rake": 90, "END_Rake": 90, "START_Ra_1": 90, "END_Rake__": 90, "START_Kine": "R", "END_Kinema": "R", "START_Leng": 21.5, "END_Length": 21.5, "START_Widt": 11.0, "END_Width_": 11.0, "START_Min_": 0.0, "END_Min_De": 0.0, "START_Max_": 9.5, "END_Max_De": 9.5, "START_Rupt": 236.5, "END_Ruptur": 236.5, "START_Aver": 0.88, "END_Averag": 0.88, "START_Mw__": 6.5, "END_Mw__W_": 6.5, "START_Mw_1": 6.5, "END_Mw__K_": 6.5, "START_M0__": 6.23e+18, "END_M0__Nm": 6.23e+18, "START_LonA": 20.6122, "END_LonA": 20.6122, "START_LatA": 39.7214, "END_LatA": 39.7214, "START_LonB": 20.7103, "END_LonB": 20.7103, "START_LatB": 39.5435, "END_LatB": 39.5435, "START_Lon1": 20.6122, "END_Lon1": 20.6122, "START_Lat1": 39.7214, "END_Lat1": 39.7214, "START_Lon2": 20.7103, "END_Lon2": 20.7103, "START_Lat2": 39.5435, "END_Lat2": 39.5435, "START_Lon3": 20.6512, "END_Lon3": 20.6512, "START_Lat3": 39.5241, "END_Lat3": 39.5241, "START_Lon4": 20.553, "END_Lon4": 20.553, "START_Lat4": 39.7021, "END_Lat4": 39.7021, "START_SR_m": null, "END_SR_min": null, "START_SR_1": null, "END_SR_max": null, "START_SR_a": null, "END_SR_avg": null, "START_SR_R": null, "END_SR_Ref": null, "START_SR_C": null, "END_SR_Com": null, "START_po_2": "A", "END_poin_1": "A", "START_po_3": 1, "END_poin_2": 1 }, "geometry": { "type": "LineString", "coordinates": [ [ 20.6122, 39.7214 ], [ 20.7103, 39.5435 ], [ 20.6122, 39.7214 ], [ 20.7103, 39.5435 ], [ 20.6512, 39.5241 ], [ 20.553, 39.7021 ], [ 20.6122, 39.7214 ] ] } },
{ "type": "Feature", "properties": { "Shape_Leng": 1.0878690225900001, "SS_ID": 30, "START_OBJE": 19, "END_OBJECT": 19, "START_Lon": 20.4938, "END_Lon": 20.4938, "START_Lat": 39.5054, "END_Lat": 39.5054, "START_poin": "A", "END_point_": "A", "START_po_1": 1, "END_point1": 1, "START_SS_I": 30, "END_SS_ID": 30, "START_Name": "Zalongo", "END_NameEN": "Zalongo", "START_Na_1": "Ζάλογκο", "END_NameEL": "Ζάλογκο", "START_Stri": 354, "END_Strike": 354, "START_Dip_": 84, "END_Dip_Di": 84, "START_Dip": 35, "END_Dip": 35, "START_Rake": 90, "END_Rake": 90, "START_Ra_1": 90, "END_Rake__": 90, "START_Kine": "R", "END_Kinema": "R", "START_Leng": 23.0, "END_Length": 23.0, "START_Widt": 11.5, "END_Width_": 11.5, "START_Min_": 2.0, "END_Min_De": 2.0, "START_Max_": 8.6, "END_Max_De": 8.6, "START_Rupt": 264.5, "END_Ruptur": 264.5, "START_Aver": 0.91, "END_Averag": 0.91, "START_Mw__": 6.5, "END_Mw__W_": 6.5, "START_Mw_1": 6.5, "END_Mw__K_": 6.5, "START_M0__": 7.22e+18, "END_M0__Nm": 7.22e+18, "START_LonA": 20.4938, "END_LonA": 20.4938, "START_LatA": 39.5054, "END_LatA": 39.5054, "START_LonB": 20.4657, "END_LonB": 20.4657, "START_LatB": 39.7111, "END_LatB": 39.7111, "START_Lon1": 20.527, "END_Lon1": 20.527, "START_Lat1": 39.508, "END_Lat1": 39.508, "START_Lon2": 20.4989, "END_Lon2": 20.4989, "START_Lat2": 39.7138, "END_Lat2": 39.7138, "START_Lon3": 20.6084, "END_Lon3": 20.6084, "START_Lat3": 39.7226, "END_Lat3": 39.7226, "START_Lon4": 20.6363, "END_Lon4": 20.6363, "START_Lat4": 39.5169, "END_Lat4": 39.5169, "START_SR_m": null, "END_SR_min": null, "START_SR_1": null, "END_SR_max": null, "START_SR_a": null, "END_SR_avg": null, "START_SR_R": null, "END_SR_Ref": null, "START_SR_C": null, "END_SR_Com": null, "START_po_2": "A", "END_poin_1": "A", "START_po_3": 1, "END_poin_2": 1 }, "geometry": { "type": "LineString", "coordinates": [ [ 20.4938, 39.5054 ], [ 20.4657, 39.7111 ], [ 20.527, 39.508 ], [ 20.4989, 39.7138 ], [ 20.6084, 39.7226 ], [ 20.6363, 39.5169 ], [ 20.4938, 39.5054 ] ] } },
{ "type": "Feature", "properties": { "Shape_Leng": 1.30701879374, "SS_ID": 31, "START_OBJE": 25, "END_OBJECT": 25, "START_Lon": 20.6548, "END_Lon": 20.6548, "START_Lat": 39.2668, "END_Lat": 39.2668, "START_poin": "A", "END_point_": "A", "START_po_1": 1, "END_point1": 1, "START_SS_I": 31, "END_SS_ID": 31, "START_Name": "Paramythiá", "END_NameEN": "Paramythiá", "START_Na_1": "Παραμυθιά", "END_NameEL": "Παραμυθιά", "START_Stri": 335, "END_Strike": 335, "START_Dip_": 65, "END_Dip_Di": 65, "START_Dip": 35, "END_Dip": 35, "START_Rake": 80, "END_Rake": 80, "START_Ra_1": 80, "END_Rake__": 80, "START_Kine": "R", "END_Kinema": "R", "START_Leng": 27.0, "END_Length": 27.0, "START_Widt": 13.0, "END_Width_": 13.0, "START_Min_": 2.0, "END_Min_De": 2.0, "START_Max_": 9.5, "END_Max_De": 9.5, "START_Rupt": 351.0, "END_Ruptur": 351.0, "START_Aver": 1.01, "END_Averag": 1.01, "START_Mw__": 6.6, "END_Mw__W_": 6.6, "START_Mw_1": 6.6, "END_Mw__K_": 6.6, "START_M0__": 1.06e+19, "END_M0__Nm": 1.06e+19, "START_LonA": 20.6548, "END_LonA": 20.6548, "START_LatA": 39.2668, "END_LatA": 39.2668, "START_LonB": 20.522, "END_LonB": 20.522, "START_LatB": 39.4869, "END_LatB": 39.4869, "START_Lon1": 20.6849, "END_Lon1": 20.6849, "START_Lat1": 39.2777, "END_Lat1": 39.2777, "START_Lon2": 20.5521, "END_Lon2": 20.5521, "START_Lat2": 39.4977, "END_Lat2": 39.4977, "START_Lon3": 20.6645, "END_Lon3": 20.6645, "START_Lat3": 39.5382, "END_Lat3": 39.5382, "START_Lon4": 20.7972, "END_Lon4": 20.7972, "START_Lat4": 39.3181, "END_Lat4": 39.3181, "START_SR_m": null, "END_SR_min": null, "START_SR_1": null, "END_SR_max": null, "START_SR_a": null, "END_SR_avg": null, "START_SR_R": null, "END_SR_Ref": null, "START_SR_C": null, "END_SR_Com": null, "START_po_2": "A", "END_poin_1": "A", "START_po_3": 1, "END_poin_2": 1 }, "geometry": { "type": "LineString", "coordinates": [ [ 20.6548, 39.2668 ], [ 20.522, 39.4869 ], [ 20.6849, 39.2777 ], [ 20.5521, 39.4977 ], [ 20.6645, 39.5382 ], [ 20.7972, 39.3181 ], [ 20.6548, 39.2668 ] ] } },
{ "type": "Feature", "properties": { "Shape_Leng": 1.5127018103300001, "SS_ID": 32, "START_OBJE": 31, "END_OBJECT": 31, "START_Lon": 20.5267, "END_Lon": 20.5267, "START_Lat": 39.2177, "END_Lat": 39.2177, "START_poin": "A", "END_point_": "A", "START_po_1": 1, "END_point1": 1, "START_SS_I": 32, "END_SS_ID": 32, "START_Name": "Margariti", "END_NameEN": "Margariti", "START_Na_1": "Μαργαρίτι", "END_NameEL": "Μαργαρίτι", "START_Stri": 333, "END_Strike": 333, "START_Dip_": 63, "END_Dip_Di": 63, "START_Dip": 35, "END_Dip": 35, "START_Rake": 80, "END_Rake": 80, "START_Ra_1": 80, "END_Rake__": 80, "START_Kine": "R", "END_Kinema": "R", "START_Leng": 30.0, "END_Length": 30.0, "START_Widt": 14.0, "END_Width_": 14.0, "START_Min_": 5.0, "END_Min_De": 5.0, "START_Max_": 13.0, "END_Max_De": 13.0, "START_Rupt": 420.0, "END_Ruptur": 420.0, "START_Aver": 1.07, "END_Averag": 1.07, "START_Mw__": 6.7, "END_Mw__W_": 6.7, "START_Mw_1": 6.7, "END_Mw__K_": 6.7, "START_M0__": 1.35e+19, "END_M0__Nm": 1.35e+19, "START_LonA": 20.5267, "END_LonA": 20.5267, "START_LatA": 39.2177, "END_LatA": 39.2177, "START_LonB": 20.3682, "END_LonB": 20.3682, "START_LatB": 39.458, "END_LatB": 39.458, "START_Lon1": 20.6006, "END_Lon1": 20.6006, "START_Lat1": 39.2468, "END_Lat1": 39.2468, "START_Lon2": 20.4422, "END_Lon2": 20.4422, "START_Lat2": 39.4872, "END_Lat2": 39.4872, "START_Lon3": 20.5612, "END_Lon3": 20.5612, "START_Lat3": 39.534, "END_Lat3": 39.534, "START_Lon4": 20.7195, "END_Lon4": 20.7195, "START_Lat4": 39.2936, "END_Lat4": 39.2936, "START_SR_m": null, "END_SR_min": null, "START_SR_1": null, "END_SR_max": null, "START_SR_a": null, "END_SR_avg": null, "START_SR_R": null, "END_SR_Ref": null, "START_SR_C": null, "END_SR_Com": null, "START_po_2": "A", "END_poin_1": "A", "START_po_3": 1, "END_poin_2": 1 }, "geometry": { "type": "LineString", "coordinates": [ [ 20.5267, 39.2177 ], [ 20.3682, 39.458 ], [ 20.6006, 39.2468 ], [ 20.4422, 39.4872 ], [ 20.5612, 39.534 ], [ 20.7195, 39.2936 ], [ 20.5267, 39.2177 ] ] } },
{ "type": "Feature", "properties": { "Shape_Leng": 2.3549316446400002, "SS_ID": 144, "START_OBJE": 37, "END_OBJECT": 37, "START_Lon": 27.8028, "END_Lon": 27.8028, "START_Lat": 35.7031, "END_Lat": 35.7031, "START_poin": "A", "END_point_": "A", "START_po_1": 1, "END_point1": 1, "START_SS_I": 144, "END_SS_ID": 144, "START_Name": "Carpathus", "END_NameEN": "Carpathus", "START_Na_1": "Κάρπαθος", "END_NameEL": "Κάρπαθος", "START_Stri": 243, "END_Strike": 243, "START_Dip_": 333, "END_Dip_Di": 333, "START_Dip": 78, "END_Dip": 78, "START_Rake": 30, "END_Rake": 30, "START_Ra_1": 30, "END_Rake__": 30, "START_Kine": "SR", "END_Kinema": "SR", "START_Leng": 54.0, "END_Length": 54.0, "START_Widt": 13.0, "END_Width_": 13.0, "START_Min_": 0.0, "END_Min_De": 0.0, "START_Max_": 12.7, "END_Max_De": 12.7, "START_Rupt": 702.0, "END_Ruptur": 702.0, "START_Aver": 1.25, "END_Averag": 1.25, "START_Mw__": 6.9, "END_Mw__W_": 6.9, "START_Mw_1": 6.9, "END_Mw__K_": 6.9, "START_M0__": 2.63e+19, "END_M0__Nm": 2.63e+19, "START_LonA": 27.8028, "END_LonA": 27.8028, "START_LatA": 35.7031, "END_LatA": 35.7031, "START_LonB": 27.2707, "END_LonB": 27.2707, "START_LatB": 35.4827, "END_LatB": 35.4827, "START_Lon1": 27.8028, "END_Lon1": 27.8028, "START_Lat1": 35.7031, "END_Lat1": 35.7031, "START_Lon2": 27.2707, "END_Lon2": 27.2707, "START_Lat2": 35.4827, "END_Lat2": 35.4827, "START_Lon3": 27.2571, "END_Lon3": 27.2571, "START_Lat3": 35.5043, "END_Lat3": 35.5043, "START_Lon4": 27.7892, "END_Lon4": 27.7892, "START_Lat4": 35.7248, "END_Lat4": 35.7248, "START_SR_m": null, "END_SR_min": null, "START_SR_1": null, "END_SR_max": null, "START_SR_a": null, "END_SR_avg": null, "START_SR_R": null, "END_SR_Ref": null, "START_SR_C": null, "END_SR_Com": null, "START_po_2": "A", "END_poin_1": "A", "START_po_3": 1, "END_poin_2": 1 }, "geometry": { "type": "LineString", "coordinates": [ [ 27.8028, 35.7031 ], [ 27.2707, 35.4827 ], [ 27.8028, 35.7031 ], [ 27.2707, 35.4827 ], [ 27.2571, 35.5043 ], [ 27.7892, 35.7248 ], [ 27.8028, 35.7031 ] ] } },
{ "type": "Feature", "properties": { "Shape_Leng": 1.20759601152, "SS_ID": 157, "START_OBJE": 43, "END_OBJECT": 43, "START_Lon": 20.9003, "END_Lon": 20.9003, "START_Lat": 37.4159, "END_Lat": 37.4159, "START_poin": "A", "END_point_": "A", "START_po_1": 1, "END_point1": 1, "START_SS_I": 157, "END_SS_ID": 157, "START_Name": "Laganás Gulf", "END_NameEN": "Laganás Gulf", "START_Na_1": "Κόλπος Λαγανά", "END_NameEL": "Κόλπος Λαγανά", "START_Stri": 349, "END_Strike": 349, "START_Dip_": 79, "END_Dip_Di": 79, "START_Dip": 25, "END_Dip": 25, "START_Rake": 90, "END_Rake": 90, "START_Ra_1": 90, "END_Rake__": 90, "START_Kine": "R", "END_Kinema": "R", "START_Leng": 24.0, "END_Length": 24.0, "START_Widt": 12.0, "END_Width_": 12.0, "START_Min_": 3.0, "END_Min_De": 3.0, "START_Max_": 8.1, "END_Max_De": 8.1, "START_Rupt": 288.0, "END_Ruptur": 288.0, "START_Aver": 0.94, "END_Averag": 0.94, "START_Mw__": 6.5, "END_Mw__W_": 6.5, "START_Mw_1": 6.5, "END_Mw__K_": 6.5, "START_M0__": 8.12e+18, "END_M0__Nm": 8.12e+18, "START_LonA": 20.9003, "END_LonA": 20.9003, "START_LatA": 37.4159, "END_LatA": 37.4159, "START_LonB": 20.8483, "END_LonB": 20.8483, "START_LatB": 37.6278, "END_LatB": 37.6278, "START_Lon1": 20.9719, "END_Lon1": 20.9719, "START_Lat1": 37.427, "END_Lat1": 37.427, "START_Lon2": 20.92, "END_Lon2": 20.92, "START_Lat2": 37.6388, "END_Lat2": 37.6388, "START_Lon3": 21.0411, "END_Lon3": 21.0411, "START_Lat3": 37.6575, "END_Lat3": 37.6575, "START_Lon4": 21.0929, "END_Lon4": 21.0929, "START_Lat4": 37.4456, "END_Lat4": 37.4456, "START_SR_m": null, "END_SR_min": null, "START_SR_1": null, "END_SR_max": null, "START_SR_a": null, "END_SR_avg": null, "START_SR_R": null, "END_SR_Ref": null, "START_SR_C": null, "END_SR_Com": null, "START_po_2": "A", "END_poin_1": "A", "START_po_3": 1, "END_poin_2": 1 }, "geometry": { "type": "LineString", "coordinates": [ [ 20.9003, 37.4159 ], [ 20.8483, 37.6278 ], [ 20.9719, 37.427 ], [ 20.92, 37.6388 ], [ 21.0411, 37.6575 ], [ 21.0929, 37.4456 ], [ 20.9003, 37.4159 ] ] } },
{ "type": "Feature", "properties": { "Shape_Leng": 2.0449914912299998, "SS_ID": 159, "START_OBJE": 49, "END_OBJECT": 49, "START_Lon": 20.7858, "END_Lon": 20.7858, "START_Lat": 38.072, "END_Lat": 38.072, "START_poin": "A", "END_point_": "A", "START_po_1": 1, "END_point1": 1, "START_SS_I": 159, "END_SS_ID": 159, "START_Name": "Scala", "END_NameEN": "Scala", "START_Na_1": "Σκάλα", "END_NameEL": "Σκάλα", "START_Stri": 333, "END_Strike": 333, "START_Dip_": 63, "END_Dip_Di": 63, "START_Dip": 50, "END_Dip": 50, "START_Rake": 83, "END_Rake": 83, "START_Ra_1": 83, "END_Rake__": 83, "START_Kine": "R", "END_Kinema": "R", "START_Leng": 46.5, "END_Length": 46.5, "START_Widt": 19.0, "END_Width_": 19.0, "START_Min_": 0.0, "END_Min_De": 0.0, "START_Max_": 14.6, "END_Max_De": 14.6, "START_Rupt": 883.5, "END_Ruptur": 883.5, "START_Aver": 1.39, "END_Averag": 1.39, "START_Mw__": 7.0, "END_Mw__W_": 7.0, "START_Mw_1": 7.0, "END_Mw__K_": 7.0, "START_M0__": 3.69e+19, "END_M0__Nm": 3.69e+19, "START_LonA": 20.7858, "END_LonA": 20.7858, "START_LatA": 38.072, "END_LatA": 38.072, "START_LonB": 20.5441, "END_LonB": 20.5441, "START_LatB": 38.4446, "END_LatB": 38.4446, "START_Lon1": 20.7858, "END_Lon1": 20.7858, "START_Lat1": 38.072, "END_Lat1": 38.072, "START_Lon2": 20.5441, "END_Lon2": 20.5441, "START_Lat2": 38.4446, "END_Lat2": 38.4446, "START_Lon3": 20.6688, "END_Lon3": 20.6688, "START_Lat3": 38.4945, "END_Lat3": 38.4945, "START_Lon4": 20.9104, "END_Lon4": 20.9104, "START_Lat4": 38.1219, "END_Lat4": 38.1219, "START_SR_m": null, "END_SR_min": null, "START_SR_1": null, "END_SR_max": null, "START_SR_a": null, "END_SR_avg": null, "START_SR_R": null, "END_SR_Ref": null, "START_SR_C": null, "END_SR_Com": null, "START_po_2": "A", "END_poin_1": "A", "START_po_3": 1, "END_poin_2": 1 }, "geometry": { "type": "LineString", "coordinates": [ [ 20.7858, 38.072 ], [ 20.5441, 38.4446 ], [ 20.7858, 38.072 ], [ 20.5441, 38.4446 ], [ 20.6688, 38.4945 ], [ 20.9104, 38.1219 ], [ 20.7858, 38.072 ] ] } },
{ "type": "Feature", "properties": { "Shape_Leng": 1.67544392356, "SS_ID": 160, "START_OBJE": 55, "END_OBJECT": 55, "START_Lon": 20.7778, "END_Lon": 20.7778, "START_Lat": 38.0486, "END_Lat": 38.0486, "START_poin": "A", "END_point_": "A", "START_po_1": 1, "END_point1": 1, "START_SS_I": 160, "END_SS_ID": 160, "START_Name": "Aenus", "END_NameEN": "Aenus", "START_Na_1": "Αίνος", "END_NameEL": "Αίνος", "START_Stri": 304, "END_Strike": 304, "START_Dip_": 34, "END_Dip_Di": 34, "START_Dip": 35, "END_Dip": 35, "START_Rake": 55, "END_Rake": 55, "START_Ra_1": 55, "END_Rake__": 55, "START_Kine": "RS", "END_Kinema": "RS", "START_Leng": 33.0, "END_Length": 33.0, "START_Widt": 15.0, "END_Width_": 15.0, "START_Min_": 1.0, "END_Min_De": 1.0, "START_Max_": 9.6, "END_Max_De": 9.6, "START_Rupt": 495.0, "END_Ruptur": 495.0, "START_Aver": 1.14, "END_Averag": 1.14, "START_Mw__": 6.8, "END_Mw__W_": 6.8, "START_Mw_1": 6.8, "END_Mw__K_": 6.8, "START_M0__": 1.69e+19, "END_M0__Nm": 1.69e+19, "START_LonA": 20.7778, "END_LonA": 20.7778, "START_LatA": 38.0486, "END_LatA": 38.0486, "START_LonB": 20.465, "END_LonB": 20.465, "START_LatB": 38.2146, "END_LatB": 38.2146, "START_Lon1": 20.787, "END_Lon1": 20.787, "START_Lat1": 38.0593, "END_Lat1": 38.0593, "START_Lon2": 20.4741, "END_Lon2": 20.4741, "START_Lat2": 38.2252, "END_Lat2": 38.2252, "START_Lon3": 20.5527, "END_Lon3": 20.5527, "START_Lat3": 38.3168, "END_Lat3": 38.3168, "START_Lon4": 20.8656, "END_Lon4": 20.8656, "START_Lat4": 38.1509, "END_Lat4": 38.1509, "START_SR_m": null, "END_SR_min": null, "START_SR_1": null, "END_SR_max": null, "START_SR_a": null, "END_SR_avg": null, "START_SR_R": null, "END_SR_Ref": null, "START_SR_C": null, "END_SR_Com": null, "START_po_2": "A", "END_poin_1": "A", "START_po_3": 1, "END_poin_2": 1 }, "geometry": { "type": "LineString", "coordinates": [ [ 20.7778, 38.0486 ], [ 20.465, 38.2146 ], [ 20.787, 38.0593 ], [ 20.4741, 38.2252 ], [ 20.5527, 38.3168 ], [ 20.8656, 38.1509 ], [ 20.7778, 38.0486 ] ] } },
{ "type": "Feature", "properties": { "Shape_Leng": 3.4103537460600002, "SS_ID": 163, "START_OBJE": 61, "END_OBJECT": 61, "START_Lon": 20.3974, "END_Lon": 20.3974, "START_Lat": 38.8288, "END_Lat": 38.8288, "START_poin": "A", "END_point_": "A", "START_po_1": 1, "END_point1": 1, "START_SS_I": 163, "END_SS_ID": 163, "START_Name": "Paxi", "END_NameEN": "Paxi", "START_Na_1": "Παξοί", "END_NameEL": "Παξοί", "START_Stri": 320, "END_Strike": 320, "START_Dip_": 50, "END_Dip_Di": 50, "START_Dip": 30, "END_Dip": 30, "START_Rake": 80, "END_Rake": 80, "START_Ra_1": 80, "END_Rake__": 80, "START_Kine": "R", "END_Kinema": "R", "START_Leng": 68.5, "END_Length": 68.5, "START_Widt": 25.0, "END_Width_": 25.0, "START_Min_": 7.0, "END_Min_De": 7.0, "START_Max_": 19.5, "END_Max_De": 19.5, "START_Rupt": 1712.5, "END_Ruptur": 1712.5, "START_Aver": 1.76, "END_Averag": 1.76, "START_Mw__": 7.2, "END_Mw__W_": 7.2, "START_Mw_1": 7.2, "END_Mw__K_": 7.2, "START_M0__": 9.02e+19, "END_M0__Nm": 9.02e+19, "START_LonA": 20.3974, "END_LonA": 20.3974, "START_LatA": 38.8288, "END_LatA": 38.8288, "START_LonB": 19.8868, "END_LonB": 19.8868, "START_LatB": 39.3007, "END_LatB": 39.3007, "START_Lon1": 20.505, "END_Lon1": 20.505, "START_Lat1": 38.8988, "END_Lat1": 38.8988, "START_Lon2": 19.9945, "END_Lon2": 19.9945, "START_Lat2": 39.3708, "END_Lat2": 39.3708, "START_Lon3": 20.187, "END_Lon3": 20.187, "START_Lat3": 39.4959, "END_Lat3": 39.4959, "START_Lon4": 20.6973, "END_Lon4": 20.6973, "START_Lat4": 39.024, "END_Lat4": 39.024, "START_SR_m": null, "END_SR_min": null, "START_SR_1": null, "END_SR_max": null, "START_SR_a": null, "END_SR_avg": null, "START_SR_R": null, "END_SR_Ref": null, "START_SR_C": null, "END_SR_Com": null, "START_po_2": "A", "END_poin_1": "A", "START_po_3": 1, "END_poin_2": 1 }, "geometry": { "type": "LineString", "coordinates": [ [ 20.3974, 38.8288 ], [ 19.8868, 39.3007 ], [ 20.505, 38.8988 ], [ 19.9945, 39.3708 ], [ 20.187, 39.4959 ], [ 20.6973, 39.024 ], [ 20.3974, 38.8288 ] ] } },
{ "type": "Feature", "properties": { "Shape_Leng": 3.3637710884300001, "SS_ID": 164, "START_OBJE": 67, "END_OBJECT": 67, "START_Lon": 19.7449, "END_Lon": 19.7449, "START_Lat": 39.3313, "END_Lat": 39.3313, "START_poin": "A", "END_point_": "A", "START_po_1": 1, "END_point1": 1, "START_SS_I": 164, "END_SS_ID": 164, "START_Name": "Corfu", "END_NameEN": "Corfu", "START_Na_1": "Κέρκυρα", "END_NameEL": "Κέρκυρα", "START_Stri": 326, "END_Strike": 326, "START_Dip_": 56, "END_Dip_Di": 56, "START_Dip": 30, "END_Dip": 30, "START_Rake": 90, "END_Rake": 90, "START_Ra_1": 90, "END_Rake__": 90, "START_Kine": "R", "END_Kinema": "R", "START_Leng": 68.5, "END_Length": 68.5, "START_Widt": 25.0, "END_Width_": 25.0, "START_Min_": 7.0, "END_Min_De": 7.0, "START_Max_": 19.5, "END_Max_De": 19.5, "START_Rupt": 1712.5, "END_Ruptur": 1712.5, "START_Aver": 1.76, "END_Averag": 1.76, "START_Mw__": 7.2, "END_Mw__W_": 7.2, "START_Mw_1": 7.2, "END_Mw__K_": 7.2, "START_M0__": 9.02e+19, "END_M0__Nm": 9.02e+19, "START_LonA": 19.7449, "END_LonA": 19.7449, "START_LatA": 39.3313, "END_LatA": 39.3313, "START_LonB": 19.2972, "END_LonB": 19.2972, "START_LatB": 39.842, "END_LatB": 39.842, "START_Lon1": 19.8621, "END_Lon1": 19.8621, "START_Lat1": 39.3922, "END_Lat1": 39.3922, "START_Lon2": 19.4147, "END_Lon2": 19.4147, "START_Lat2": 39.903, "END_Lat2": 39.903, "START_Lon3": 19.6247, "END_Lon3": 19.6247, "START_Lat3": 40.0118, "END_Lat3": 40.0118, "START_Lon4": 20.0717, "END_Lon4": 20.0717, "START_Lat4": 39.5011, "END_Lat4": 39.5011, "START_SR_m": null, "END_SR_min": null, "START_SR_1": null, "END_SR_max": null, "START_SR_a": null, "END_SR_avg": null, "START_SR_R": null, "END_SR_Ref": null, "START_SR_C": null, "END_SR_Com": null, "START_po_2": "A", "END_poin_1": "A", "START_po_3": 1, "END_poin_2": 1 }, "geometry": { "type": "LineString", "coordinates": [ [ 19.7449, 39.3313 ], [ 19.2972, 39.842 ], [ 19.8621, 39.3922 ], [ 19.4147, 39.903 ], [ 19.6247, 40.0118 ], [ 20.0717, 39.5011 ], [ 19.7449, 39.3313 ] ] } },
{ "type": "Feature", "properties": { "Shape_Leng": 1.2185853008600001, "SS_ID": 165, "START_OBJE": 73, "END_OBJECT": 73, "START_Lon": 19.6753, "END_Lon": 19.6753, "START_Lat": 39.6836, "END_Lat": 39.6836, "START_poin": "A", "END_point_": "A", "START_po_1": 1, "END_point1": 1, "START_SS_I": 165, "END_SS_ID": 165, "START_Name": "Pantokratoras", "END_NameEN": "Pantokratoras", "START_Na_1": "Παντοκράτορας", "END_NameEL": "Παντοκράτορας", "START_Stri": 77, "END_Strike": 77, "START_Dip_": 167, "END_Dip_Di": 167, "START_Dip": 85, "END_Dip": 85, "START_Rake": 30, "END_Rake": 30, "START_Ra_1": 30, "END_Rake__": 30, "START_Kine": "SR", "END_Kinema": "SR", "START_Leng": 26.0, "END_Length": 26.0, "START_Widt": 9.5, "END_Width_": 9.5, "START_Min_": 0.0, "END_Min_De": 0.0, "START_Max_": 9.5, "END_Max_De": 9.5, "START_Rupt": 247.0, "END_Ruptur": 247.0, "START_Aver": 0.98, "END_Averag": 0.98, "START_Mw__": 6.4, "END_Mw__W_": 6.4, "START_Mw_1": 6.5, "END_Mw__K_": 6.5, "START_M0__": 7.26e+18, "END_M0__Nm": 7.26e+18, "START_LonA": 19.6753, "END_LonA": 19.6753, "START_LatA": 39.6836, "END_LatA": 39.6836, "START_LonB": 19.9715, "END_LonB": 19.9715, "START_LatB": 39.7362, "END_LatB": 39.7362, "START_Lon1": 19.6753, "END_Lon1": 19.6753, "START_Lat1": 39.6836, "END_Lat1": 39.6836, "START_Lon2": 19.9715, "END_Lon2": 19.9715, "START_Lat2": 39.7362, "END_Lat2": 39.7362, "START_Lon3": 19.9737, "END_Lon3": 19.9737, "START_Lat3": 39.7289, "END_Lat3": 39.7289, "START_Lon4": 19.6775, "END_Lon4": 19.6775, "START_Lat4": 39.6763, "END_Lat4": 39.6763, "START_SR_m": null, "END_SR_min": null, "START_SR_1": null, "END_SR_max": null, "START_SR_a": null, "END_SR_avg": null, "START_SR_R": null, "END_SR_Ref": null, "START_SR_C": null, "END_SR_Com": null, "START_po_2": "A", "END_poin_1": "A", "START_po_3": 1, "END_poin_2": 1 }, "geometry": { "type": "LineString", "coordinates": [ [ 19.6753, 39.6836 ], [ 19.9715, 39.7362 ], [ 19.6753, 39.6836 ], [ 19.9715, 39.7362 ], [ 19.9737, 39.7289 ], [ 19.6775, 39.6763 ], [ 19.6753, 39.6836 ] ] } },
{ "type": "Feature", "properties": { "Shape_Leng": 3.25068315532, "SS_ID": 201, "START_OBJE": 79, "END_OBJECT": 79, "START_Lon": 19.4952, "END_Lon": 19.4952, "START_Lat": 40.1065, "END_Lat": 40.1065, "START_poin": "A", "END_point_": "A", "START_po_1": 1, "END_point1": 1, "START_SS_I": 201, "END_SS_ID": 201, "START_Name": "Vlorë", "END_NameEN": "Vlorë", "START_Na_1": "Αυλών", "END_NameEL": "Αυλών", "START_Stri": 318, "END_Strike": 318, "START_Dip_": 48, "END_Dip_Di": 48, "START_Dip": 30, "END_Dip": 30, "START_Rake": 80, "END_Rake": 80, "START_Ra_1": 80, "END_Rake__": 80, "START_Kine": "R", "END_Kinema": "R", "START_Leng": 66.5, "END_Length": 66.5, "START_Widt": 24.5, "END_Width_": 24.5, "START_Min_": 2.0, "END_Min_De": 2.0, "START_Max_": 14.3, "END_Max_De": 14.3, "START_Rupt": 1629.2, "END_Ruptur": 1629.2, "START_Aver": 1.73, "END_Averag": 1.73, "START_Mw__": 7.2, "END_Mw__W_": 7.2, "START_Mw_1": 7.2, "END_Mw__K_": 7.2, "START_M0__": 8.44e+19, "END_M0__Nm": 8.44e+19, "START_LonA": 19.4952, "END_LonA": 19.4952, "START_LatA": 40.1065, "END_LatA": 40.1065, "START_LonB": 18.9701, "END_LonB": 18.9701, "START_LatB": 40.551, "END_LatB": 40.551, "START_Lon1": 19.5256, "END_Lon1": 19.5256, "START_Lat1": 40.1274, "END_Lat1": 40.1274, "START_Lon2": 19.0005, "END_Lon2": 19.0005, "START_Lat2": 40.5718, "END_Lat2": 40.5718, "START_Lon3": 19.1868, "END_Lon3": 19.1868, "START_Lat3": 40.6995, "END_Lat3": 40.6995, "START_Lon4": 19.7117, "END_Lon4": 19.7117, "START_Lat4": 40.2551, "END_Lat4": 40.2551, "START_SR_m": null, "END_SR_min": null, "START_SR_1": null, "END_SR_max": null, "START_SR_a": null, "END_SR_avg": null, "START_SR_R": null, "END_SR_Ref": null, "START_SR_C": null, "END_SR_Com": null, "START_po_2": "A", "END_poin_1": "A", "START_po_3": 1, "END_poin_2": 1 }, "geometry": { "type": "LineString", "coordinates": [ [ 19.4952, 40.1065 ], [ 18.9701, 40.551 ], [ 19.5256, 40.1274 ], [ 19.0005, 40.5718 ], [ 19.1868, 40.6995 ], [ 19.7117, 40.2551 ], [ 19.4952, 40.1065 ] ] } },
{ "type": "Feature", "properties": { "Shape_Leng": 2.2821859729299998, "SS_ID": 203, "START_OBJE": 85, "END_OBJECT": 85, "START_Lon": 20.3825, "END_Lon": 20.3825, "START_Lat": 39.7671, "END_Lat": 39.7671, "START_poin": "A", "END_point_": "A", "START_po_1": 1, "END_point1": 1, "START_SS_I": 203, "END_SS_ID": 203, "START_Name": "Delvine", "END_NameEN": "Delvine", "START_Na_1": "Δέλβινο", "END_NameEL": "Δέλβινο", "START_Stri": 317, "END_Strike": 317, "START_Dip_": 47, "END_Dip_Di": 47, "START_Dip": 40, "END_Dip": 40, "START_Rake": 80, "END_Rake": 80, "START_Ra_1": 80, "END_Rake__": 80, "START_Kine": "R", "END_Kinema": "R", "START_Leng": 46.5, "END_Length": 46.5, "START_Widt": 19.0, "END_Width_": 19.0, "START_Min_": 3.0, "END_Min_De": 3.0, "START_Max_": 15.2, "END_Max_De": 15.2, "START_Rupt": 883.5, "END_Ruptur": 883.5, "START_Aver": 1.39, "END_Averag": 1.39, "START_Mw__": 7.0, "END_Mw__W_": 7.0, "START_Mw_1": 7.0, "END_Mw__K_": 7.0, "START_M0__": 3.69e+19, "END_M0__Nm": 3.69e+19, "START_LonA": 20.3825, "END_LonA": 20.3825, "START_LatA": 39.7671, "END_LatA": 39.7671, "START_LonB": 20.0105, "END_LonB": 20.0105, "START_LatB": 40.0729, "END_LatB": 40.0729, "START_Lon1": 20.4132, "END_Lon1": 20.4132, "START_Lat1": 39.789, "END_Lat1": 39.789, "START_Lon2": 20.0412, "END_Lon2": 20.0412, "START_Lat2": 40.0948, "END_Lat2": 40.0948, "START_Lon3": 20.1662, "END_Lon3": 20.1662, "START_Lat3": 40.1841, "END_Lat3": 40.1841, "START_Lon4": 20.5381, "END_Lon4": 20.5381, "START_Lat4": 39.8782, "END_Lat4": 39.8782, "START_SR_m": null, "END_SR_min": null, "START_SR_1": null, "END_SR_max": null, "START_SR_a": null, "END_SR_avg": null, "START_SR_R": null, "END_SR_Ref": null, "START_SR_C": null, "END_SR_Com": null, "START_po_2": "A", "END_poin_1": "A", "START_po_3": 1, "END_poin_2": 1 }, "geometry": { "type": "LineString", "coordinates": [ [ 20.3825, 39.7671 ], [ 20.0105, 40.0729 ], [ 20.4132, 39.789 ], [ 20.0412, 40.0948 ], [ 20.1662, 40.1841 ], [ 20.5381, 39.8782 ], [ 20.3825, 39.7671 ] ] } },
{ "type": "Feature", "properties": { "Shape_Leng": 2.3714469740099999, "SS_ID": 204, "START_OBJE": 91, "END_OBJECT": 91, "START_Lon": 20.4223, "END_Lon": 20.4223, "START_Lat": 39.9027, "END_Lat": 39.9027, "START_poin": "A", "END_point_": "A", "START_po_1": 1, "END_point1": 1, "START_SS_I": 204, "END_SS_ID": 204, "START_Name": "Lunxhërisë", "END_NameEN": "Lunxhërisë", "START_Na_1": "Λουντζέρισε", "END_NameEL": "Λουντζέρισε", "START_Stri": 323, "END_Strike": 323, "START_Dip_": 53, "END_Dip_Di": 53, "START_Dip": 35, "END_Dip": 35, "START_Rake": 80, "END_Rake": 80, "START_Ra_1": 80, "END_Rake__": 80, "START_Kine": "R", "END_Kinema": "R", "START_Leng": 50.0, "END_Length": 50.0, "START_Widt": 20.0, "END_Width_": 20.0, "START_Min_": 0.0, "END_Min_De": 0.0, "START_Max_": 11.5, "END_Max_De": 11.5, "START_Rupt": 1000.0, "END_Ruptur": 1000.0, "START_Aver": 1.46, "END_Averag": 1.46, "START_Mw__": 7.0, "END_Mw__W_": 7.0, "START_Mw_1": 7.0, "END_Mw__K_": 7.0, "START_M0__": 4.38e+19, "END_M0__Nm": 4.38e+19, "START_LonA": 20.4223, "END_LonA": 20.4223, "START_LatA": 39.9027, "END_LatA": 39.9027, "START_LonB": 20.0686, "END_LonB": 20.0686, "START_LatB": 40.2619, "END_LatB": 40.2619, "START_Lon1": 20.4223, "END_Lon1": 20.4223, "START_Lat1": 39.9027, "END_Lat1": 39.9027, "START_Lon2": 20.0686, "END_Lon2": 20.0686, "START_Lat2": 40.2619, "END_Lat2": 40.2619, "START_Lon3": 20.2226, "END_Lon3": 20.2226, "START_Lat3": 40.3505, "END_Lat3": 40.3505, "START_Lon4": 20.5761, "END_Lon4": 20.5761, "START_Lat4": 39.9914, "END_Lat4": 39.9914, "START_SR_m": null, "END_SR_min": null, "START_SR_1": null, "END_SR_max": null, "START_SR_a": null, "END_SR_avg": null, "START_SR_R": null, "END_SR_Ref": null, "START_SR_C": null, "END_SR_Com": null, "START_po_2": "A", "END_poin_1": "A", "START_po_3": 1, "END_poin_2": 1 }, "geometry": { "type": "LineString", "coordinates": [ [ 20.4223, 39.9027 ], [ 20.0686, 40.2619 ], [ 20.4223, 39.9027 ], [ 20.0686, 40.2619 ], [ 20.2226, 40.3505 ], [ 20.5761, 39.9914 ], [ 20.4223, 39.9027 ] ] } },
{ "type": "Feature", "properties": { "Shape_Leng": 2.8740587317299999, "SS_ID": 205, "START_OBJE": 97, "END_OBJECT": 97, "START_Lon": 20.0455, "END_Lon": 20.0455, "START_Lat": 40.2946, "END_Lat": 40.2946, "START_poin": "A", "END_point_": "A", "START_po_1": 1, "END_point1": 1, "START_SS_I": 205, "END_SS_ID": 205, "START_Name": "Dimal", "END_NameEN": "Dimal", "START_Na_1": "Ντιμάλ", "END_NameEL": "Ντιμάλ", "START_Stri": 339, "END_Strike": 339, "START_Dip_": 69, "END_Dip_Di": 69, "START_Dip": 35, "END_Dip": 35, "START_Rake": 80, "END_Rake": 80, "START_Ra_1": 80, "END_Rake__": 80, "START_Kine": "R", "END_Kinema": "R", "START_Leng": 63.0, "END_Length": 63.0, "START_Widt": 23.5, "END_Width_": 23.5, "START_Min_": 3.0, "END_Min_De": 3.0, "START_Max_": 16.5, "END_Max_De": 16.5, "START_Rupt": 1480.5, "END_Ruptur": 1480.5, "START_Aver": 1.67, "END_Averag": 1.67, "START_Mw__": 7.2, "END_Mw__W_": 7.2, "START_Mw_1": 7.2, "END_Mw__K_": 7.2, "START_M0__": 7.41e+19, "END_M0__Nm": 7.41e+19, "START_LonA": 20.0455, "END_LonA": 20.0455, "START_LatA": 40.2946, "END_LatA": 40.2946, "START_LonB": 19.778, "END_LonB": 19.778, "START_LatB": 40.8235, "END_LatB": 40.8235, "START_Lon1": 20.0928, "END_Lon1": 20.0928, "START_Lat1": 40.3084, "END_Lat1": 40.3084, "START_Lon2": 19.8255, "END_Lon2": 19.8255, "START_Lat2": 40.8373, "END_Lat2": 40.8373, "START_Lon3": 20.0387, "END_Lon3": 20.0387, "START_Lat3": 40.8994, "END_Lat3": 40.8994, "START_Lon4": 20.3053, "END_Lon4": 20.3053, "START_Lat4": 40.3704, "END_Lat4": 40.3704, "START_SR_m": null, "END_SR_min": null, "START_SR_1": null, "END_SR_max": null, "START_SR_a": null, "END_SR_avg": null, "START_SR_R": null, "END_SR_Ref": null, "START_SR_C": null, "END_SR_Com": null, "START_po_2": "A", "END_poin_1": "A", "START_po_3": 1, "END_poin_2": 1 }, "geometry": { "type": "LineString", "coordinates": [ [ 20.0455, 40.2946 ], [ 19.778, 40.8235 ], [ 20.0928, 40.3084 ], [ 19.8255, 40.8373 ], [ 20.0387, 40.8994 ], [ 20.3053, 40.3704 ], [ 20.0455, 40.2946 ] ] } }
]
}
