{
"type": "FeatureCollection",
"name": "S1234567_With_MAGS_Mw_wm_2015_M5dt0_h0_44",
"crs": { "type": "name", "properties": { "name": "urn:ogc:def:crs:OGC:1.3:CRS84" } },
"features": [
{ "type": "Feature", "properties": { "SN": 295359.0, "Year": 2015, "MoDaHrMnSe": 128155436.49, "Lat": 34.354, "Lon": 25.106, "Dep": 20, "MMf": 5.2, "sd2": 0.063, "n2": 11, "nMw": 5 }, "geometry": { "type": "Point", "coordinates": [ 25.106, 34.354 ] } },
{ "type": "Feature", "properties": { "SN": 298332.0, "Year": 2015, "MoDaHrMnSe": 416180743.92000002, "Lat": 35.174, "Lon": 26.854, "Dep": 24, "MMf": 6.1, "sd2": 0.065, "n2": 9, "nMw": 6 }, "geometry": { "type": "Point", "coordinates": [ 26.854, 35.174 ] } },
{ "type": "Feature", "properties": { "SN": 298344.0, "Year": 2015, "MoDaHrMnSe": 416190214.01999998, "Lat": 35.049, "Lon": 26.874, "Dep": 20, "MMf": 5.0, "sd2": 0.064, "n2": 11, "nMw": 5 }, "geometry": { "type": "Point", "coordinates": [ 26.874, 35.049 ] } },
{ "type": "Feature", "properties": { "SN": 298403.0, "Year": 2015, "MoDaHrMnSe": 417020541.93000001, "Lat": 35.025, "Lon": 26.774, "Dep": 25, "MMf": 5.5, "sd2": 0.063, "n2": 11, "nMw": 7 }, "geometry": { "type": "Point", "coordinates": [ 26.774, 35.025 ] } },
{ "type": "Feature", "properties": { "SN": 300779.0, "Year": 2015, "MoDaHrMnSe": 609010903.2, "Lat": 38.612, "Lon": 23.393, "Dep": 13, "MMf": 5.3, "sd2": 0.065, "n2": 10, "nMw": 5 }, "geometry": { "type": "Point", "coordinates": [ 23.393, 38.612 ] } },
{ "type": "Feature", "properties": { "SN": 300868.0, "Year": 2015, "MoDaHrMnSe": 609214948.80999994, "Lat": 35.079, "Lon": 26.727, "Dep": 27, "MMf": 5.4, "sd2": 0.066, "n2": 10, "nMw": 6 }, "geometry": { "type": "Point", "coordinates": [ 26.727, 35.079 ] } },
{ "type": "Feature", "properties": { "SN": 305395.0, "Year": 2015, "MoDaHrMnSe": 1006212732.15, "Lat": 36.092, "Lon": 29.937, "Dep": 25, "MMf": 5.2, "sd2": 0.067, "n2": 10, "nMw": 4 }, "geometry": { "type": "Point", "coordinates": [ 29.937, 36.092 ] } },
{ "type": "Feature", "properties": { "SN": 306888.0, "Year": 2015, "MoDaHrMnSe": 1117071008.3599999, "Lat": 38.737, "Lon": 20.576, "Dep": 10, "MMf": 6.4, "sd2": 0.068, "n2": 7, "nMw": 5 }, "geometry": { "type": "Point", "coordinates": [ 20.576, 38.737 ] } },
{ "type": "Feature", "properties": { "SN": 306904.0, "Year": 2015, "MoDaHrMnSe": 1117083342.1900001, "Lat": 38.694, "Lon": 20.621, "Dep": 15, "MMf": 5.2, "sd2": 0.064, "n2": 10, "nMw": 4 }, "geometry": { "type": "Point", "coordinates": [ 20.621, 38.694 ] } },
{ "type": "Feature", "properties": { "SN": 307186.0, "Year": 2015, "MoDaHrMnSe": 1118121539.0699999, "Lat": 38.883, "Lon": 20.613, "Dep": 13, "MMf": 5.1, "sd2": 0.064, "n2": 10, "nMw": 6 }, "geometry": { "type": "Point", "coordinates": [ 20.613, 38.883 ] } },
{ "type": "Feature", "properties": { "SN": 309445.0, "Year": 2015, "MoDaHrMnSe": 1226110051.75, "Lat": 35.43, "Lon": 27.416, "Dep": 35, "MMf": 5.2, "sd2": 0.067, "n2": 10, "nMw": 7 }, "geometry": { "type": "Point", "coordinates": [ 27.416, 35.43 ] } },
{ "type": "Feature", "properties": { "SN": 311063.0, "Year": 2016, "MoDaHrMnSe": 215185500.6, "Lat": 37.533, "Lon": 21.784, "Dep": 17, "MMf": 5.3, "sd2": 0.064, "n2": 10, "nMw": 6 }, "geometry": { "type": "Point", "coordinates": [ 21.784, 37.533 ] } },
{ "type": "Feature", "properties": { "SN": 312778.0, "Year": 2016, "MoDaHrMnSe": 329010531.31, "Lat": 37.488, "Lon": 20.26, "Dep": 17, "MMf": 5.3, "sd2": 0.066, "n2": 9, "nMw": 5 }, "geometry": { "type": "Point", "coordinates": [ 20.26, 37.488 ] } },
{ "type": "Feature", "properties": { "SN": 314836.0, "Year": 2016, "MoDaHrMnSe": 525083615.67000002, "Lat": 34.992, "Lon": 26.273, "Dep": 25, "MMf": 5.4, "sd2": 0.062, "n2": 12, "nMw": 6 }, "geometry": { "type": "Point", "coordinates": [ 26.273, 34.992 ] } },
{ "type": "Feature", "properties": { "SN": 316967.0, "Year": 2016, "MoDaHrMnSe": 730172623.87, "Lat": 35.285, "Lon": 23.004, "Dep": 33, "MMf": 5.2, "sd2": 0.067, "n2": 9, "nMw": 3 }, "geometry": { "type": "Point", "coordinates": [ 23.004, 35.285 ] } },
{ "type": "Feature", "properties": { "SN": 318256.0, "Year": 2016, "MoDaHrMnSe": 911131008.35000002, "Lat": 42.005, "Lon": 21.502, "Dep": 15, "MMf": 5.1, "sd2": 0.074, "n2": 7, "nMw": 4 }, "geometry": { "type": "Point", "coordinates": [ 21.502, 42.005 ] } },
{ "type": "Feature", "properties": { "SN": 319661.0, "Year": 2016, "MoDaHrMnSe": 1015201449.6, "Lat": 39.736, "Lon": 20.727, "Dep": 25, "MMf": 5.5, "sd2": 0.064, "n2": 10, "nMw": 6 }, "geometry": { "type": "Point", "coordinates": [ 20.727, 39.736 ] } },
{ "type": "Feature", "properties": { "SN": 319708.0, "Year": 2016, "MoDaHrMnSe": 1016004115.89, "Lat": 39.734, "Lon": 20.652, "Dep": 24, "MMf": 5.1, "sd2": 0.064, "n2": 10, "nMw": 4 }, "geometry": { "type": "Point", "coordinates": [ 20.652, 39.734 ] } },
{ "type": "Feature", "properties": { "SN": 319724.0, "Year": 2016, "MoDaHrMnSe": 1016022104.5599999, "Lat": 39.743, "Lon": 20.64, "Dep": 31, "MMf": 5.0, "sd2": 0.064, "n2": 10, "nMw": 4 }, "geometry": { "type": "Point", "coordinates": [ 20.64, 39.743 ] } },
{ "type": "Feature", "properties": { "SN": 323848.0, "Year": 2017, "MoDaHrMnSe": 206035141.1, "Lat": 39.539, "Lon": 26.134, "Dep": 13, "MMf": 5.3, "sd2": 0.066, "n2": 9, "nMw": 8 }, "geometry": { "type": "Point", "coordinates": [ 26.134, 39.539 ] } },
{ "type": "Feature", "properties": { "SN": 323993.0, "Year": 2017, "MoDaHrMnSe": 206105803.09, "Lat": 39.511, "Lon": 26.149, "Dep": 17, "MMf": 5.2, "sd2": 0.063, "n2": 10, "nMw": 8 }, "geometry": { "type": "Point", "coordinates": [ 26.149, 39.511 ] } },
{ "type": "Feature", "properties": { "SN": 324248.0, "Year": 2017, "MoDaHrMnSe": 207022404.46000001, "Lat": 39.481, "Lon": 26.163, "Dep": 14, "MMf": 5.3, "sd2": 0.063, "n2": 10, "nMw": 7 }, "geometry": { "type": "Point", "coordinates": [ 26.163, 39.481 ] } },
{ "type": "Feature", "properties": { "SN": 325204.0, "Year": 2017, "MoDaHrMnSe": 212134817.09, "Lat": 39.519, "Lon": 26.133, "Dep": 15, "MMf": 5.3, "sd2": 0.065, "n2": 10, "nMw": 6 }, "geometry": { "type": "Point", "coordinates": [ 26.133, 39.519 ] } },
{ "type": "Feature", "properties": { "SN": 328068.0, "Year": 2017, "MoDaHrMnSe": 408135302.68000001, "Lat": 41.773, "Lon": 20.03, "Dep": 20, "MMf": 5.0, "sd2": 0.063, "n2": 10, "nMw": 4 }, "geometry": { "type": "Point", "coordinates": [ 20.03, 41.773 ] } },
{ "type": "Feature", "properties": { "SN": 328260.0, "Year": 2017, "MoDaHrMnSe": 413162216.64999998, "Lat": 37.075, "Lon": 28.692, "Dep": 12, "MMf": 5.0, "sd2": 0.07, "n2": 8, "nMw": 6 }, "geometry": { "type": "Point", "coordinates": [ 28.692, 37.075 ] } },
{ "type": "Feature", "properties": { "SN": 328628.0, "Year": 2017, "MoDaHrMnSe": 421130922.23000002, "Lat": 38.805, "Lon": 29.091, "Dep": 14, "MMf": 5.0, "sd2": 0.065, "n2": 10, "nMw": 4 }, "geometry": { "type": "Point", "coordinates": [ 29.091, 38.805 ] } },
{ "type": "Feature", "properties": { "SN": 328640.0, "Year": 2017, "MoDaHrMnSe": 421141222.29000002, "Lat": 38.629, "Lon": 27.697, "Dep": 15, "MMf": 5.1, "sd2": 0.068, "n2": 8, "nMw": 4 }, "geometry": { "type": "Point", "coordinates": [ 27.697, 38.629 ] } },
{ "type": "Feature", "properties": { "SN": 329772.0, "Year": 2017, "MoDaHrMnSe": 517113034.07999998, "Lat": 35.981, "Lon": 27.502, "Dep": 22, "MMf": 5.0, "sd2": 0.064, "n2": 10, "nMw": 6 }, "geometry": { "type": "Point", "coordinates": [ 27.502, 35.981 ] } },
{ "type": "Feature", "properties": { "SN": 330094.0, "Year": 2017, "MoDaHrMnSe": 527155324.62, "Lat": 38.739, "Lon": 27.865, "Dep": 14, "MMf": 5.2, "sd2": 0.063, "n2": 10, "nMw": 7 }, "geometry": { "type": "Point", "coordinates": [ 27.865, 38.739 ] } },
{ "type": "Feature", "properties": { "SN": 330785.0, "Year": 2017, "MoDaHrMnSe": 612122838.89, "Lat": 38.863, "Lon": 26.365, "Dep": 15, "MMf": 6.4, "sd2": 0.065, "n2": 8, "nMw": 8 }, "geometry": { "type": "Point", "coordinates": [ 26.365, 38.863 ] } },
{ "type": "Feature", "properties": { "SN": 331604.0, "Year": 2017, "MoDaHrMnSe": 617195005.8, "Lat": 38.851, "Lon": 26.499, "Dep": 15, "MMf": 5.3, "sd2": 0.063, "n2": 10, "nMw": 7 }, "geometry": { "type": "Point", "coordinates": [ 26.499, 38.851 ] } },
{ "type": "Feature", "properties": { "SN": 332016.0, "Year": 2017, "MoDaHrMnSe": 622024853.32000005, "Lat": 38.797, "Lon": 26.522, "Dep": 12, "MMf": 5.0, "sd2": 0.067, "n2": 9, "nMw": 7 }, "geometry": { "type": "Point", "coordinates": [ 26.522, 38.797 ] } },
{ "type": "Feature", "properties": { "SN": 332671.0, "Year": 2017, "MoDaHrMnSe": 703111819.78999996, "Lat": 41.167, "Lon": 20.886, "Dep": 10, "MMf": 5.0, "sd2": 0.064, "n2": 10, "nMw": 6 }, "geometry": { "type": "Point", "coordinates": [ 20.886, 41.167 ] } },
{ "type": "Feature", "properties": { "SN": 333427.0, "Year": 2017, "MoDaHrMnSe": 715203017.40999997, "Lat": 34.891, "Lon": 25.488, "Dep": 9, "MMf": 5.4, "sd2": 0.066, "n2": 9, "nMw": 6 }, "geometry": { "type": "Point", "coordinates": [ 25.488, 34.891 ] } },
{ "type": "Feature", "properties": { "SN": 333658.0, "Year": 2017, "MoDaHrMnSe": 720223111.95000005, "Lat": 36.997, "Lon": 27.476, "Dep": 14, "MMf": 6.6, "sd2": 0.068, "n2": 7, "nMw": 7 }, "geometry": { "type": "Point", "coordinates": [ 27.476, 36.997 ] } },
{ "type": "Feature", "properties": { "SN": 335683.0, "Year": 2017, "MoDaHrMnSe": 731212913.51999998, "Lat": 34.425, "Lon": 24.132, "Dep": 29, "MMf": 5.3, "sd2": 0.067, "n2": 9, "nMw": 3 }, "geometry": { "type": "Point", "coordinates": [ 24.132, 34.425 ] } },
{ "type": "Feature", "properties": { "SN": 336306.0, "Year": 2017, "MoDaHrMnSe": 808074222.84000003, "Lat": 36.967, "Lon": 27.639, "Dep": 18, "MMf": 5.3, "sd2": 0.063, "n2": 10, "nMw": 7 }, "geometry": { "type": "Point", "coordinates": [ 27.639, 36.967 ] } },
{ "type": "Feature", "properties": { "SN": 336802.0, "Year": 2017, "MoDaHrMnSe": 813111653.53999996, "Lat": 37.054, "Lon": 27.768, "Dep": 11, "MMf": 5.0, "sd2": 0.067, "n2": 9, "nMw": 7 }, "geometry": { "type": "Point", "coordinates": [ 27.768, 37.054 ] } },
{ "type": "Feature", "properties": { "SN": 339503.0, "Year": 2017, "MoDaHrMnSe": 1011224944.88, "Lat": 39.113, "Lon": 24.273, "Dep": 12, "MMf": 5.1, "sd2": 0.065, "n2": 10, "nMw": 6 }, "geometry": { "type": "Point", "coordinates": [ 24.273, 39.113 ] } },
{ "type": "Feature", "properties": { "SN": 340736.0, "Year": 2017, "MoDaHrMnSe": 1122202253.45, "Lat": 37.069, "Lon": 28.637, "Dep": 7, "MMf": 5.1, "sd2": 0.063, "n2": 10, "nMw": 6 }, "geometry": { "type": "Point", "coordinates": [ 28.637, 37.069 ] } },
{ "type": "Feature", "properties": { "SN": 340843.0, "Year": 2017, "MoDaHrMnSe": 1124214916.48, "Lat": 37.085, "Lon": 28.67, "Dep": 14, "MMf": 5.3, "sd2": 0.066, "n2": 9, "nMw": 5 }, "geometry": { "type": "Point", "coordinates": [ 28.67, 37.085 ] } },
{ "type": "Feature", "properties": { "SN": 341972.0, "Year": 2018, "MoDaHrMnSe": 104104611.65000001, "Lat": 42.648, "Lon": 19.87, "Dep": 13, "MMf": 5.1, "sd2": 0.066, "n2": 9, "nMw": 4 }, "geometry": { "type": "Point", "coordinates": [ 19.87, 42.648 ] } },
{ "type": "Feature", "properties": { "SN": 345300.0, "Year": 2018, "MoDaHrMnSe": 516223003.24000001, "Lat": 36.455, "Lon": 22.97, "Dep": 15, "MMf": 5.0, "sd2": 0.065, "n2": 10, "nMw": 4 }, "geometry": { "type": "Point", "coordinates": [ 22.97, 36.455 ] } },
{ "type": "Feature", "properties": { "SN": 346188.0, "Year": 2018, "MoDaHrMnSe": 625051446.9, "Lat": 36.692, "Lon": 21.396, "Dep": 25, "MMf": 5.5, "sd2": 0.067, "n2": 9, "nMw": 5 }, "geometry": { "type": "Point", "coordinates": [ 21.396, 36.692 ] } },
{ "type": "Feature", "properties": { "SN": 346440.0, "Year": 2018, "MoDaHrMnSe": 704090107.98000002, "Lat": 41.415, "Lon": 19.561, "Dep": 15, "MMf": 5.2, "sd2": 0.063, "n2": 10, "nMw": 4 }, "geometry": { "type": "Point", "coordinates": [ 19.561, 41.415 ] } },
{ "type": "Feature", "properties": { "SN": 346441.0, "Year": 2018, "MoDaHrMnSe": 704090137.76999998, "Lat": 41.366, "Lon": 19.631, "Dep": 15, "MMf": 5.0, "sd2": 0.107, "n2": 5, "nMw": 0 }, "geometry": { "type": "Point", "coordinates": [ 19.631, 41.366 ] } },
{ "type": "Feature", "properties": { "SN": 346823.0, "Year": 2018, "MoDaHrMnSe": 713124240.83000004, "Lat": 34.891, "Lon": 25.96, "Dep": 17, "MMf": 5.0, "sd2": 0.07, "n2": 8, "nMw": 2 }, "geometry": { "type": "Point", "coordinates": [ 25.96, 34.891 ] } },
{ "type": "Feature", "properties": { "SN": 347560.0, "Year": 2018, "MoDaHrMnSe": 811153834.19000006, "Lat": 41.556, "Lon": 20.075, "Dep": 15, "MMf": 5.1, "sd2": 0.063, "n2": 10, "nMw": 4 }, "geometry": { "type": "Point", "coordinates": [ 20.075, 41.556 ] } },
{ "type": "Feature", "properties": { "SN": 348021.0, "Year": 2018, "MoDaHrMnSe": 831071224.90999997, "Lat": 39.281, "Lon": 21.713, "Dep": 13, "MMf": 5.2, "sd2": 0.061, "n2": 11, "nMw": 5 }, "geometry": { "type": "Point", "coordinates": [ 21.713, 39.281 ] } },
{ "type": "Feature", "properties": { "SN": 348760.0, "Year": 2018, "MoDaHrMnSe": 927102149.19000006, "Lat": 36.672, "Lon": 21.414, "Dep": 15, "MMf": 5.4, "sd2": 0.067, "n2": 9, "nMw": 5 }, "geometry": { "type": "Point", "coordinates": [ 21.414, 36.672 ] } },
{ "type": "Feature", "properties": { "SN": 349572.0, "Year": 2018, "MoDaHrMnSe": 1025225451.25, "Lat": 37.443, "Lon": 20.669, "Dep": 13, "MMf": 6.8, "sd2": 0.067, "n2": 8, "nMw": 6 }, "geometry": { "type": "Point", "coordinates": [ 20.669, 37.443 ] } },
{ "type": "Feature", "properties": { "SN": 349573.0, "Year": 2018, "MoDaHrMnSe": 1025230920.9299999, "Lat": 37.174, "Lon": 20.65, "Dep": 15, "MMf": 5.3, "sd2": 0.093, "n2": 7, "nMw": 0 }, "geometry": { "type": "Point", "coordinates": [ 20.65, 37.174 ] } },
{ "type": "Feature", "properties": { "SN": 349673.0, "Year": 2018, "MoDaHrMnSe": 1026054837.4299999, "Lat": 37.412, "Lon": 20.654, "Dep": 16, "MMf": 5.2, "sd2": 0.067, "n2": 9, "nMw": 3 }, "geometry": { "type": "Point", "coordinates": [ 20.654, 37.412 ] } },
{ "type": "Feature", "properties": { "SN": 349736.0, "Year": 2018, "MoDaHrMnSe": 1026124114.03, "Lat": 37.423, "Lon": 20.563, "Dep": 18, "MMf": 5.1, "sd2": 0.07, "n2": 8, "nMw": 3 }, "geometry": { "type": "Point", "coordinates": [ 20.563, 37.423 ] } },
{ "type": "Feature", "properties": { "SN": 350282.0, "Year": 2018, "MoDaHrMnSe": 1030025959.0, "Lat": 37.561, "Lon": 20.51, "Dep": 16, "MMf": 5.3, "sd2": 0.064, "n2": 10, "nMw": 3 }, "geometry": { "type": "Point", "coordinates": [ 20.51, 37.561 ] } },
{ "type": "Feature", "properties": { "SN": 350314.0, "Year": 2018, "MoDaHrMnSe": 1030083226.79, "Lat": 37.481, "Lon": 20.467, "Dep": 20, "MMf": 5.0, "sd2": 0.066, "n2": 9, "nMw": 2 }, "geometry": { "type": "Point", "coordinates": [ 20.467, 37.481 ] } },
{ "type": "Feature", "properties": { "SN": 350345.0, "Year": 2018, "MoDaHrMnSe": 1030151201.75, "Lat": 37.51, "Lon": 20.587, "Dep": 17, "MMf": 5.8, "sd2": 0.064, "n2": 10, "nMw": 5 }, "geometry": { "type": "Point", "coordinates": [ 20.587, 37.51 ] } },
{ "type": "Feature", "properties": { "SN": 350533.0, "Year": 2018, "MoDaHrMnSe": 1101024450.04, "Lat": 37.432, "Lon": 20.584, "Dep": 17, "MMf": 5.0, "sd2": 0.07, "n2": 8, "nMw": 3 }, "geometry": { "type": "Point", "coordinates": [ 20.584, 37.432 ] } },
{ "type": "Feature", "properties": { "SN": 351654.0, "Year": 2018, "MoDaHrMnSe": 1111233836.6500001, "Lat": 37.677, "Lon": 20.52, "Dep": 21, "MMf": 5.0, "sd2": 0.07, "n2": 8, "nMw": 4 }, "geometry": { "type": "Point", "coordinates": [ 20.52, 37.677 ] } },
{ "type": "Feature", "properties": { "SN": 351986.0, "Year": 2018, "MoDaHrMnSe": 1115090205.9200001, "Lat": 37.487, "Lon": 20.721, "Dep": 22, "MMf": 5.0, "sd2": 0.067, "n2": 9, "nMw": 3 }, "geometry": { "type": "Point", "coordinates": [ 20.721, 37.487 ] } },
{ "type": "Feature", "properties": { "SN": 352319.0, "Year": 2018, "MoDaHrMnSe": 1119130556.01, "Lat": 37.181, "Lon": 20.661, "Dep": 12, "MMf": 5.2, "sd2": 0.067, "n2": 9, "nMw": 5 }, "geometry": { "type": "Point", "coordinates": [ 20.661, 37.181 ] } },
{ "type": "Feature", "properties": { "SN": 354852.0, "Year": 2018, "MoDaHrMnSe": 1219193553.4100001, "Lat": 36.607, "Lon": 21.555, "Dep": 27, "MMf": 5.0, "sd2": 0.067, "n2": 9, "nMw": 4 }, "geometry": { "type": "Point", "coordinates": [ 21.555, 36.607 ] } },
{ "type": "Feature", "properties": { "SN": 355198.0, "Year": 2018, "MoDaHrMnSe": 1225014128.21, "Lat": 37.319, "Lon": 20.836, "Dep": 24, "MMf": 5.0, "sd2": 0.065, "n2": 10, "nMw": 1 }, "geometry": { "type": "Point", "coordinates": [ 20.836, 37.319 ] } },
{ "type": "Feature", "properties": { "SN": 356074.0, "Year": 2019, "MoDaHrMnSe": 110182439.89, "Lat": 34.528, "Lon": 26.576, "Dep": 26, "MMf": 5.1, "sd2": 0.064, "n2": 10, "nMw": 1 }, "geometry": { "type": "Point", "coordinates": [ 26.576, 34.528 ] } },
{ "type": "Feature", "properties": { "SN": 356704.0, "Year": 2019, "MoDaHrMnSe": 120154950.54000001, "Lat": 35.61, "Lon": 28.316, "Dep": 15, "MMf": 5.0, "sd2": 0.07, "n2": 9, "nMw": 4 }, "geometry": { "type": "Point", "coordinates": [ 28.316, 35.61 ] } },
{ "type": "Feature", "properties": { "SN": 357508.0, "Year": 2019, "MoDaHrMnSe": 205022609.45, "Lat": 38.98, "Lon": 20.67, "Dep": 11, "MMf": 5.4, "sd2": 0.063, "n2": 10, "nMw": 5 }, "geometry": { "type": "Point", "coordinates": [ 20.67, 38.98 ] } },
{ "type": "Feature", "properties": { "SN": 358642.0, "Year": 2019, "MoDaHrMnSe": 220182329.3, "Lat": 39.62, "Lon": 26.39, "Dep": 11, "MMf": 5.1, "sd2": 0.066, "n2": 9, "nMw": 5 }, "geometry": { "type": "Point", "coordinates": [ 26.39, 39.62 ] } },
{ "type": "Feature", "properties": { "SN": 360336.0, "Year": 2019, "MoDaHrMnSe": 320063427.76999998, "Lat": 37.422, "Lon": 29.541, "Dep": 10, "MMf": 5.7, "sd2": 0.07, "n2": 9, "nMw": 6 }, "geometry": { "type": "Point", "coordinates": [ 29.541, 37.422 ] } },
{ "type": "Feature", "properties": { "SN": 361290.0, "Year": 2019, "MoDaHrMnSe": 330104619.42000002, "Lat": 38.327, "Lon": 22.335, "Dep": 15, "MMf": 5.3, "sd2": 0.066, "n2": 9, "nMw": 5 }, "geometry": { "type": "Point", "coordinates": [ 22.335, 38.327 ] } },
{ "type": "Feature", "properties": { "SN": 361352.0, "Year": 2019, "MoDaHrMnSe": 331113017.7, "Lat": 37.464, "Lon": 29.382, "Dep": 15, "MMf": 5.1, "sd2": 0.07, "n2": 8, "nMw": 5 }, "geometry": { "type": "Point", "coordinates": [ 29.382, 37.464 ] } },
{ "type": "Feature", "properties": { "SN": 364440.0, "Year": 2019, "MoDaHrMnSe": 601042619.62, "Lat": 40.473, "Lon": 20.743, "Dep": 17, "MMf": 5.2, "sd2": 0.064, "n2": 10, "nMw": 5 }, "geometry": { "type": "Point", "coordinates": [ 20.743, 40.473 ] } },
{ "type": "Feature", "properties": { "SN": 364476.0, "Year": 2019, "MoDaHrMnSe": 601070027.52999997, "Lat": 40.552, "Lon": 20.783, "Dep": 15, "MMf": 5.0, "sd2": 0.064, "n2": 10, "nMw": 5 }, "geometry": { "type": "Point", "coordinates": [ 20.783, 40.552 ] } },
{ "type": "Feature", "properties": { "SN": 366277.0, "Year": 2019, "MoDaHrMnSe": 719111316.27999997, "Lat": 38.11, "Lon": 23.551, "Dep": 17, "MMf": 5.3, "sd2": 0.063, "n2": 10, "nMw": 6 }, "geometry": { "type": "Point", "coordinates": [ 23.551, 38.11 ] } },
{ "type": "Feature", "properties": { "SN": 366799.0, "Year": 2019, "MoDaHrMnSe": 803095124.59000003, "Lat": 35.153, "Lon": 27.851, "Dep": 15, "MMf": 5.1, "sd2": 0.066, "n2": 10, "nMw": 5 }, "geometry": { "type": "Point", "coordinates": [ 27.851, 35.153 ] } },
{ "type": "Feature", "properties": { "SN": 367012.0, "Year": 2019, "MoDaHrMnSe": 808112530.40999997, "Lat": 37.893, "Lon": 29.679, "Dep": 15, "MMf": 5.9, "sd2": 0.078, "n2": 6, "nMw": 7 }, "geometry": { "type": "Point", "coordinates": [ 29.679, 37.893 ] } },
{ "type": "Feature", "properties": { "SN": 367218.0, "Year": 2019, "MoDaHrMnSe": 811070251.17999995, "Lat": 34.306, "Lon": 25.039, "Dep": 23, "MMf": 5.2, "sd2": 0.079, "n2": 6, "nMw": 1 }, "geometry": { "type": "Point", "coordinates": [ 25.039, 34.306 ] } },
{ "type": "Feature", "properties": { "SN": 368707.0, "Year": 2019, "MoDaHrMnSe": 921140425.87, "Lat": 41.328, "Lon": 19.547, "Dep": 20, "MMf": 5.7, "sd2": 0.06, "n2": 12, "nMw": 4 }, "geometry": { "type": "Point", "coordinates": [ 19.547, 41.328 ] } },
{ "type": "Feature", "properties": { "SN": 368709.0, "Year": 2019, "MoDaHrMnSe": 921141553.61000001, "Lat": 41.313, "Lon": 19.549, "Dep": 20, "MMf": 5.2, "sd2": 0.062, "n2": 11, "nMw": 4 }, "geometry": { "type": "Point", "coordinates": [ 19.549, 41.313 ] } },
{ "type": "Feature", "properties": { "SN": 368917.0, "Year": 2019, "MoDaHrMnSe": 924074859.11000001, "Lat": 34.238, "Lon": 26.186, "Dep": 22, "MMf": 5.0, "sd2": 0.076, "n2": 6, "nMw": 3 }, "geometry": { "type": "Point", "coordinates": [ 26.186, 34.238 ] } },
{ "type": "Feature", "properties": { "SN": 369015.0, "Year": 2019, "MoDaHrMnSe": 926105925.82000005, "Lat": 40.843, "Lon": 28.215, "Dep": 12, "MMf": 5.7, "sd2": 0.07, "n2": 8, "nMw": 6 }, "geometry": { "type": "Point", "coordinates": [ 28.215, 40.843 ] } },
{ "type": "Feature", "properties": { "SN": 369386.0, "Year": 2019, "MoDaHrMnSe": 1003044457.71, "Lat": 36.253, "Lon": 28.591, "Dep": 28, "MMf": 5.2, "sd2": 0.067, "n2": 10, "nMw": 4 }, "geometry": { "type": "Point", "coordinates": [ 28.591, 36.253 ] } },
{ "type": "Feature", "properties": { "SN": 371323.0, "Year": 2019, "MoDaHrMnSe": 1126025412.0899999, "Lat": 41.423, "Lon": 19.562, "Dep": 18, "MMf": 6.4, "sd2": 0.064, "n2": 9, "nMw": 5 }, "geometry": { "type": "Point", "coordinates": [ 19.562, 41.423 ] } },
{ "type": "Feature", "properties": { "SN": 371378.0, "Year": 2019, "MoDaHrMnSe": 1126060822.3, "Lat": 41.531, "Lon": 19.495, "Dep": 15, "MMf": 5.5, "sd2": 0.062, "n2": 11, "nMw": 4 }, "geometry": { "type": "Point", "coordinates": [ 19.495, 41.531 ] } },
{ "type": "Feature", "properties": { "SN": 371585.0, "Year": 2019, "MoDaHrMnSe": 1127144524.77, "Lat": 41.498, "Lon": 19.414, "Dep": 15, "MMf": 5.3, "sd2": 0.062, "n2": 11, "nMw": 4 }, "geometry": { "type": "Point", "coordinates": [ 19.414, 41.498 ] } },
{ "type": "Feature", "properties": { "SN": 373874.0, "Year": 2020, "MoDaHrMnSe": 119025209.96, "Lat": 38.177, "Lon": 20.762, "Dep": 16, "MMf": 5.1, "sd2": 0.065, "n2": 9, "nMw": 4 }, "geometry": { "type": "Point", "coordinates": [ 20.762, 38.177 ] } },
{ "type": "Feature", "properties": { "SN": 373984.0, "Year": 2020, "MoDaHrMnSe": 122192217.22, "Lat": 39.068, "Lon": 27.859, "Dep": 15, "MMf": 5.6, "sd2": 0.072, "n2": 7, "nMw": 6 }, "geometry": { "type": "Point", "coordinates": [ 27.859, 39.068 ] } },
{ "type": "Feature", "properties": { "SN": 374920.0, "Year": 2020, "MoDaHrMnSe": 128112614.92, "Lat": 39.106, "Lon": 27.851, "Dep": 13, "MMf": 5.0, "sd2": 0.067, "n2": 9, "nMw": 6 }, "geometry": { "type": "Point", "coordinates": [ 27.851, 39.106 ] } },
{ "type": "Feature", "properties": { "SN": 374967.0, "Year": 2020, "MoDaHrMnSe": 128153834.18000001, "Lat": 35.129, "Lon": 27.948, "Dep": 15, "MMf": 5.5, "sd2": 0.07, "n2": 9, "nMw": 7 }, "geometry": { "type": "Point", "coordinates": [ 27.948, 35.129 ] } },
{ "type": "Feature", "properties": { "SN": 375005.0, "Year": 2020, "MoDaHrMnSe": 128201509.53, "Lat": 41.417, "Lon": 19.578, "Dep": 15, "MMf": 5.0, "sd2": 0.093, "n2": 7, "nMw": 0 }, "geometry": { "type": "Point", "coordinates": [ 19.578, 41.417 ] } },
{ "type": "Feature", "properties": { "SN": 375182.0, "Year": 2020, "MoDaHrMnSe": 130012807.0, "Lat": 35.163, "Lon": 27.888, "Dep": 22, "MMf": 5.5, "sd2": 0.07, "n2": 9, "nMw": 6 }, "geometry": { "type": "Point", "coordinates": [ 27.888, 35.163 ] } },
{ "type": "Feature", "properties": { "SN": 375257.0, "Year": 2020, "MoDaHrMnSe": 130112137.88, "Lat": 35.18, "Lon": 27.832, "Dep": 22, "MMf": 5.7, "sd2": 0.063, "n2": 11, "nMw": 5 }, "geometry": { "type": "Point", "coordinates": [ 27.832, 35.18 ] } },
{ "type": "Feature", "properties": { "SN": 375830.0, "Year": 2020, "MoDaHrMnSe": 204175525.28, "Lat": 38.976, "Lon": 27.937, "Dep": 15, "MMf": 5.0, "sd2": 0.064, "n2": 10, "nMw": 3 }, "geometry": { "type": "Point", "coordinates": [ 27.937, 38.976 ] } },
{ "type": "Feature", "properties": { "SN": 376282.0, "Year": 2020, "MoDaHrMnSe": 210224651.15000001, "Lat": 35.162, "Lon": 27.913, "Dep": 15, "MMf": 5.0, "sd2": 0.063, "n2": 11, "nMw": 3 }, "geometry": { "type": "Point", "coordinates": [ 27.913, 35.162 ] } },
{ "type": "Feature", "properties": { "SN": 376613.0, "Year": 2020, "MoDaHrMnSe": 218160924.23, "Lat": 39.081, "Lon": 27.849, "Dep": 12, "MMf": 5.1, "sd2": 0.07, "n2": 8, "nMw": 5 }, "geometry": { "type": "Point", "coordinates": [ 27.849, 39.081 ] } },
{ "type": "Feature", "properties": { "SN": 378015.0, "Year": 2020, "MoDaHrMnSe": 321004951.81, "Lat": 39.287, "Lon": 20.591, "Dep": 15, "MMf": 5.7, "sd2": 0.072, "n2": 7, "nMw": 6 }, "geometry": { "type": "Point", "coordinates": [ 20.591, 39.287 ] } },
{ "type": "Feature", "properties": { "SN": 378706.0, "Year": 2020, "MoDaHrMnSe": 411102254.38, "Lat": 34.993, "Lon": 26.157, "Dep": 38, "MMf": 5.0, "sd2": 0.063, "n2": 10, "nMw": 3 }, "geometry": { "type": "Point", "coordinates": [ 26.157, 34.993 ] } },
{ "type": "Feature", "properties": { "SN": 379392.0, "Year": 2020, "MoDaHrMnSe": 502125106.07, "Lat": 34.211, "Lon": 25.757, "Dep": 14, "MMf": 6.6, "sd2": 0.068, "n2": 7, "nMw": 8 }, "geometry": { "type": "Point", "coordinates": [ 25.757, 34.211 ] } },
{ "type": "Feature", "properties": { "SN": 379393.0, "Year": 2020, "MoDaHrMnSe": 502125753.54000002, "Lat": 34.0574, "Lon": 25.7702, "Dep": 0, "MMf": 5.1, "sd2": 0.25, "n2": 1, "nMw": 0 }, "geometry": { "type": "Point", "coordinates": [ 25.7702, 34.0574 ] } },
{ "type": "Feature", "properties": { "SN": 379405.0, "Year": 2020, "MoDaHrMnSe": 502133350.51999998, "Lat": 34.141, "Lon": 25.571, "Dep": 15, "MMf": 5.4, "sd2": 0.083, "n2": 6, "nMw": 2 }, "geometry": { "type": "Point", "coordinates": [ 25.571, 34.141 ] } },
{ "type": "Feature", "properties": { "SN": 379432.0, "Year": 2020, "MoDaHrMnSe": 502164426.98000002, "Lat": 34.119, "Lon": 25.653, "Dep": 14, "MMf": 5.3, "sd2": 0.063, "n2": 10, "nMw": 4 }, "geometry": { "type": "Point", "coordinates": [ 25.653, 34.119 ] } },
{ "type": "Feature", "properties": { "SN": 380102.0, "Year": 2020, "MoDaHrMnSe": 518041819.1, "Lat": 34.19, "Lon": 25.635, "Dep": 15, "MMf": 5.2, "sd2": 0.066, "n2": 9, "nMw": 3 }, "geometry": { "type": "Point", "coordinates": [ 25.635, 34.19 ] } },
{ "type": "Feature", "properties": { "SN": 380149.0, "Year": 2020, "MoDaHrMnSe": 518232235.76, "Lat": 34.169, "Lon": 25.594, "Dep": 16, "MMf": 5.8, "sd2": 0.068, "n2": 8, "nMw": 5 }, "geometry": { "type": "Point", "coordinates": [ 25.594, 34.169 ] } },
{ "type": "Feature", "properties": { "SN": 380328.0, "Year": 2020, "MoDaHrMnSe": 520234316.23000002, "Lat": 35.108, "Lon": 20.286, "Dep": 13, "MMf": 5.7, "sd2": 0.068, "n2": 8, "nMw": 4 }, "geometry": { "type": "Point", "coordinates": [ 20.286, 35.108 ] } },
{ "type": "Feature", "properties": { "SN": 380381.0, "Year": 2020, "MoDaHrMnSe": 522034030.2, "Lat": 34.385, "Lon": 25.885, "Dep": 15, "MMf": 5.0, "sd2": 0.067, "n2": 9, "nMw": 2 }, "geometry": { "type": "Point", "coordinates": [ 25.885, 34.385 ] } },
{ "type": "Feature", "properties": { "SN": 380453.0, "Year": 2020, "MoDaHrMnSe": 523225012.48000002, "Lat": 34.226, "Lon": 25.579, "Dep": 16, "MMf": 5.3, "sd2": 0.063, "n2": 10, "nMw": 3 }, "geometry": { "type": "Point", "coordinates": [ 25.579, 34.226 ] } },
{ "type": "Feature", "properties": { "SN": 380662.0, "Year": 2020, "MoDaHrMnSe": 527010954.02999997, "Lat": 34.161, "Lon": 25.692, "Dep": 18, "MMf": 5.1, "sd2": 0.066, "n2": 9, "nMw": 2 }, "geometry": { "type": "Point", "coordinates": [ 25.692, 34.161 ] } },
{ "type": "Feature", "properties": { "SN": 381203.0, "Year": 2020, "MoDaHrMnSe": 603090330.82000005, "Lat": 34.35, "Lon": 25.908, "Dep": 21, "MMf": 5.4, "sd2": 0.079, "n2": 6, "nMw": 1 }, "geometry": { "type": "Point", "coordinates": [ 25.908, 34.35 ] } },
{ "type": "Feature", "properties": { "SN": 382089.0, "Year": 2020, "MoDaHrMnSe": 619074321.63, "Lat": 34.256, "Lon": 25.552, "Dep": 17, "MMf": 5.1, "sd2": 0.063, "n2": 10, "nMw": 3 }, "geometry": { "type": "Point", "coordinates": [ 25.552, 34.256 ] } },
{ "type": "Feature", "properties": { "SN": 382340.0, "Year": 2020, "MoDaHrMnSe": 626072112.92999995, "Lat": 38.765, "Lon": 27.849, "Dep": 15, "MMf": 5.2, "sd2": 0.07, "n2": 8, "nMw": 7 }, "geometry": { "type": "Point", "coordinates": [ 27.849, 38.765 ] } },
{ "type": "Feature", "properties": { "SN": 385316.0, "Year": 2020, "MoDaHrMnSe": 926225025.67999995, "Lat": 39.943, "Lon": 24.376, "Dep": 15, "MMf": 5.3, "sd2": 0.06, "n2": 11, "nMw": 7 }, "geometry": { "type": "Point", "coordinates": [ 24.376, 39.943 ] } },
{ "type": "Feature", "properties": { "SN": 385792.0, "Year": 2020, "MoDaHrMnSe": 1012003040.95, "Lat": 35.548, "Lon": 26.296, "Dep": 18, "MMf": 5.1, "sd2": 0.063, "n2": 10, "nMw": 4 }, "geometry": { "type": "Point", "coordinates": [ 26.296, 35.548 ] } },
{ "type": "Feature", "properties": { "SN": 385832.0, "Year": 2020, "MoDaHrMnSe": 1012041128.9400001, "Lat": 35.581, "Lon": 26.234, "Dep": 18, "MMf": 5.2, "sd2": 0.063, "n2": 10, "nMw": 5 }, "geometry": { "type": "Point", "coordinates": [ 26.234, 35.581 ] } },
{ "type": "Feature", "properties": { "SN": 386226.0, "Year": 2020, "MoDaHrMnSe": 1021230055.66, "Lat": 37.191, "Lon": 20.513, "Dep": 20, "MMf": 5.2, "sd2": 0.074, "n2": 7, "nMw": 4 }, "geometry": { "type": "Point", "coordinates": [ 20.513, 37.191 ] } },
{ "type": "Feature", "properties": { "SN": 386457.0, "Year": 2020, "MoDaHrMnSe": 1030115127.49, "Lat": 37.853, "Lon": 26.779, "Dep": 20, "MMf": 7.0, "sd2": 0.073, "n2": 6, "nMw": 7 }, "geometry": { "type": "Point", "coordinates": [ 26.779, 37.853 ] } },
{ "type": "Feature", "properties": { "SN": 386458.0, "Year": 2020, "MoDaHrMnSe": 1030115353.48, "Lat": 37.9081, "Lon": 26.8034, "Dep": 3, "MMf": 5.0, "sd2": 0.225, "n2": 2, "nMw": 0 }, "geometry": { "type": "Point", "coordinates": [ 26.8034, 37.9081 ] } },
{ "type": "Feature", "properties": { "SN": 386620.0, "Year": 2020, "MoDaHrMnSe": 1030151457.67, "Lat": 37.821, "Lon": 26.889, "Dep": 15, "MMf": 5.3, "sd2": 0.063, "n2": 10, "nMw": 4 }, "geometry": { "type": "Point", "coordinates": [ 26.889, 37.821 ] } },
{ "type": "Feature", "properties": { "SN": 387114.0, "Year": 2020, "MoDaHrMnSe": 1031053131.14, "Lat": 37.785, "Lon": 26.82, "Dep": 11, "MMf": 5.0, "sd2": 0.064, "n2": 10, "nMw": 5 }, "geometry": { "type": "Point", "coordinates": [ 26.82, 37.785 ] } },
{ "type": "Feature", "properties": { "SN": 389380.0, "Year": 2020, "MoDaHrMnSe": 1111035416.01, "Lat": 41.629, "Lon": 20.841, "Dep": 16, "MMf": 5.1, "sd2": 0.062, "n2": 11, "nMw": 4 }, "geometry": { "type": "Point", "coordinates": [ 20.841, 41.629 ] } },
{ "type": "Feature", "properties": { "SN": 389441.0, "Year": 2020, "MoDaHrMnSe": 1111142514.3599999, "Lat": 41.623, "Lon": 20.717, "Dep": 13, "MMf": 5.0, "sd2": 0.063, "n2": 11, "nMw": 3 }, "geometry": { "type": "Point", "coordinates": [ 20.717, 41.623 ] } },
{ "type": "Feature", "properties": { "SN": 392424.0, "Year": 2021, "MoDaHrMnSe": 112220956.73, "Lat": 38.356, "Lon": 22.058, "Dep": 7, "MMf": 5.2, "sd2": 0.069, "n2": 8, "nMw": 5 }, "geometry": { "type": "Point", "coordinates": [ 22.058, 38.356 ] } },
{ "type": "Feature", "properties": { "SN": 393381.0, "Year": 2021, "MoDaHrMnSe": 201083518.69, "Lat": 38.938, "Lon": 26.107, "Dep": 16, "MMf": 5.1, "sd2": 0.063, "n2": 10, "nMw": 5 }, "geometry": { "type": "Point", "coordinates": [ 26.107, 38.938 ] } },
{ "type": "Feature", "properties": { "SN": 394213.0, "Year": 2021, "MoDaHrMnSe": 217033607.5, "Lat": 38.316, "Lon": 21.976, "Dep": 11, "MMf": 5.5, "sd2": 0.069, "n2": 8, "nMw": 5 }, "geometry": { "type": "Point", "coordinates": [ 21.976, 38.316 ] } },
{ "type": "Feature", "properties": { "SN": 394732.0, "Year": 2021, "MoDaHrMnSe": 303101610.42000002, "Lat": 39.731, "Lon": 22.218, "Dep": 9, "MMf": 6.3, "sd2": 0.064, "n2": 8, "nMw": 8 }, "geometry": { "type": "Point", "coordinates": [ 22.218, 39.731 ] } },
{ "type": "Feature", "properties": { "SN": 394742.0, "Year": 2021, "MoDaHrMnSe": 303103409.32, "Lat": 39.692, "Lon": 22.271, "Dep": 15, "MMf": 5.0, "sd2": 0.075, "n2": 7, "nMw": 2 }, "geometry": { "type": "Point", "coordinates": [ 22.271, 39.692 ] } },
{ "type": "Feature", "properties": { "SN": 394774.0, "Year": 2021, "MoDaHrMnSe": 303113558.24000001, "Lat": 39.666, "Lon": 22.267, "Dep": 15, "MMf": 5.0, "sd2": 0.067, "n2": 9, "nMw": 4 }, "geometry": { "type": "Point", "coordinates": [ 22.267, 39.666 ] } },
{ "type": "Feature", "properties": { "SN": 394779.0, "Year": 2021, "MoDaHrMnSe": 303114546.9, "Lat": 39.68, "Lon": 22.249, "Dep": 14, "MMf": 5.3, "sd2": 0.069, "n2": 8, "nMw": 5 }, "geometry": { "type": "Point", "coordinates": [ 22.249, 39.68 ] } },
{ "type": "Feature", "properties": { "SN": 394927.0, "Year": 2021, "MoDaHrMnSe": 303182408.63, "Lat": 39.717, "Lon": 22.103, "Dep": 13, "MMf": 5.1, "sd2": 0.072, "n2": 7, "nMw": 5 }, "geometry": { "type": "Point", "coordinates": [ 22.103, 39.717 ] } },
{ "type": "Feature", "properties": { "SN": 395221.0, "Year": 2021, "MoDaHrMnSe": 304183819.73000002, "Lat": 39.778, "Lon": 22.166, "Dep": 10, "MMf": 6.1, "sd2": 0.069, "n2": 8, "nMw": 3 }, "geometry": { "type": "Point", "coordinates": [ 22.166, 39.778 ] } },
{ "type": "Feature", "properties": { "SN": 395237.0, "Year": 2021, "MoDaHrMnSe": 304192352.3, "Lat": 39.795, "Lon": 21.97, "Dep": 15, "MMf": 5.2, "sd2": 0.077, "n2": 7, "nMw": 1 }, "geometry": { "type": "Point", "coordinates": [ 21.97, 39.795 ] } },
{ "type": "Feature", "properties": { "SN": 396146.0, "Year": 2021, "MoDaHrMnSe": 312125751.75, "Lat": 39.79, "Lon": 22.042, "Dep": 13, "MMf": 5.6, "sd2": 0.066, "n2": 9, "nMw": 5 }, "geometry": { "type": "Point", "coordinates": [ 22.042, 39.79 ] } },
{ "type": "Feature", "properties": { "SN": 397847.0, "Year": 2021, "MoDaHrMnSe": 413202804.12, "Lat": 36.406, "Lon": 27.163, "Dep": 12, "MMf": 5.3, "sd2": 0.067, "n2": 9, "nMw": 7 }, "geometry": { "type": "Point", "coordinates": [ 27.163, 36.406 ] } },
{ "type": "Feature", "properties": { "SN": 398175.0, "Year": 2021, "MoDaHrMnSe": 417170802.19, "Lat": 36.36, "Lon": 27.174, "Dep": 15, "MMf": 5.0, "sd2": 0.063, "n2": 10, "nMw": 6 }, "geometry": { "type": "Point", "coordinates": [ 27.174, 36.36 ] } },
{ "type": "Feature", "properties": { "SN": 401036.0, "Year": 2021, "MoDaHrMnSe": 621221415.49000001, "Lat": 36.334, "Lon": 27.12, "Dep": 19, "MMf": 5.6, "sd2": 0.07, "n2": 8, "nMw": 6 }, "geometry": { "type": "Point", "coordinates": [ 27.12, 36.334 ] } },
{ "type": "Feature", "properties": { "SN": 403545.0, "Year": 2021, "MoDaHrMnSe": 801043128.01, "Lat": 36.367, "Lon": 27.079, "Dep": 18, "MMf": 5.6, "sd2": 0.063, "n2": 10, "nMw": 7 }, "geometry": { "type": "Point", "coordinates": [ 27.079, 36.367 ] } },
{ "type": "Feature", "properties": { "SN": 404140.0, "Year": 2021, "MoDaHrMnSe": 803123818.44000006, "Lat": 36.315, "Lon": 27.109, "Dep": 12, "MMf": 5.2, "sd2": 0.07, "n2": 8, "nMw": 5 }, "geometry": { "type": "Point", "coordinates": [ 27.109, 36.315 ] } },
{ "type": "Feature", "properties": { "SN": 404599.0, "Year": 2021, "MoDaHrMnSe": 807013945.54999995, "Lat": 36.222, "Lon": 27.119, "Dep": 15, "MMf": 5.0, "sd2": 0.065, "n2": 9, "nMw": 4 }, "geometry": { "type": "Point", "coordinates": [ 27.119, 36.222 ] } },
{ "type": "Feature", "properties": { "SN": 405684.0, "Year": 2021, "MoDaHrMnSe": 831110426.24000001, "Lat": 39.0023, "Lon": 30.2035, "Dep": 6, "MMf": 5.1, "sd2": 0.073, "n2": 7, "nMw": 6 }, "geometry": { "type": "Point", "coordinates": [ 30.2035, 39.0023 ] } },
{ "type": "Feature", "properties": { "SN": 406921.0, "Year": 2021, "MoDaHrMnSe": 927061722.54999995, "Lat": 35.192, "Lon": 25.257, "Dep": 15, "MMf": 6.0, "sd2": 0.063, "n2": 9, "nMw": 7 }, "geometry": { "type": "Point", "coordinates": [ 25.257, 35.192 ] } },
{ "type": "Feature", "properties": { "SN": 407158.0, "Year": 2021, "MoDaHrMnSe": 928044809.57000005, "Lat": 35.128, "Lon": 25.224, "Dep": 13, "MMf": 5.3, "sd2": 0.063, "n2": 10, "nMw": 7 }, "geometry": { "type": "Point", "coordinates": [ 25.224, 35.128 ] } },
{ "type": "Feature", "properties": { "SN": 408299.0, "Year": 2021, "MoDaHrMnSe": 1012092406.04, "Lat": 35.044, "Lon": 26.307, "Dep": 30, "MMf": 6.4, "sd2": 0.065, "n2": 8, "nMw": 7 }, "geometry": { "type": "Point", "coordinates": [ 26.307, 35.044 ] } },
{ "type": "Feature", "properties": { "SN": 408699.0, "Year": 2021, "MoDaHrMnSe": 1019053232.7, "Lat": 34.618, "Lon": 28.325, "Dep": 44, "MMf": 5.9, "sd2": 0.068, "n2": 11, "nMw": 6 }, "geometry": { "type": "Point", "coordinates": [ 28.325, 34.618 ] } },
{ "type": "Feature", "properties": { "SN": 409891.0, "Year": 2021, "MoDaHrMnSe": 1108174321.99, "Lat": 37.874, "Lon": 32.1151, "Dep": 11, "MMf": 5.2, "sd2": 0.073, "n2": 7, "nMw": 5 }, "geometry": { "type": "Point", "coordinates": [ 32.1151, 37.874 ] } },
{ "type": "Feature", "properties": { "SN": 410627.0, "Year": 2021, "MoDaHrMnSe": 1130040040.3399999, "Lat": 37.641, "Lon": 26.024, "Dep": 10, "MMf": 5.1, "sd2": 0.067, "n2": 9, "nMw": 6 }, "geometry": { "type": "Point", "coordinates": [ 26.024, 37.641 ] } },
{ "type": "Feature", "properties": { "SN": 411579.0, "Year": 2021, "MoDaHrMnSe": 1226151511.9200001, "Lat": 35.061, "Lon": 26.885, "Dep": 14, "MMf": 5.2, "sd2": 0.064, "n2": 10, "nMw": 6 }, "geometry": { "type": "Point", "coordinates": [ 26.885, 35.061 ] } },
{ "type": "Feature", "properties": { "SN": 411590.0, "Year": 2021, "MoDaHrMnSe": 1226185903.6199999, "Lat": 35.088, "Lon": 26.926, "Dep": 12, "MMf": 5.6, "sd2": 0.063, "n2": 10, "nMw": 6 }, "geometry": { "type": "Point", "coordinates": [ 26.926, 35.088 ] } },
{ "type": "Feature", "properties": { "SN": 412099.0, "Year": 2022, "MoDaHrMnSe": 109214348.62, "Lat": 40.7817, "Lon": 21.3949, "Dep": 21, "MMf": 5.5, "sd2": 0.061, "n2": 11, "nMw": 5 }, "geometry": { "type": "Point", "coordinates": [ 21.3949, 40.7817 ] } },
{ "type": "Feature", "properties": { "SN": 412594.0, "Year": 2022, "MoDaHrMnSe": 116114806.15000001, "Lat": 39.9846, "Lon": 24.3141, "Dep": 11, "MMf": 5.4, "sd2": 0.06, "n2": 11, "nMw": 7 }, "geometry": { "type": "Point", "coordinates": [ 24.3141, 39.9846 ] } },
{ "type": "Feature", "properties": { "SN": 415963.0, "Year": 2022, "MoDaHrMnSe": 422210749.2, "Lat": 43.0641, "Lon": 18.1847, "Dep": 17, "MMf": 5.7, "sd2": 0.071, "n2": 8, "nMw": 4 }, "geometry": { "type": "Point", "coordinates": [ 18.1847, 43.0641 ] } },
{ "type": "Feature", "properties": { "SN": 419373.0, "Year": 2022, "MoDaHrMnSe": 812213151.51, "Lat": 33.6441, "Lon": 19.0079, "Dep": 19, "MMf": 5.2, "sd2": 0.074, "n2": 7, "nMw": 4 }, "geometry": { "type": "Point", "coordinates": [ 19.0079, 33.6441 ] } },
{ "type": "Feature", "properties": { "SN": 419862.0, "Year": 2022, "MoDaHrMnSe": 831101011.54999995, "Lat": 37.5643, "Lon": 26.8349, "Dep": 12, "MMf": 5.3, "sd2": 0.067, "n2": 9, "nMw": 7 }, "geometry": { "type": "Point", "coordinates": [ 26.8349, 37.5643 ] } },
{ "type": "Feature", "properties": { "SN": 420080.0, "Year": 2022, "MoDaHrMnSe": 903041311.26, "Lat": 35.0103, "Lon": 26.4165, "Dep": 12, "MMf": 5.3, "sd2": 0.067, "n2": 9, "nMw": 5 }, "geometry": { "type": "Point", "coordinates": [ 26.4165, 35.0103 ] } },
{ "type": "Feature", "properties": { "SN": 420237.0, "Year": 2022, "MoDaHrMnSe": 908073625.64, "Lat": 37.9864, "Lon": 20.1518, "Dep": 20, "MMf": 5.5, "sd2": 0.07, "n2": 8, "nMw": 5 }, "geometry": { "type": "Point", "coordinates": [ 20.1518, 37.9864 ] } },
{ "type": "Feature", "properties": { "SN": 420977.0, "Year": 2022, "MoDaHrMnSe": 1002040402.46, "Lat": 34.373, "Lon": 26.2435, "Dep": 16, "MMf": 5.3, "sd2": 0.063, "n2": 10, "nMw": 5 }, "geometry": { "type": "Point", "coordinates": [ 26.2435, 34.373 ] } },
{ "type": "Feature", "properties": { "SN": 421187.0, "Year": 2022, "MoDaHrMnSe": 1008220228.66, "Lat": 38.3145, "Lon": 22.5297, "Dep": 18, "MMf": 5.2, "sd2": 0.066, "n2": 9, "nMw": 4 }, "geometry": { "type": "Point", "coordinates": [ 22.5297, 38.3145 ] } },
{ "type": "Feature", "properties": { "SN": 422605.0, "Year": 2022, "MoDaHrMnSe": 1129200639.5, "Lat": 38.2566, "Lon": 24.2502, "Dep": 4, "MMf": 5.0, "sd2": 0.064, "n2": 10, "nMw": 5 }, "geometry": { "type": "Point", "coordinates": [ 24.2502, 38.2566 ] } },
{ "type": "Feature", "properties": { "SN": 423983.0, "Year": 2023, "MoDaHrMnSe": 107015259.67, "Lat": 39.3608, "Lon": 26.2472, "Dep": 20, "MMf": 5.0, "sd2": 0.067, "n2": 9, "nMw": 7 }, "geometry": { "type": "Point", "coordinates": [ 26.2472, 39.3608 ] } },
{ "type": "Feature", "properties": { "SN": 424257.0, "Year": 2023, "MoDaHrMnSe": 110073830.95, "Lat": 39.3721, "Lon": 26.2535, "Dep": 8, "MMf": 5.0, "sd2": 0.067, "n2": 9, "nMw": 7 }, "geometry": { "type": "Point", "coordinates": [ 26.2535, 39.3721 ] } },
{ "type": "Feature", "properties": { "SN": 425046.0, "Year": 2023, "MoDaHrMnSe": 123103753.44, "Lat": 35.0308, "Lon": 14.178, "Dep": 12, "MMf": 5.1, "sd2": 0.081, "n2": 6, "nMw": 3 }, "geometry": { "type": "Point", "coordinates": [ 14.178, 35.0308 ] } },
{ "type": "Feature", "properties": { "SN": 425105.0, "Year": 2023, "MoDaHrMnSe": 124202536.42, "Lat": 34.9144, "Lon": 14.3378, "Dep": 16, "MMf": 5.2, "sd2": 0.081, "n2": 6, "nMw": 3 }, "geometry": { "type": "Point", "coordinates": [ 14.3378, 34.9144 ] } },
{ "type": "Feature", "properties": { "SN": 425129.0, "Year": 2023, "MoDaHrMnSe": 125123706.58, "Lat": 35.7995, "Lon": 28.563, "Dep": 39, "MMf": 5.9, "sd2": 0.07, "n2": 8, "nMw": 7 }, "geometry": { "type": "Point", "coordinates": [ 28.563, 35.7995 ] } },
{ "type": "Feature", "properties": { "SN": 425305.0, "Year": 2023, "MoDaHrMnSe": 130195526.07, "Lat": 34.9386, "Lon": 14.2727, "Dep": 10, "MMf": 5.3, "sd2": 0.081, "n2": 6, "nMw": 3 }, "geometry": { "type": "Point", "coordinates": [ 14.2727, 34.9386 ] } },
{ "type": "Feature", "properties": { "SN": 426125.0, "Year": 2023, "MoDaHrMnSe": 314163559.2, "Lat": 35.53, "Lon": 22.15, "Dep": 10, "MMf": 5.5, "sd2": 0.1, "n2": 1, "nMw": 4 }, "geometry": { "type": "Point", "coordinates": [ 22.15, 35.53 ] } },
{ "type": "Feature", "properties": { "SN": 426129.0, "Year": 2023, "MoDaHrMnSe": 518185851.1, "Lat": 34.99, "Lon": 24.85, "Dep": 11, "MMf": 5.0, "sd2": 0.1, "n2": 1, "nMw": 5 }, "geometry": { "type": "Point", "coordinates": [ 24.85, 34.99 ] } },
{ "type": "Feature", "properties": { "SN": 426130.0, "Year": 2023, "MoDaHrMnSe": 608123353.3, "Lat": 38.6, "Lon": 22.96, "Dep": 10, "MMf": 5.0, "sd2": 0.1, "n2": 1, "nMw": 4 }, "geometry": { "type": "Point", "coordinates": [ 22.96, 38.6 ] } },
{ "type": "Feature", "properties": { "SN": 426132.0, "Year": 2023, "MoDaHrMnSe": 1103062638.3, "Lat": 38.69, "Lon": 23.56, "Dep": 10, "MMf": 5.1, "sd2": 0.1, "n2": 1, "nMw": 4 }, "geometry": { "type": "Point", "coordinates": [ 23.56, 38.69 ] } },
{ "type": "Feature", "properties": { "SN": 426133.0, "Year": 2023, "MoDaHrMnSe": 1204074220.5, "Lat": 40.44, "Lon": 28.85, "Dep": 10, "MMf": 5.1, "sd2": 0.1, "n2": 1, "nMw": 4 }, "geometry": { "type": "Point", "coordinates": [ 28.85, 40.44 ] } },
{ "type": "Feature", "properties": { "SN": 426135.0, "Year": 2024, "MoDaHrMnSe": 127051919.5, "Lat": 37.98, "Lon": 27.12, "Dep": 11, "MMf": 5.1, "sd2": 0.1, "n2": 1, "nMw": 4 }, "geometry": { "type": "Point", "coordinates": [ 27.12, 37.98 ] } },
{ "type": "Feature", "properties": { "SN": 426136.0, "Year": 2024, "MoDaHrMnSe": 314030647.8, "Lat": 42.95, "Lon": 18.69, "Dep": 16, "MMf": 5.5, "sd2": 0.1, "n2": 1, "nMw": 3 }, "geometry": { "type": "Point", "coordinates": [ 18.69, 42.95 ] } },
{ "type": "Feature", "properties": { "SN": 426137.0, "Year": 2024, "MoDaHrMnSe": 329071248.3, "Lat": 37.32, "Lon": 21.28, "Dep": 29, "MMf": 5.9, "sd2": 0.1, "n2": 1, "nMw": 6 }, "geometry": { "type": "Point", "coordinates": [ 21.28, 37.32 ] } },
{ "type": "Feature", "properties": { "SN": 426142.0, "Year": 2024, "MoDaHrMnSe": 706173428.0, "Lat": 37.74, "Lon": 21.19, "Dep": 8, "MMf": 5.0, "sd2": 0.1, "n2": 1, "nMw": 4 }, "geometry": { "type": "Point", "coordinates": [ 21.19, 37.74 ] } },
{ "type": "Feature", "properties": { "SN": 426143.0, "Year": 2024, "MoDaHrMnSe": 721040126.9, "Lat": 34.87, "Lon": 23.24, "Dep": 10, "MMf": 5.4, "sd2": 0.1, "n2": 1, "nMw": 6 }, "geometry": { "type": "Point", "coordinates": [ 23.24, 34.87 ] } },
{ "type": "Feature", "properties": { "SN": 426144.0, "Year": 2024, "MoDaHrMnSe": 807082352.2, "Lat": 34.68, "Lon": 24.9, "Dep": 10, "MMf": 5.1, "sd2": 0.1, "n2": 1, "nMw": 6 }, "geometry": { "type": "Point", "coordinates": [ 24.9, 34.68 ] } },
{ "type": "Feature", "properties": { "SN": 426149.0, "Year": 2024, "MoDaHrMnSe": 1103170352.2, "Lat": 40.13, "Lon": 23.25, "Dep": 9, "MMf": 5.4, "sd2": 0.1, "n2": 1, "nMw": 7 }, "geometry": { "type": "Point", "coordinates": [ 23.25, 40.13 ] } }
]
}
