{
"type": "FeatureCollection",
"name": "S1234567_With_MAGS_Mw_wm_2015_M4dt5_h45_200",
"crs": { "type": "name", "properties": { "name": "urn:ogc:def:crs:OGC:1.3:CRS84" } },
"features": [
{ "type": "Feature", "properties": { "SN": 294888.0, "Year": 2015, "MoDaHrMnSe": 113111909.73, "Lat": 36.368, "Lon": 22.696, "Dep": 60, "MMf": 4.7, "sd2": 0.075, "n2": 9, "nMw": 2 }, "geometry": { "type": "Point", "coordinates": [ 22.696, 36.368 ] } },
{ "type": "Feature", "properties": { "SN": 297047.0, "Year": 2015, "MoDaHrMnSe": 317101118.81, "Lat": 36.354, "Lon": 26.606, "Dep": 115, "MMf": 4.5, "sd2": 0.097, "n2": 5, "nMw": 2 }, "geometry": { "type": "Point", "coordinates": [ 26.606, 36.354 ] } },
{ "type": "Feature", "properties": { "SN": 297472.0, "Year": 2015, "MoDaHrMnSe": 327233455.04000002, "Lat": 35.717, "Lon": 26.609, "Dep": 73, "MMf": 5.2, "sd2": 0.098, "n2": 5, "nMw": 7 }, "geometry": { "type": "Point", "coordinates": [ 26.609, 35.717 ] } },
{ "type": "Feature", "properties": { "SN": 299585.0, "Year": 2015, "MoDaHrMnSe": 510213248.22000003, "Lat": 34.791, "Lon": 25.324, "Dep": 57, "MMf": 4.6, "sd2": 0.079, "n2": 9, "nMw": 1 }, "geometry": { "type": "Point", "coordinates": [ 25.324, 34.791 ] } },
{ "type": "Feature", "properties": { "SN": 301551.0, "Year": 2015, "MoDaHrMnSe": 624083714.76, "Lat": 36.657, "Lon": 27.127, "Dep": 142, "MMf": 4.5, "sd2": 0.105, "n2": 4, "nMw": 1 }, "geometry": { "type": "Point", "coordinates": [ 27.127, 36.657 ] } },
{ "type": "Feature", "properties": { "SN": 301942.0, "Year": 2015, "MoDaHrMnSe": 703031407.46000004, "Lat": 36.4673, "Lon": 28.3565, "Dep": 60, "MMf": 4.6, "sd2": 0.265, "n2": 2, "nMw": 0 }, "geometry": { "type": "Point", "coordinates": [ 28.3565, 36.4673 ] } },
{ "type": "Feature", "properties": { "SN": 302864.0, "Year": 2015, "MoDaHrMnSe": 724095837.73000002, "Lat": 36.666, "Lon": 26.841, "Dep": 142, "MMf": 5.1, "sd2": 0.097, "n2": 5, "nMw": 2 }, "geometry": { "type": "Point", "coordinates": [ 26.841, 36.666 ] } },
{ "type": "Feature", "properties": { "SN": 303405.0, "Year": 2015, "MoDaHrMnSe": 809213922.44000006, "Lat": 38.153, "Lon": 21.934, "Dep": 59, "MMf": 4.5, "sd2": 0.069, "n2": 10, "nMw": 1 }, "geometry": { "type": "Point", "coordinates": [ 21.934, 38.153 ] } },
{ "type": "Feature", "properties": { "SN": 310220.0, "Year": 2016, "MoDaHrMnSe": 119190443.02, "Lat": 36.654, "Lon": 26.951, "Dep": 143, "MMf": 4.5, "sd2": 0.097, "n2": 5, "nMw": 2 }, "geometry": { "type": "Point", "coordinates": [ 26.951, 36.654 ] } },
{ "type": "Feature", "properties": { "SN": 311594.0, "Year": 2016, "MoDaHrMnSe": 301235419.95999998, "Lat": 34.4591, "Lon": 25.4449, "Dep": 77, "MMf": 4.5, "sd2": 0.147, "n2": 4, "nMw": 0 }, "geometry": { "type": "Point", "coordinates": [ 25.4449, 34.4591 ] } },
{ "type": "Feature", "properties": { "SN": 318210.0, "Year": 2016, "MoDaHrMnSe": 909172421.40999997, "Lat": 36.924, "Lon": 25.603, "Dep": 174, "MMf": 4.6, "sd2": 0.177, "n2": 3, "nMw": 0 }, "geometry": { "type": "Point", "coordinates": [ 25.603, 36.924 ] } },
{ "type": "Feature", "properties": { "SN": 319002.0, "Year": 2016, "MoDaHrMnSe": 927205708.46000004, "Lat": 36.401, "Lon": 27.617, "Dep": 88, "MMf": 5.2, "sd2": 0.098, "n2": 5, "nMw": 7 }, "geometry": { "type": "Point", "coordinates": [ 27.617, 36.401 ] } },
{ "type": "Feature", "properties": { "SN": 322100.0, "Year": 2016, "MoDaHrMnSe": 1220060344.1300001, "Lat": 36.6, "Lon": 26.925, "Dep": 127, "MMf": 5.3, "sd2": 0.098, "n2": 5, "nMw": 6 }, "geometry": { "type": "Point", "coordinates": [ 26.925, 36.6 ] } },
{ "type": "Feature", "properties": { "SN": 323332.0, "Year": 2017, "MoDaHrMnSe": 125185052.47, "Lat": 35.412, "Lon": 26.439, "Dep": 63, "MMf": 5.3, "sd2": 0.098, "n2": 5, "nMw": 5 }, "geometry": { "type": "Point", "coordinates": [ 26.439, 35.412 ] } },
{ "type": "Feature", "properties": { "SN": 327734.0, "Year": 2017, "MoDaHrMnSe": 330051227.79000002, "Lat": 34.866, "Lon": 24.881, "Dep": 56, "MMf": 4.5, "sd2": 0.073, "n2": 9, "nMw": 1 }, "geometry": { "type": "Point", "coordinates": [ 24.881, 34.866 ] } },
{ "type": "Feature", "properties": { "SN": 331538.0, "Year": 2017, "MoDaHrMnSe": 616234243.99000001, "Lat": 36.782, "Lon": 23.024, "Dep": 68, "MMf": 4.6, "sd2": 0.097, "n2": 5, "nMw": 2 }, "geometry": { "type": "Point", "coordinates": [ 23.024, 36.782 ] } },
{ "type": "Feature", "properties": { "SN": 334533.0, "Year": 2017, "MoDaHrMnSe": 722172546.21000004, "Lat": 36.538, "Lon": 26.786, "Dep": 140, "MMf": 4.7, "sd2": 0.097, "n2": 5, "nMw": 4 }, "geometry": { "type": "Point", "coordinates": [ 26.786, 36.538 ] } },
{ "type": "Feature", "properties": { "SN": 337225.0, "Year": 2017, "MoDaHrMnSe": 816155329.16999996, "Lat": 36.541, "Lon": 24.756, "Dep": 108, "MMf": 4.8, "sd2": 0.097, "n2": 5, "nMw": 3 }, "geometry": { "type": "Point", "coordinates": [ 24.756, 36.541 ] } },
{ "type": "Feature", "properties": { "SN": 337989.0, "Year": 2017, "MoDaHrMnSe": 901164834.46000004, "Lat": 36.003, "Lon": 28.008, "Dep": 89, "MMf": 5.0, "sd2": 0.097, "n2": 5, "nMw": 3 }, "geometry": { "type": "Point", "coordinates": [ 28.008, 36.003 ] } },
{ "type": "Feature", "properties": { "SN": 340303.0, "Year": 2017, "MoDaHrMnSe": 1107024032.5899999, "Lat": 36.282, "Lon": 28.488, "Dep": 69, "MMf": 4.6, "sd2": 0.097, "n2": 5, "nMw": 3 }, "geometry": { "type": "Point", "coordinates": [ 28.488, 36.282 ] } },
{ "type": "Feature", "properties": { "SN": 344978.0, "Year": 2018, "MoDaHrMnSe": 502211607.26, "Lat": 35.754, "Lon": 28.407, "Dep": 60, "MMf": 4.5, "sd2": 0.097, "n2": 5, "nMw": 1 }, "geometry": { "type": "Point", "coordinates": [ 28.407, 35.754 ] } },
{ "type": "Feature", "properties": { "SN": 348877.0, "Year": 2018, "MoDaHrMnSe": 930131556.5, "Lat": 35.018, "Lon": 26.227, "Dep": 72, "MMf": 4.7, "sd2": 0.097, "n2": 5, "nMw": 1 }, "geometry": { "type": "Point", "coordinates": [ 26.227, 35.018 ] } },
{ "type": "Feature", "properties": { "SN": 356833.0, "Year": 2019, "MoDaHrMnSe": 122201206.57, "Lat": 36.739, "Lon": 28.092, "Dep": 75, "MMf": 4.7, "sd2": 0.177, "n2": 3, "nMw": 0 }, "geometry": { "type": "Point", "coordinates": [ 28.092, 36.739 ] } },
{ "type": "Feature", "properties": { "SN": 356908.0, "Year": 2019, "MoDaHrMnSe": 124143054.6, "Lat": 36.017, "Lon": 28.103, "Dep": 57, "MMf": 5.2, "sd2": 0.076, "n2": 9, "nMw": 6 }, "geometry": { "type": "Point", "coordinates": [ 28.103, 36.017 ] } },
{ "type": "Feature", "properties": { "SN": 366703.0, "Year": 2019, "MoDaHrMnSe": 731044003.65999997, "Lat": 35.351, "Lon": 24.958, "Dep": 77, "MMf": 4.9, "sd2": 0.097, "n2": 5, "nMw": 3 }, "geometry": { "type": "Point", "coordinates": [ 24.958, 35.351 ] } },
{ "type": "Feature", "properties": { "SN": 369482.0, "Year": 2019, "MoDaHrMnSe": 1005145137.72, "Lat": 35.922, "Lon": 28.082, "Dep": 78, "MMf": 4.6, "sd2": 0.147, "n2": 4, "nMw": 0 }, "geometry": { "type": "Point", "coordinates": [ 28.082, 35.922 ] } },
{ "type": "Feature", "properties": { "SN": 371556.0, "Year": 2019, "MoDaHrMnSe": 1127072341.8599999, "Lat": 35.702, "Lon": 23.264, "Dep": 70, "MMf": 6.1, "sd2": 0.098, "n2": 5, "nMw": 5 }, "geometry": { "type": "Point", "coordinates": [ 23.264, 35.702 ] } },
{ "type": "Feature", "properties": { "SN": 372555.0, "Year": 2019, "MoDaHrMnSe": 1210215828.9200001, "Lat": 35.394, "Lon": 26.506, "Dep": 63, "MMf": 5.4, "sd2": 0.098, "n2": 5, "nMw": 6 }, "geometry": { "type": "Point", "coordinates": [ 26.506, 35.394 ] } },
{ "type": "Feature", "properties": { "SN": 379162.0, "Year": 2020, "MoDaHrMnSe": 424131604.14999998, "Lat": 35.855, "Lon": 27.934, "Dep": 65, "MMf": 4.7, "sd2": 0.074, "n2": 10, "nMw": 2 }, "geometry": { "type": "Point", "coordinates": [ 27.934, 35.855 ] } },
{ "type": "Feature", "properties": { "SN": 382559.0, "Year": 2020, "MoDaHrMnSe": 628174328.92999995, "Lat": 36.655, "Lon": 28.259, "Dep": 70, "MMf": 5.5, "sd2": 0.098, "n2": 5, "nMw": 6 }, "geometry": { "type": "Point", "coordinates": [ 28.259, 36.655 ] } },
{ "type": "Feature", "properties": { "SN": 382594.0, "Year": 2020, "MoDaHrMnSe": 629040624.51999998, "Lat": 36.619, "Lon": 28.312, "Dep": 76, "MMf": 4.6, "sd2": 0.097, "n2": 5, "nMw": 1 }, "geometry": { "type": "Point", "coordinates": [ 28.312, 36.619 ] } },
{ "type": "Feature", "properties": { "SN": 384256.0, "Year": 2020, "MoDaHrMnSe": 817072702.24000001, "Lat": 36.884, "Lon": 23.786, "Dep": 98, "MMf": 5.1, "sd2": 0.097, "n2": 5, "nMw": 3 }, "geometry": { "type": "Point", "coordinates": [ 23.786, 36.884 ] } },
{ "type": "Feature", "properties": { "SN": 385079.0, "Year": 2020, "MoDaHrMnSe": 918162818.48000002, "Lat": 34.968, "Lon": 25.308, "Dep": 52, "MMf": 5.9, "sd2": 0.075, "n2": 8, "nMw": 5 }, "geometry": { "type": "Point", "coordinates": [ 25.308, 34.968 ] } },
{ "type": "Feature", "properties": { "SN": 385490.0, "Year": 2020, "MoDaHrMnSe": 1001110537.9299999, "Lat": 36.694, "Lon": 26.819, "Dep": 157, "MMf": 4.8, "sd2": 0.105, "n2": 4, "nMw": 1 }, "geometry": { "type": "Point", "coordinates": [ 26.819, 36.694 ] } },
{ "type": "Feature", "properties": { "SN": 397274.0, "Year": 2021, "MoDaHrMnSe": 401123339.81, "Lat": 36.192, "Lon": 26.551, "Dep": 112, "MMf": 4.5, "sd2": 0.177, "n2": 3, "nMw": 0 }, "geometry": { "type": "Point", "coordinates": [ 26.551, 36.192 ] } },
{ "type": "Feature", "properties": { "SN": 400331.0, "Year": 2021, "MoDaHrMnSe": 603150613.01999998, "Lat": 38.14, "Lon": 21.968, "Dep": 60, "MMf": 4.6, "sd2": 0.084, "n2": 7, "nMw": 2 }, "geometry": { "type": "Point", "coordinates": [ 21.968, 38.14 ] } },
{ "type": "Feature", "properties": { "SN": 406010.0, "Year": 2021, "MoDaHrMnSe": 907111500.66999996, "Lat": 36.1015, "Lon": 31.0175, "Dep": 56, "MMf": 4.6, "sd2": 0.139, "n2": 5, "nMw": 0 }, "geometry": { "type": "Point", "coordinates": [ 31.0175, 36.1015 ] } },
{ "type": "Feature", "properties": { "SN": 411307.0, "Year": 2021, "MoDaHrMnSe": 1218051639.3099999, "Lat": 36.065, "Lon": 23.19, "Dep": 65, "MMf": 5.0, "sd2": 0.097, "n2": 5, "nMw": 5 }, "geometry": { "type": "Point", "coordinates": [ 23.19, 36.065 ] } },
{ "type": "Feature", "properties": { "SN": 411747.0, "Year": 2021, "MoDaHrMnSe": 1229050809.7, "Lat": 34.838, "Lon": 25.191, "Dep": 69, "MMf": 5.7, "sd2": 0.098, "n2": 5, "nMw": 5 }, "geometry": { "type": "Point", "coordinates": [ 25.191, 34.838 ] } },
{ "type": "Feature", "properties": { "SN": 411769.0, "Year": 2021, "MoDaHrMnSe": 1229164708.6099999, "Lat": 34.787, "Lon": 25.167, "Dep": 68, "MMf": 5.0, "sd2": 0.098, "n2": 5, "nMw": 5 }, "geometry": { "type": "Point", "coordinates": [ 25.167, 34.787 ] } },
{ "type": "Feature", "properties": { "SN": 416080.0, "Year": 2022, "MoDaHrMnSe": 427015153.41000003, "Lat": 35.989, "Lon": 22.6233, "Dep": 61, "MMf": 4.9, "sd2": 0.097, "n2": 5, "nMw": 4 }, "geometry": { "type": "Point", "coordinates": [ 22.6233, 35.989 ] } },
{ "type": "Feature", "properties": { "SN": 417764.0, "Year": 2022, "MoDaHrMnSe": 619232432.97000003, "Lat": 35.2379, "Lon": 27.186, "Dep": 45, "MMf": 4.9, "sd2": 0.069, "n2": 10, "nMw": 4 }, "geometry": { "type": "Point", "coordinates": [ 27.186, 35.2379 ] } },
{ "type": "Feature", "properties": { "SN": 421865.0, "Year": 2022, "MoDaHrMnSe": 1102174123.6300001, "Lat": 35.9701, "Lon": 30.8502, "Dep": 56, "MMf": 4.9, "sd2": 0.078, "n2": 8, "nMw": 5 }, "geometry": { "type": "Point", "coordinates": [ 30.8502, 35.9701 ] } },
{ "type": "Feature", "properties": { "SN": 422341.0, "Year": 2022, "MoDaHrMnSe": 1120232459.3199999, "Lat": 35.8219, "Lon": 26.4285, "Dep": 71, "MMf": 5.5, "sd2": 0.098, "n2": 5, "nMw": 6 }, "geometry": { "type": "Point", "coordinates": [ 26.4285, 35.8219 ] } },
{ "type": "Feature", "properties": { "SN": 426127.0, "Year": 2023, "MoDaHrMnSe": 331160517.3, "Lat": 37.27, "Lon": 24.11, "Dep": 129, "MMf": 4.8, "sd2": 0.1, "n2": 1, "nMw": 3 }, "geometry": { "type": "Point", "coordinates": [ 24.11, 37.27 ] } },
{ "type": "Feature", "properties": { "SN": 426128.0, "Year": 2023, "MoDaHrMnSe": 426200034.4, "Lat": 36.43, "Lon": 26.31, "Dep": 112, "MMf": 5.2, "sd2": 0.1, "n2": 1, "nMw": 5 }, "geometry": { "type": "Point", "coordinates": [ 26.31, 36.43 ] } },
{ "type": "Feature", "properties": { "SN": 426138.0, "Year": 2024, "MoDaHrMnSe": 612191910.9, "Lat": 35.97, "Lon": 27.95, "Dep": 61, "MMf": 4.9, "sd2": 0.1, "n2": 1, "nMw": 4 }, "geometry": { "type": "Point", "coordinates": [ 27.95, 35.97 ] } },
{ "type": "Feature", "properties": { "SN": 426147.0, "Year": 2024, "MoDaHrMnSe": 828162956.0, "Lat": 34.78, "Lon": 24.22, "Dep": 45, "MMf": 5.2, "sd2": 0.1, "n2": 1, "nMw": 3 }, "geometry": { "type": "Point", "coordinates": [ 24.22, 34.78 ] } }
]
}
