{
"type": "FeatureCollection",
"name": "VAM16_vanilla",
"crs": { "type": "name", "properties": { "name": "urn:ogc:def:crs:OGC:1.3:CRS84" } },
"features": [
{ "type": "Feature", "properties": { "Id": 0, "Shape_Leng": 4.6552407455299996, "Shape_Area": 1.1037500007100001, "IDAS": 1 }, "geometry": { "type": "Polygon", "coordinates": [ [ [ 17.900000000299826, 42.499999999700265 ], [ 18.5, 42.8 ], [ 19.700000000299838, 42.150000000399757 ], [ 19.800000000099999, 41.750000000299849 ], [ 19.149999999600368, 41.599999999700287 ], [ 17.900000000299826, 42.499999999700265 ] ] ] } },
{ "type": "Feature", "properties": { "Id": 0, "Shape_Leng": 4.260873985, "Shape_Area": 1.14625000052, "IDAS": 2 }, "geometry": { "type": "Polygon", "coordinates": [ [ [ 19.149999999600368, 41.599999999700287 ], [ 19.800000000099999, 41.750000000299849 ], [ 20.250000000099988, 41.0 ], [ 20.250000000099988, 40.649999999800229 ], [ 18.999999999900126, 40.500000000099988 ], [ 19.149999999600368, 41.599999999700287 ] ] ] } },
{ "type": "Feature", "properties": { "Id": 0, "Shape_Leng": 4.0729740520200002, "Shape_Area": 0.93250000016199996, "IDAS": 3 }, "geometry": { "type": "Polygon", "coordinates": [ [ [ 18.999999999900126, 40.500000000099988 ], [ 20.250000000099988, 40.649999999800229 ], [ 20.600000000299815, 40.000000000199918 ], [ 19.4, 39.749999999800195 ], [ 18.999999999900126, 40.500000000099988 ] ] ] } },
{ "type": "Feature", "properties": { "Id": 0, "Shape_Leng": 4.7990759267099996, "Shape_Area": 1.38255000027, "IDAS": 4 }, "geometry": { "type": "Polygon", "coordinates": [ [ [ 19.4, 39.749999999800195 ], [ 20.600000000299815, 40.000000000199918 ], [ 20.640000000399766, 39.950000000299838 ], [ 21.23000000029981, 38.970000000099958 ], [ 20.899999999700299, 38.93 ], [ 20.259999999900117, 38.809999999700267 ], [ 20.179999999700271, 38.780000000299822 ], [ 19.650000000399757, 39.150000000099965 ], [ 19.4, 39.749999999800195 ] ] ] } },
{ "type": "Feature", "properties": { "Id": 0, "Shape_Leng": 5.4074295001600001, "Shape_Area": 1.2957500004, "IDAS": 5 }, "geometry": { "type": "Polygon", "coordinates": [ [ [ 18.999999999900126, 40.500000000099988 ], [ 19.4, 39.749999999800195 ], [ 19.650000000399757, 39.150000000099965 ], [ 20.179999999700271, 38.780000000299822 ], [ 19.300000000199873, 38.499999999600334 ], [ 18.549999999900137, 39.600000000099953 ], [ 18.999999999900126, 40.500000000099988 ] ] ] } },
{ "type": "Feature", "properties": { "Id": 0, "Shape_Leng": 4.1579623761200004, "Shape_Area": 0.77274999917800002, "IDAS": 6 }, "geometry": { "type": "Polygon", "coordinates": [ [ [ 19.499999999800195, 42.999999999600334 ], [ 20.150000000299826, 42.499999999700265 ], [ 20.280000000399752, 42.150000000399757 ], [ 19.700000000299838, 42.150000000399757 ], [ 18.5, 42.8 ], [ 19.499999999800195, 42.999999999600334 ] ] ] } },
{ "type": "Feature", "properties": { "Id": 0, "Shape_Leng": 3.59534907317, "Shape_Area": 0.76774999998899995, "IDAS": 7 }, "geometry": { "type": "Polygon", "coordinates": [ [ [ 19.700000000299838, 42.150000000399757 ], [ 20.280000000399752, 42.150000000399757 ], [ 20.75, 41.549999999800207 ], [ 20.849999999800218, 41.250000000399723 ], [ 20.250000000099988, 41.0 ], [ 19.800000000099999, 41.750000000299849 ], [ 19.700000000299838, 42.150000000399757 ] ] ] } },
{ "type": "Feature", "properties": { "Id": 0, "Shape_Leng": 3.3060375503600001, "Shape_Area": 0.70875000024699997, "IDAS": 8 }, "geometry": { "type": "Polygon", "coordinates": [ [ [ 20.250000000099988, 41.0 ], [ 20.849999999800218, 41.250000000399723 ], [ 21.050000000299804, 40.749999999600334 ], [ 21.000000000399723, 40.149999999900103 ], [ 20.600000000299815, 40.000000000199918 ], [ 20.250000000099988, 40.649999999800229 ], [ 20.250000000099988, 41.0 ] ] ] } },
{ "type": "Feature", "properties": { "Id": 0, "Shape_Leng": 3.1472487978800001, "Shape_Area": 0.47649999966500001, "IDAS": 9 }, "geometry": { "type": "Polygon", "coordinates": [ [ [ 20.600000000299815, 40.000000000199918 ], [ 21.000000000399723, 40.149999999900103 ], [ 21.249999999900126, 39.699999999900115 ], [ 21.500000000299849, 39.299999999800207 ], [ 21.450000000399768, 39.000000000399723 ], [ 21.23000000029981, 38.970000000099958 ], [ 20.600000000299815, 40.000000000199918 ] ] ] } },
{ "type": "Feature", "properties": { "Id": 0, "Shape_Leng": 5.7067453754499997, "Shape_Area": 1.41429999921, "IDAS": 10 }, "geometry": { "type": "Polygon", "coordinates": [ [ [ 20.259999999900117, 38.809999999700267 ], [ 20.200000000199907, 38.539999999700285 ], [ 19.599999999600357, 37.800000000099999 ], [ 19.4, 37.4 ], [ 19.099999999700287, 36.800000000299804 ], [ 18.400000000199896, 37.350000000099953 ], [ 19.300000000199873, 38.499999999600334 ], [ 19.454164539961596, 38.549052353283514 ], [ 19.650749982825516, 38.611602267330852 ], [ 19.896458216073881, 38.689782159319236 ], [ 20.179999999700271, 38.780000000299822 ], [ 20.259999999900117, 38.809999999700267 ] ] ] } },
{ "type": "Feature", "properties": { "Id": 0, "Shape_Leng": 1.88928393561, "Shape_Area": 0.18810000006300001, "IDAS": 11 }, "geometry": { "type": "Polygon", "coordinates": [ [ [ 20.259999999900117, 38.809999999700267 ], [ 20.899999999700299, 38.93 ], [ 20.740000000199927, 38.539999999700285 ], [ 20.200000000199907, 38.539999999700285 ], [ 20.259999999900117, 38.809999999700267 ] ] ] } },
{ "type": "Feature", "properties": { "Id": 0, "Shape_Leng": 1.6268573986599999, "Shape_Area": 0.15575000029899999, "IDAS": 12 }, "geometry": { "type": "Polygon", "coordinates": [ [ [ 20.899999999700299, 38.93 ], [ 21.23000000029981, 38.970000000099958 ], [ 21.18000000039973, 38.539999999700285 ], [ 20.740000000199927, 38.539999999700285 ], [ 20.899999999700299, 38.93 ] ] ] } },
{ "type": "Feature", "properties": { "Id": 0, "Shape_Leng": 3.2271435208199999, "Shape_Area": 0.56130000003000002, "IDAS": 13 }, "geometry": { "type": "Polygon", "coordinates": [ [ [ 20.200000000199907, 38.539999999700285 ], [ 20.740000000199927, 38.539999999700285 ], [ 20.399999999800173, 37.899999999900103 ], [ 20.049999999600345, 37.549999999700276 ], [ 19.599999999600357, 37.800000000099999 ], [ 20.200000000199907, 38.539999999700285 ] ] ] } },
{ "type": "Feature", "properties": { "Id": 0, "Shape_Leng": 2.2585347539199998, "Shape_Area": 0.24580000002300001, "IDAS": 14 }, "geometry": { "type": "Polygon", "coordinates": [ [ [ 20.740000000199927, 38.539999999700285 ], [ 21.18000000039973, 38.539999999700285 ], [ 20.849999999800218, 37.999999999700265 ], [ 20.399999999800173, 37.899999999900103 ], [ 20.740000000199927, 38.539999999700285 ] ] ] } },
{ "type": "Feature", "properties": { "Id": 0, "Shape_Leng": 5.4148013550299998, "Shape_Area": 1.3100000006500001, "IDAS": 15 }, "geometry": { "type": "Polygon", "coordinates": [ [ [ 19.4, 37.4 ], [ 21.000000000399723, 35.900000000299826 ], [ 20.499999999600334, 35.500000000199918 ], [ 19.099999999700287, 36.800000000299804 ], [ 19.4, 37.4 ] ] ] } },
{ "type": "Feature", "properties": { "Id": 0, "Shape_Leng": 5.5970749460300002, "Shape_Area": 1.4102499987499999, "IDAS": 16 }, "geometry": { "type": "Polygon", "coordinates": [ [ [ 19.599999999600357, 37.800000000099999 ], [ 20.049999999600345, 37.549999999700276 ], [ 20.75, 37.099999999700287 ], [ 21.399999999600368, 36.419999999800211 ], [ 21.150000000099965, 36.000000000099988 ], [ 21.000000000399723, 35.900000000299826 ], [ 19.4, 37.4 ], [ 19.599999999600357, 37.800000000099999 ] ] ] } },
{ "type": "Feature", "properties": { "Id": 0, "Shape_Leng": 3.2642247496399999, "Shape_Area": 0.66140000013400002, "IDAS": 17 }, "geometry": { "type": "Polygon", "coordinates": [ [ [ 20.849999999800218, 37.999999999700265 ], [ 21.219999999600361, 37.629999999900122 ], [ 21.38, 37.499999999800195 ], [ 21.1199999998002, 37.319999999800189 ], [ 20.75, 37.099999999700287 ], [ 20.049999999600345, 37.549999999700276 ], [ 20.399999999800173, 37.899999999900103 ], [ 20.849999999800218, 37.999999999700265 ] ] ] } },
{ "type": "Feature", "properties": { "Id": 0, "Shape_Leng": 3.3694019121799998, "Shape_Area": 0.50875000007100002, "IDAS": 18 }, "geometry": { "type": "Polygon", "coordinates": [ [ [ 20.75, 37.099999999700287 ], [ 21.1199999998002, 37.319999999800189 ], [ 21.550000000199873, 37.149999999600368 ], [ 21.399999999600368, 37.049999999800207 ], [ 22.000000000199918, 36.750000000399723 ], [ 21.399999999600368, 36.419999999800211 ], [ 20.75, 37.099999999700287 ] ] ] } },
{ "type": "Feature", "properties": { "Id": 0, "Shape_Leng": 9.6216171920600004, "Shape_Area": 3.27250000073, "IDAS": 19 }, "geometry": { "type": "Polygon", "coordinates": [ [ [ 21.150000000099965, 36.000000000099988 ], [ 22.500000000099988, 34.899999999600368 ], [ 24.250000000199918, 33.700000000199907 ], [ 23.599999999700287, 32.999999999800195 ], [ 20.499999999600334, 35.500000000199918 ], [ 20.547215859424398, 35.537772687159816 ], [ 20.597010433484741, 35.577608346947727 ], [ 20.624693431256901, 35.599754744985546 ], [ 20.66752372913686, 35.634018983289479 ], [ 20.715925448500684, 35.672740358780572 ], [ 20.748657546008985, 35.698926036607361 ], [ 20.776514650730576, 35.72121172074435 ], [ 20.813947634076101, 35.75115810796035 ], [ 20.844068129140908, 35.775254503292729 ], [ 20.870184164367743, 35.796147330934616 ], [ 20.896996627392468, 35.817597302073864 ], [ 20.920152845377572, 35.836122275922321 ], [ 20.944701918958458, 35.855761534966916 ], [ 20.971514381983184, 35.877211505206844 ], [ 21.000000000399723, 35.900000000299826 ], [ 21.0324395097756, 35.921626340183479 ], [ 21.060773399073184, 35.940515599715184 ], [ 21.097343884912391, 35.964895922708706 ], [ 21.150000000099965, 36.000000000099988 ] ] ] } },
{ "type": "Feature", "properties": { "Id": 0, "Shape_Leng": 5.6922462326699996, "Shape_Area": 1.7460000006800001, "IDAS": 20 }, "geometry": { "type": "Polygon", "coordinates": [ [ [ 22.000000000199918, 36.750000000399723 ], [ 22.500000000099988, 36.000000000099988 ], [ 23.250000000399723, 35.6 ], [ 22.500000000099988, 34.899999999600368 ], [ 21.916687792407743, 35.375291428456705 ], [ 21.150000000099965, 36.000000000099988 ], [ 21.275066886028014, 36.210112367991428 ], [ 21.399999999600368, 36.419999999800211 ], [ 21.687984252471324, 36.578391338789288 ], [ 22.000000000199918, 36.750000000399723 ] ] ] } },
{ "type": "Feature", "properties": { "Id": 0, "Shape_Leng": 6.2276242659200003, "Shape_Area": 2.0684999997800002, "IDAS": 21 }, "geometry": { "type": "Polygon", "coordinates": [ [ [ 22.500000000099988, 34.899999999600368 ], [ 23.250000000399723, 35.6 ], [ 23.850000000099953, 35.15 ], [ 24.300000000099999, 34.870000000199923 ], [ 24.949999999700253, 34.449999999600379 ], [ 24.250000000199918, 33.700000000199907 ], [ 22.500000000099988, 34.899999999600368 ] ] ] } },
{ "type": "Feature", "properties": { "Id": 0, "Shape_Leng": 8.3811628860899994, "Shape_Area": 2.2400000012099999, "IDAS": 22 }, "geometry": { "type": "Polygon", "coordinates": [ [ [ 24.250000000199918, 33.700000000199907 ], [ 26.749999999700265, 33.700000000199907 ], [ 27.5, 32.999999999800195 ], [ 23.599999999700287, 32.999999999800195 ], [ 24.250000000199918, 33.700000000199907 ] ] ] } },
{ "type": "Feature", "properties": { "Id": 0, "Shape_Leng": 5.61699949588, "Shape_Area": 1.3049999990100001, "IDAS": 23 }, "geometry": { "type": "Polygon", "coordinates": [ [ [ 24.949999999700253, 34.449999999600379 ], [ 26.050000000199873, 34.399999999700299 ], [ 26.749999999700265, 33.700000000199907 ], [ 24.250000000199918, 33.700000000199907 ], [ 24.949999999700253, 34.449999999600379 ] ] ] } },
{ "type": "Feature", "properties": { "Id": 0, "Shape_Leng": 5.1353727613900002, "Shape_Area": 1.3887499995100001, "IDAS": 24 }, "geometry": { "type": "Polygon", "coordinates": [ [ [ 26.900000000299826, 34.899999999600368 ], [ 27.300000000399734, 35.450000000299838 ], [ 27.900000000099965, 34.749999999900126 ], [ 26.749999999700265, 33.700000000199907 ], [ 26.050000000199873, 34.399999999700299 ], [ 26.900000000299826, 34.899999999600368 ] ] ] } },
{ "type": "Feature", "properties": { "Id": 0, "Shape_Leng": 9.8745815811999993, "Shape_Area": 4.38000000151, "IDAS": 25 }, "geometry": { "type": "Polygon", "coordinates": [ [ [ 28.650000000399757, 36.05 ], [ 30.000000000399723, 35.500000000199918 ], [ 30.500000000299849, 35.349999999600357 ], [ 27.5, 32.999999999800195 ], [ 26.749999999700265, 33.700000000199907 ], [ 27.900000000099965, 34.749999999900126 ], [ 28.650000000399757, 36.05 ] ] ] } },
{ "type": "Feature", "properties": { "Id": 0, "Shape_Leng": 5.4223562039099997, "Shape_Area": 1.40499999987, "IDAS": 26 }, "geometry": { "type": "Polygon", "coordinates": [ [ [ 27.649999999700299, 36.249999999600334 ], [ 28.750000000199918, 36.699999999600379 ], [ 28.949999999800184, 36.599999999800218 ], [ 28.650000000399757, 36.05 ], [ 27.900000000099965, 34.749999999900126 ], [ 27.300000000399734, 35.450000000299838 ], [ 27.649999999700299, 35.749999999700265 ], [ 27.649999999700299, 36.249999999600334 ] ] ] } },
{ "type": "Feature", "properties": { "Id": 0, "Shape_Leng": 5.622580172, "Shape_Area": 1.4762499998600001, "IDAS": 27 }, "geometry": { "type": "Polygon", "coordinates": [ [ [ 31.000000000199918, 36.099999999900149 ], [ 30.500000000299849, 35.349999999600357 ], [ 30.000000000399723, 35.500000000199918 ], [ 28.650000000399757, 36.05 ], [ 28.949999999800184, 36.599999999800218 ], [ 29.499999999600334, 36.400000000199896 ], [ 31.000000000199918, 36.099999999900149 ] ] ] } },
{ "type": "Feature", "properties": { "Id": 0, "Shape_Leng": 5.2368033681800004, "Shape_Area": 1.3352500001500001, "IDAS": 28 }, "geometry": { "type": "Polygon", "coordinates": [ [ [ 22.000000000199918, 42.700000000199907 ], [ 22.500000000099988, 41.999999999800195 ], [ 21.600000000099953, 41.80000000019993 ], [ 21.2, 41.700000000399768 ], [ 20.75, 41.549999999800207 ], [ 20.280000000399752, 42.150000000399757 ], [ 22.000000000199918, 42.700000000199907 ] ] ] } },
{ "type": "Feature", "properties": { "Id": 0, "Shape_Leng": 4.05141315942, "Shape_Area": 0.9462499995, "IDAS": 29 }, "geometry": { "type": "Polygon", "coordinates": [ [ [ 23.149999999700299, 42.999999999600334 ], [ 23.599999999700287, 42.250000000199918 ], [ 22.500000000099988, 41.999999999800195 ], [ 22.000000000199918, 42.700000000199907 ], [ 23.149999999700299, 42.999999999600334 ] ] ] } },
{ "type": "Feature", "properties": { "Id": 0, "Shape_Leng": 2.62930350799, "Shape_Area": 0.40625000035499997, "IDAS": 30 }, "geometry": { "type": "Polygon", "coordinates": [ [ [ 21.2, 41.700000000399768 ], [ 21.500000000299849, 40.950000000099976 ], [ 21.050000000299804, 40.749999999600334 ], [ 20.849999999800218, 41.250000000399723 ], [ 20.75, 41.549999999800207 ], [ 21.2, 41.700000000399768 ] ] ] } },
{ "type": "Feature", "properties": { "Id": 0, "Shape_Leng": 2.5408027635099999, "Shape_Area": 0.38399999983200001, "IDAS": 31 }, "geometry": { "type": "Polygon", "coordinates": [ [ [ 21.600000000099953, 41.80000000019993 ], [ 21.849999999600357, 41.45 ], [ 22.000000000199918, 41.120000000299854 ], [ 21.500000000299849, 40.950000000099976 ], [ 21.2, 41.700000000399768 ], [ 21.600000000099953, 41.80000000019993 ] ] ] } },
{ "type": "Feature", "properties": { "Id": 0, "Shape_Leng": 4.9808362662299999, "Shape_Area": 1.05999999988, "IDAS": 32 }, "geometry": { "type": "Polygon", "coordinates": [ [ [ 23.599999999700287, 42.250000000199918 ], [ 23.599999999700287, 41.499999999900126 ], [ 21.849999999600357, 41.45 ], [ 21.600000000099953, 41.80000000019993 ], [ 22.500000000099988, 41.999999999800195 ], [ 23.599999999700287, 42.250000000199918 ] ] ] } },
{ "type": "Feature", "properties": { "Id": 0, "Shape_Leng": 3.92337232062, "Shape_Area": 0.45849999962, "IDAS": 33 }, "geometry": { "type": "Polygon", "coordinates": [ [ [ 23.599999999700287, 41.499999999900126 ], [ 23.599999999700287, 41.300000000299804 ], [ 22.599999999900149, 41.18 ], [ 22.000000000199918, 41.120000000299854 ], [ 21.849999999600357, 41.45 ], [ 23.599999999700287, 41.499999999900126 ] ] ] } },
{ "type": "Feature", "properties": { "Id": 0, "Shape_Leng": 3.4504859810699999, "Shape_Area": 0.72600000046199997, "IDAS": 34 }, "geometry": { "type": "Polygon", "coordinates": [ [ [ 24.480000000099949, 42.499999999700265 ], [ 24.480000000099949, 42.35 ], [ 24.480000000099949, 41.750000000299849 ], [ 24.480000000099949, 41.599999999700287 ], [ 23.599999999700287, 41.499999999900126 ], [ 23.599999999700287, 42.250000000199918 ], [ 24.480000000099949, 42.499999999700265 ] ] ] } },
{ "type": "Feature", "properties": { "Id": 0, "Shape_Leng": 5.2399999996000002, "Shape_Area": 0.79450000031400003, "IDAS": 35 }, "geometry": { "type": "Polygon", "coordinates": [ [ [ 26.749999999700265, 42.700000000199907 ], [ 26.749999999700265, 42.35 ], [ 24.480000000099949, 42.35 ], [ 24.480000000099949, 42.499999999700265 ], [ 24.480000000099949, 42.700000000199907 ], [ 26.749999999700265, 42.700000000199907 ] ] ] } },
{ "type": "Feature", "properties": { "Id": 0, "Shape_Leng": 5.7399999986000001, "Shape_Area": 1.36199999908, "IDAS": 36 }, "geometry": { "type": "Polygon", "coordinates": [ [ [ 26.749999999700265, 42.35 ], [ 26.749999999700265, 41.750000000299849 ], [ 24.480000000099949, 41.750000000299849 ], [ 24.480000000099949, 42.35 ], [ 26.749999999700265, 42.35 ] ] ] } },
{ "type": "Feature", "properties": { "Id": 0, "Shape_Leng": 4.9883600076399999, "Shape_Area": 0.641000000352, "IDAS": 37 }, "geometry": { "type": "Polygon", "coordinates": [ [ [ 24.480000000099949, 41.750000000299849 ], [ 26.749999999700265, 41.750000000299849 ], [ 26.749999999700265, 41.499999999900126 ], [ 26.000000000299849, 41.48000000029981 ], [ 24.899999999800229, 41.400000000099965 ], [ 24.480000000099949, 41.599999999700287 ], [ 24.480000000099949, 41.750000000299849 ] ] ] } },
{ "type": "Feature", "properties": { "Id": 0, "Shape_Leng": 4.3529309704200001, "Shape_Area": 0.81074999996999997, "IDAS": 38 }, "geometry": { "type": "Polygon", "coordinates": [ [ [ 22.599999999900149, 41.18 ], [ 22.649999999800173, 40.850000000299815 ], [ 22.1, 40.649999999800229 ], [ 21.000000000399723, 40.149999999900103 ], [ 21.050000000299804, 40.749999999600334 ], [ 21.500000000299849, 40.950000000099976 ], [ 22.000000000199918, 41.120000000299854 ], [ 22.599999999900149, 41.18 ] ] ] } },
{ "type": "Feature", "properties": { "Id": 0, "Shape_Leng": 2.6922555293700001, "Shape_Area": 0.35799999984600001, "IDAS": 39 }, "geometry": { "type": "Polygon", "coordinates": [ [ [ 23.599999999700287, 41.300000000299804 ], [ 23.599999999700287, 40.900000000199896 ], [ 22.649999999800173, 40.850000000299815 ], [ 22.599999999900149, 41.18 ], [ 23.599999999700287, 41.300000000299804 ] ] ] } },
{ "type": "Feature", "properties": { "Id": 0, "Shape_Leng": 3.5246719565300002, "Shape_Area": 0.66149999991499997, "IDAS": 40 }, "geometry": { "type": "Polygon", "coordinates": [ [ [ 24.480000000099949, 41.599999999700287 ], [ 24.899999999800229, 41.400000000099965 ], [ 24.899999999800229, 41.149999999700299 ], [ 23.599999999700287, 40.900000000199896 ], [ 23.599999999700287, 41.300000000299804 ], [ 23.599999999700287, 41.499999999900126 ], [ 24.480000000099949, 41.599999999700287 ] ] ] } },
{ "type": "Feature", "properties": { "Id": 0, "Shape_Leng": 3.46833465422, "Shape_Area": 0.57999999966000004, "IDAS": 41 }, "geometry": { "type": "Polygon", "coordinates": [ [ [ 22.1, 40.649999999800229 ], [ 22.400000000299826, 40.350000000399746 ], [ 21.249999999900126, 39.699999999900115 ], [ 21.000000000399723, 40.149999999900103 ], [ 22.1, 40.649999999800229 ] ] ] } },
{ "type": "Feature", "properties": { "Id": 0, "Shape_Leng": 2.8704762871299998, "Shape_Area": 0.35749999969500001, "IDAS": 42 }, "geometry": { "type": "Polygon", "coordinates": [ [ [ 23.300000000299804, 40.55 ], [ 23.300000000299804, 40.350000000399746 ], [ 22.400000000299826, 40.350000000399746 ], [ 22.1, 40.649999999800229 ], [ 22.649999999800173, 40.850000000299815 ], [ 23.0, 40.55 ], [ 23.300000000299804, 40.55 ] ] ] } },
{ "type": "Feature", "properties": { "Id": 0, "Shape_Leng": 2.3938609065300001, "Shape_Area": 0.25875000031500001, "IDAS": 43 }, "geometry": { "type": "Polygon", "coordinates": [ [ [ 23.599999999700287, 40.900000000199896 ], [ 23.700000000399768, 40.649999999800229 ], [ 23.300000000299804, 40.55 ], [ 23.0, 40.55 ], [ 22.649999999800173, 40.850000000299815 ], [ 23.599999999700287, 40.900000000199896 ] ] ] } },
{ "type": "Feature", "properties": { "Id": 0, "Shape_Leng": 2.9049985469199999, "Shape_Area": 0.376249999926, "IDAS": 44 }, "geometry": { "type": "Polygon", "coordinates": [ [ [ 23.700000000399768, 40.649999999800229 ], [ 24.549999999600345, 40.500000000099988 ], [ 24.449999999800184, 40.249999999700265 ], [ 23.800000000199873, 40.249999999700265 ], [ 23.499999999900126, 40.320000000099981 ], [ 23.300000000299804, 40.350000000399746 ], [ 23.300000000299804, 40.55 ], [ 23.700000000399768, 40.649999999800229 ] ] ] } },
{ "type": "Feature", "properties": { "Id": 0, "Shape_Leng": 2.80152545884, "Shape_Area": 0.39300000020999998, "IDAS": 45 }, "geometry": { "type": "Polygon", "coordinates": [ [ [ 23.300000000299804, 40.350000000399746 ], [ 23.499999999900126, 40.320000000099981 ], [ 23.099999999800218, 39.849999999600357 ], [ 22.850000000299815, 39.699999999900115 ], [ 22.400000000299826, 40.350000000399746 ], [ 23.300000000299804, 40.350000000399746 ] ] ] } },
{ "type": "Feature", "properties": { "Id": 0, "Shape_Leng": 3.5261546181700001, "Shape_Area": 0.53424999997400002, "IDAS": 46 }, "geometry": { "type": "Polygon", "coordinates": [ [ [ 23.800000000199873, 40.249999999700265 ], [ 24.449999999800184, 40.249999999700265 ], [ 24.650000000299826, 40.249999999700265 ], [ 23.98000000019988, 39.820000000199911 ], [ 23.599999999700287, 39.65 ], [ 23.099999999800218, 39.849999999600357 ], [ 23.499999999900126, 40.320000000099981 ], [ 23.800000000199873, 40.249999999700265 ] ] ] } },
{ "type": "Feature", "properties": { "Id": 0, "Shape_Leng": 2.6315108840899999, "Shape_Area": 0.38924999969899998, "IDAS": 47 }, "geometry": { "type": "Polygon", "coordinates": [ [ [ 23.099999999800218, 39.849999999600357 ], [ 23.599999999700287, 39.65 ], [ 23.800000000199873, 39.100000000199884 ], [ 23.350000000199884, 39.1199999998002 ], [ 22.850000000299815, 39.699999999900115 ], [ 23.099999999800218, 39.849999999600357 ] ] ] } },
{ "type": "Feature", "properties": { "Id": 0, "Shape_Leng": 3.2263000069899999, "Shape_Area": 0.51249999981799998, "IDAS": 48 }, "geometry": { "type": "Polygon", "coordinates": [ [ [ 24.899999999800229, 41.149999999700299 ], [ 24.899999999800229, 40.950000000099976 ], [ 24.549999999600345, 40.500000000099988 ], [ 23.700000000399768, 40.649999999800229 ], [ 23.599999999700287, 40.900000000199896 ], [ 24.899999999800229, 41.149999999700299 ] ] ] } },
{ "type": "Feature", "properties": { "Id": 0, "Shape_Leng": 2.1522434174999998, "Shape_Area": 0.24000000045700001, "IDAS": 49 }, "geometry": { "type": "Polygon", "coordinates": [ [ [ 24.899999999800229, 40.950000000099976 ], [ 25.200000000099976, 40.599999999900149 ], [ 24.650000000299826, 40.249999999700265 ], [ 24.449999999800184, 40.249999999700265 ], [ 24.549999999600345, 40.500000000099988 ], [ 24.899999999800229, 40.950000000099976 ] ] ] } },
{ "type": "Feature", "properties": { "Id": 0, "Shape_Leng": 3.0359598804600001, "Shape_Area": 0.50025000018099997, "IDAS": 50 }, "geometry": { "type": "Polygon", "coordinates": [ [ [ 26.000000000299849, 41.48000000029981 ], [ 25.749999999900126, 40.900000000199896 ], [ 24.899999999800229, 40.950000000099976 ], [ 24.899999999800229, 41.149999999700299 ], [ 24.899999999800229, 41.400000000099965 ], [ 26.000000000299849, 41.48000000029981 ] ] ] } },
{ "type": "Feature", "properties": { "Id": 0, "Shape_Leng": 2.6608874330600001, "Shape_Area": 0.27075000010900002, "IDAS": 51 }, "geometry": { "type": "Polygon", "coordinates": [ [ [ 25.749999999900126, 40.900000000199896 ], [ 26.100000000099953, 40.620000000399727 ], [ 25.200000000099976, 40.599999999900149 ], [ 24.899999999800229, 40.950000000099976 ], [ 25.749999999900126, 40.900000000199896 ] ] ] } },
{ "type": "Feature", "properties": { "Id": 0, "Shape_Leng": 4.4171837211699998, "Shape_Area": 1.0787499999700001, "IDAS": 52 }, "geometry": { "type": "Polygon", "coordinates": [ [ [ 26.749999999700265, 41.499999999900126 ], [ 27.450000000099976, 41.520000000399762 ], [ 27.450000000099976, 41.049999999900137 ], [ 26.100000000099953, 40.620000000399727 ], [ 25.749999999900126, 40.900000000199896 ], [ 26.000000000299849, 41.48000000029981 ], [ 26.749999999700265, 41.499999999900126 ] ] ] } },
{ "type": "Feature", "properties": { "Id": 0, "Shape_Leng": 8.0908062430199994, "Shape_Area": 1.65325000186, "IDAS": 53 }, "geometry": { "type": "Polygon", "coordinates": [ [ [ 27.450000000099976, 41.520000000399762 ], [ 31.050000000099999, 41.520000000399762 ], [ 31.050000000099999, 41.099999999800218 ], [ 29.499999999600334, 41.049999999900137 ], [ 27.450000000099976, 41.049999999900137 ], [ 27.450000000099976, 41.520000000399762 ] ] ] } },
{ "type": "Feature", "properties": { "Id": 0, "Shape_Leng": 4.0129799511600002, "Shape_Area": 0.92625000072700003, "IDAS": 54 }, "geometry": { "type": "Polygon", "coordinates": [ [ [ 22.400000000299826, 40.350000000399746 ], [ 22.850000000299815, 39.699999999900115 ], [ 22.1, 39.349999999700287 ], [ 21.500000000299849, 39.299999999800207 ], [ 21.249999999900126, 39.699999999900115 ], [ 22.400000000299826, 40.350000000399746 ] ] ] } },
{ "type": "Feature", "properties": { "Id": 0, "Shape_Leng": 4.4396870830499999, "Shape_Area": 0.83329999978799996, "IDAS": 55 }, "geometry": { "type": "Polygon", "coordinates": [ [ [ 22.850000000299815, 39.699999999900115 ], [ 23.350000000199884, 39.1199999998002 ], [ 23.0, 38.949999999600379 ], [ 22.28, 38.970000000099958 ], [ 21.799999999700276, 38.979999999900144 ], [ 21.450000000399768, 39.000000000399723 ], [ 21.500000000299849, 39.299999999800207 ], [ 22.1, 39.349999999700287 ], [ 22.850000000299815, 39.699999999900115 ] ] ] } },
{ "type": "Feature", "properties": { "Id": 0, "Shape_Leng": 2.65124813114, "Shape_Area": 0.36224999995500001, "IDAS": 56 }, "geometry": { "type": "Polygon", "coordinates": [ [ [ 21.23000000029981, 38.970000000099958 ], [ 21.450000000399768, 39.000000000399723 ], [ 21.799999999700276, 38.979999999900144 ], [ 22.199999999800184, 38.499999999600334 ], [ 21.65, 38.529999999900156 ], [ 21.18000000039973, 38.539999999700285 ], [ 21.23000000029981, 38.970000000099958 ] ] ] } },
{ "type": "Feature", "properties": { "Id": 0, "Shape_Leng": 2.50190828666, "Shape_Area": 0.26730000018400002, "IDAS": 57 }, "geometry": { "type": "Polygon", "coordinates": [ [ [ 21.799999999700276, 38.979999999900144 ], [ 22.28, 38.970000000099958 ], [ 22.82, 38.420000000299808 ], [ 22.379999999800191, 38.460000000399759 ], [ 22.199999999800184, 38.499999999600334 ], [ 21.799999999700276, 38.979999999900144 ] ] ] } },
{ "type": "Feature", "properties": { "Id": 0, "Shape_Leng": 2.9234878169499998, "Shape_Area": 0.41249999984899999, "IDAS": 58 }, "geometry": { "type": "Polygon", "coordinates": [ [ [ 23.0, 38.949999999600379 ], [ 23.350000000199884, 38.780000000299822 ], [ 23.499999999900126, 38.449999999700253 ], [ 23.099999999800218, 38.439999999900124 ], [ 22.82, 38.420000000299808 ], [ 22.28, 38.970000000099958 ], [ 23.0, 38.949999999600379 ] ] ] } },
{ "type": "Feature", "properties": { "Id": 0, "Shape_Leng": 3.36190654447, "Shape_Area": 0.57570000018699996, "IDAS": 59 }, "geometry": { "type": "Polygon", "coordinates": [ [ [ 24.150000000399757, 38.849999999800218 ], [ 24.499999999700265, 38.600000000299815 ], [ 24.750000000099988, 38.449999999700253 ], [ 24.499999999700265, 38.319999999600327 ], [ 24.150000000399757, 38.200000000199907 ], [ 23.829999999600375, 38.319999999600327 ], [ 23.570000000299842, 38.250000000099988 ], [ 23.499999999900126, 38.449999999700253 ], [ 23.350000000199884, 38.780000000299822 ], [ 24.150000000399757, 38.849999999800218 ] ] ] } },
{ "type": "Feature", "properties": { "Id": 0, "Shape_Leng": 2.1561695242300001, "Shape_Area": 0.20054999988, "IDAS": 60 }, "geometry": { "type": "Polygon", "coordinates": [ [ [ 21.65, 38.529999999900156 ], [ 21.65, 38.349999999900149 ], [ 20.849999999800218, 37.999999999700265 ], [ 21.18000000039973, 38.539999999700285 ], [ 21.65, 38.529999999900156 ] ] ] } },
{ "type": "Feature", "properties": { "Id": 0, "Shape_Leng": 2.2180698670500001, "Shape_Area": 0.27549999975299999, "IDAS": 61 }, "geometry": { "type": "Polygon", "coordinates": [ [ [ 22.199999999800184, 38.499999999600334 ], [ 22.379999999800191, 38.460000000399759 ], [ 22.400000000299826, 37.999999999700265 ], [ 22.000000000199918, 38.100000000399746 ], [ 21.65, 38.349999999900149 ], [ 21.65, 38.529999999900156 ], [ 22.199999999800184, 38.499999999600334 ] ] ] } },
{ "type": "Feature", "properties": { "Id": 0, "Shape_Leng": 2.2706541789000001, "Shape_Area": 0.28440000017099998, "IDAS": 62 }, "geometry": { "type": "Polygon", "coordinates": [ [ [ 23.099999999800218, 38.439999999900124 ], [ 22.699999999700253, 37.819999999700258 ], [ 22.400000000299826, 37.999999999700265 ], [ 22.379999999800191, 38.460000000399759 ], [ 22.82, 38.420000000299808 ], [ 23.099999999800218, 38.439999999900124 ] ] ] } },
{ "type": "Feature", "properties": { "Id": 0, "Shape_Leng": 2.5899251995600001, "Shape_Area": 0.37920000015400002, "IDAS": 63 }, "geometry": { "type": "Polygon", "coordinates": [ [ [ 23.499999999900126, 38.449999999700253 ], [ 23.570000000299842, 38.250000000099988 ], [ 23.499999999900126, 38.200000000199907 ], [ 23.250000000399723, 37.800000000099999 ], [ 23.229999999900144, 37.67 ], [ 22.699999999700253, 37.819999999700258 ], [ 23.099999999800218, 38.439999999900124 ], [ 23.499999999900126, 38.449999999700253 ] ] ] } },
{ "type": "Feature", "properties": { "Id": 0, "Shape_Leng": 2.1536264794800002, "Shape_Area": 0.17304999994100001, "IDAS": 64 }, "geometry": { "type": "Polygon", "coordinates": [ [ [ 23.829999999600375, 38.319999999600327 ], [ 24.150000000399757, 38.200000000199907 ], [ 23.250000000399723, 37.800000000099999 ], [ 23.499999999900126, 38.200000000199907 ], [ 23.570000000299842, 38.250000000099988 ], [ 23.829999999600375, 38.319999999600327 ] ] ] } },
{ "type": "Feature", "properties": { "Id": 0, "Shape_Leng": 3.5033956311900001, "Shape_Area": 0.58275000019300005, "IDAS": 65 }, "geometry": { "type": "Polygon", "coordinates": [ [ [ 24.499999999700265, 38.319999999600327 ], [ 24.700000000199907, 37.949999999800184 ], [ 23.700000000399768, 37.499999999800195 ], [ 23.229999999900144, 37.67 ], [ 23.250000000399723, 37.800000000099999 ], [ 24.150000000399757, 38.200000000199907 ], [ 24.499999999700265, 38.319999999600327 ] ] ] } },
{ "type": "Feature", "properties": { "Id": 0, "Shape_Leng": 4.0707371692800001, "Shape_Area": 0.57905000004899998, "IDAS": 66 }, "geometry": { "type": "Polygon", "coordinates": [ [ [ 23.700000000399768, 37.499999999800195 ], [ 23.45, 37.149999999600368 ], [ 22.699999999700253, 37.449999999900115 ], [ 22.500000000099988, 37.449999999900115 ], [ 22.000000000199918, 38.100000000399746 ], [ 22.400000000299826, 37.999999999700265 ], [ 22.699999999700253, 37.819999999700258 ], [ 23.229999999900144, 37.67 ], [ 23.700000000399768, 37.499999999800195 ] ] ] } },
{ "type": "Feature", "properties": { "Id": 0, "Shape_Leng": 2.7372468438499999, "Shape_Area": 0.39249999997399998, "IDAS": 67 }, "geometry": { "type": "Polygon", "coordinates": [ [ [ 21.65, 38.349999999900149 ], [ 22.000000000199918, 38.100000000399746 ], [ 21.219999999600361, 37.629999999900122 ], [ 20.849999999800218, 37.999999999700265 ], [ 21.65, 38.349999999900149 ] ] ] } },
{ "type": "Feature", "properties": { "Id": 0, "Shape_Leng": 3.8296575541400002, "Shape_Area": 0.70882309339100003, "IDAS": 68 }, "geometry": { "type": "Polygon", "coordinates": [ [ [ 22.000000000199918, 38.100000000399746 ], [ 22.500000000099988, 37.449999999900115 ], [ 22.000000000199918, 37.350000000099953 ], [ 21.395206837025967, 37.044784112696675 ], [ 21.1199999998002, 37.319999999800189 ], [ 21.38, 37.499999999800195 ], [ 21.219999999600361, 37.629999999900122 ], [ 22.000000000199918, 38.100000000399746 ] ] ] } },
{ "type": "Feature", "properties": { "Id": 0, "Shape_Leng": 4.3082582525799999, "Shape_Area": 0.89549999969000005, "IDAS": 69 }, "geometry": { "type": "Polygon", "coordinates": [ [ [ 22.000000000199918, 37.350000000099953 ], [ 22.500000000099988, 37.449999999900115 ], [ 22.779999999900099, 36.649999999700299 ], [ 22.500000000099988, 36.000000000099988 ], [ 22.000000000199918, 36.750000000399723 ], [ 21.399999999600368, 37.049999999800207 ], [ 22.000000000199918, 37.350000000099953 ] ] ] } },
{ "type": "Feature", "properties": { "Id": 0, "Shape_Leng": 3.0778533061500002, "Shape_Area": 0.547999999977, "IDAS": 70 }, "geometry": { "type": "Polygon", "coordinates": [ [ [ 23.45, 37.149999999600368 ], [ 23.499999999900126, 36.649999999700299 ], [ 22.779999999900099, 36.649999999700299 ], [ 22.500000000099988, 37.449999999900115 ], [ 22.699999999700253, 37.449999999900115 ], [ 23.45, 37.149999999600368 ] ] ] } },
{ "type": "Feature", "properties": { "Id": 0, "Shape_Leng": 3.4312962808599998, "Shape_Area": 0.77774999952599999, "IDAS": 71 }, "geometry": { "type": "Polygon", "coordinates": [ [ [ 23.499999999900126, 36.649999999700299 ], [ 23.499999999900126, 36.249999999600334 ], [ 23.499999999900126, 35.850000000399746 ], [ 23.250000000399723, 35.6 ], [ 22.500000000099988, 36.000000000099988 ], [ 22.779999999900099, 36.649999999700299 ], [ 23.499999999900126, 36.649999999700299 ] ] ] } },
{ "type": "Feature", "properties": { "Id": 0, "Shape_Leng": 2.2047345693899998, "Shape_Area": 0.25374999979500001, "IDAS": 72 }, "geometry": { "type": "Polygon", "coordinates": [ [ [ 23.499999999900126, 35.850000000399746 ], [ 24.099999999600357, 35.349999999600357 ], [ 23.850000000099953, 35.15 ], [ 23.250000000399723, 35.6 ], [ 23.499999999900126, 35.850000000399746 ] ] ] } },
{ "type": "Feature", "properties": { "Id": 0, "Shape_Leng": 1.9662924416300001, "Shape_Area": 0.20199999980399999, "IDAS": 73 }, "geometry": { "type": "Polygon", "coordinates": [ [ [ 24.700000000199907, 35.130000000399775 ], [ 24.300000000099999, 34.870000000199923 ], [ 23.850000000099953, 35.15 ], [ 24.099999999600357, 35.349999999600357 ], [ 24.700000000199907, 35.130000000399775 ] ] ] } },
{ "type": "Feature", "properties": { "Id": 0, "Shape_Leng": 5.5543695560900002, "Shape_Area": 1.2535000005100001, "IDAS": 74 }, "geometry": { "type": "Polygon", "coordinates": [ [ [ 25.399999999700299, 35.119999999700269 ], [ 26.900000000299826, 34.899999999600368 ], [ 26.050000000199873, 34.399999999700299 ], [ 24.949999999700253, 34.449999999600379 ], [ 24.300000000099999, 34.870000000199923 ], [ 24.700000000199907, 35.130000000399775 ], [ 25.399999999700299, 35.119999999700269 ] ] ] } },
{ "type": "Feature", "properties": { "Id": 0, "Shape_Leng": 5.1527206228300004, "Shape_Area": 1.3559999991, "IDAS": 75 }, "geometry": { "type": "Polygon", "coordinates": [ [ [ 25.399999999700299, 35.799999999600345 ], [ 25.399999999700299, 35.119999999700269 ], [ 24.700000000199907, 35.130000000399775 ], [ 24.099999999600357, 35.349999999600357 ], [ 23.499999999900126, 35.850000000399746 ], [ 23.499999999900126, 36.249999999600334 ], [ 25.399999999700299, 35.799999999600345 ] ] ] } },
{ "type": "Feature", "properties": { "Id": 0, "Shape_Leng": 4.4678330692600001, "Shape_Area": 1.1325000007899999, "IDAS": 76 }, "geometry": { "type": "Polygon", "coordinates": [ [ [ 26.699999999800184, 35.850000000399746 ], [ 26.900000000299826, 34.899999999600368 ], [ 25.399999999700299, 35.119999999700269 ], [ 25.399999999700299, 35.799999999600345 ], [ 26.699999999800184, 35.850000000399746 ] ] ] } },
{ "type": "Feature", "properties": { "Id": 0, "Shape_Leng": 4.0986758815600002, "Shape_Area": 0.95249999985800005, "IDAS": 77 }, "geometry": { "type": "Polygon", "coordinates": [ [ [ 27.199999999700253, 36.5 ], [ 27.649999999700299, 36.249999999600334 ], [ 27.649999999700299, 35.749999999700265 ], [ 27.300000000399734, 35.450000000299838 ], [ 26.900000000299826, 34.899999999600368 ], [ 26.699999999800184, 35.850000000399746 ], [ 26.850000000399746, 36.450000000099976 ], [ 27.199999999700253, 36.5 ] ] ] } },
{ "type": "Feature", "properties": { "Id": 0, "Shape_Leng": 3.6382362049000001, "Shape_Area": 0.73399999999800003, "IDAS": 78 }, "geometry": { "type": "Polygon", "coordinates": [ [ [ 24.650000000299826, 40.249999999700265 ], [ 24.899999999800229, 39.799999999700276 ], [ 24.250000000199918, 39.249999999900126 ], [ 23.800000000199873, 39.100000000199884 ], [ 23.599999999700287, 39.65 ], [ 23.98000000019988, 39.820000000199911 ], [ 24.650000000299826, 40.249999999700265 ] ] ] } },
{ "type": "Feature", "properties": { "Id": 0, "Shape_Leng": 2.4618202080599998, "Shape_Area": 0.24824999993899999, "IDAS": 79 }, "geometry": { "type": "Polygon", "coordinates": [ [ [ 23.800000000199873, 39.100000000199884 ], [ 24.150000000399757, 38.849999999800218 ], [ 23.350000000199884, 38.780000000299822 ], [ 23.0, 38.949999999600379 ], [ 23.350000000199884, 39.1199999998002 ], [ 23.800000000199873, 39.100000000199884 ] ] ] } },
{ "type": "Feature", "properties": { "Id": 0, "Shape_Leng": 2.3284399894200001, "Shape_Area": 0.27749999979000001, "IDAS": 80 }, "geometry": { "type": "Polygon", "coordinates": [ [ [ 24.250000000199918, 39.249999999900126 ], [ 24.750000000099988, 38.849999999800218 ], [ 24.499999999700265, 38.600000000299815 ], [ 23.800000000199873, 39.100000000199884 ], [ 24.250000000199918, 39.249999999900126 ] ] ] } },
{ "type": "Feature", "properties": { "Id": 0, "Shape_Leng": 3.43952792817, "Shape_Area": 0.63874999992000003, "IDAS": 81 }, "geometry": { "type": "Polygon", "coordinates": [ [ [ 24.899999999800229, 39.799999999700276 ], [ 25.650000000099965, 39.600000000099953 ], [ 24.750000000099988, 38.849999999800218 ], [ 24.250000000199918, 39.249999999900126 ], [ 24.899999999800229, 39.799999999700276 ] ] ] } },
{ "type": "Feature", "properties": { "Id": 0, "Shape_Leng": 4.0693149282499999, "Shape_Area": 0.50000000020500002, "IDAS": 82 }, "geometry": { "type": "Polygon", "coordinates": [ [ [ 25.650000000099965, 39.600000000099953 ], [ 26.100000000099953, 39.640000000199905 ], [ 25.650000000099965, 39.2 ], [ 24.750000000099988, 38.449999999700253 ], [ 24.499999999700265, 38.600000000299815 ], [ 24.750000000099988, 38.849999999800218 ], [ 25.650000000099965, 39.600000000099953 ] ] ] } },
{ "type": "Feature", "properties": { "Id": 0, "Shape_Leng": 4.3310549174000004, "Shape_Area": 0.75874999943599997, "IDAS": 83 }, "geometry": { "type": "Polygon", "coordinates": [ [ [ 26.529999999600363, 38.920000000199877 ], [ 26.400000000399757, 38.700000000099976 ], [ 26.15, 38.75 ], [ 25.25, 38.150000000299826 ], [ 24.750000000099988, 38.449999999700253 ], [ 25.650000000099965, 39.2 ], [ 25.899999999600368, 38.949999999600379 ], [ 26.529999999600363, 38.920000000199877 ] ] ] } },
{ "type": "Feature", "properties": { "Id": 0, "Shape_Leng": 2.93902964844, "Shape_Area": 0.26150000007399998, "IDAS": 84 }, "geometry": { "type": "Polygon", "coordinates": [ [ [ 26.299999999700276, 39.680000000299799 ], [ 27.000000000099988, 39.500000000299849 ], [ 25.650000000099965, 39.2 ], [ 26.100000000099953, 39.640000000199905 ], [ 26.299999999700276, 39.680000000299799 ] ] ] } },
{ "type": "Feature", "properties": { "Id": 0, "Shape_Leng": 3.1137242250299999, "Shape_Area": 0.39600000012999997, "IDAS": 85 }, "geometry": { "type": "Polygon", "coordinates": [ [ [ 27.000000000099988, 39.500000000299849 ], [ 26.529999999600363, 38.920000000199877 ], [ 25.899999999600368, 38.949999999600379 ], [ 25.650000000099965, 39.2 ], [ 27.000000000099988, 39.500000000299849 ] ] ] } },
{ "type": "Feature", "properties": { "Id": 0, "Shape_Leng": 4.1325974034800002, "Shape_Area": 0.97850000002299997, "IDAS": 86 }, "geometry": { "type": "Polygon", "coordinates": [ [ [ 26.100000000099953, 40.620000000399727 ], [ 26.299999999700276, 40.000000000199918 ], [ 24.899999999800229, 39.799999999700276 ], [ 24.650000000299826, 40.249999999700265 ], [ 25.200000000099976, 40.599999999900149 ], [ 26.100000000099953, 40.620000000399727 ] ] ] } },
{ "type": "Feature", "properties": { "Id": 0, "Shape_Leng": 3.1661573573499999, "Shape_Area": 0.32399999985200001, "IDAS": 87 }, "geometry": { "type": "Polygon", "coordinates": [ [ [ 26.299999999700276, 40.000000000199918 ], [ 26.299999999700276, 39.680000000299799 ], [ 26.100000000099953, 39.640000000199905 ], [ 25.650000000099965, 39.600000000099953 ], [ 24.899999999800229, 39.799999999700276 ], [ 26.299999999700276, 40.000000000199918 ] ] ] } },
{ "type": "Feature", "properties": { "Id": 0, "Shape_Leng": 4.5586852123100003, "Shape_Area": 0.95149999999699997, "IDAS": 88 }, "geometry": { "type": "Polygon", "coordinates": [ [ [ 27.450000000099976, 41.049999999900137 ], [ 27.999999999900126, 40.699999999700253 ], [ 26.299999999700276, 40.000000000199918 ], [ 26.100000000099953, 40.620000000399727 ], [ 27.450000000099976, 41.049999999900137 ] ] ] } },
{ "type": "Feature", "properties": { "Id": 0, "Shape_Leng": 5.1754043774899996, "Shape_Area": 1.4052499999300001, "IDAS": 89 }, "geometry": { "type": "Polygon", "coordinates": [ [ [ 27.999999999900126, 40.699999999700253 ], [ 28.200000000399768, 40.249999999700265 ], [ 28.350000000099953, 39.879999999900122 ], [ 27.000000000099988, 39.500000000299849 ], [ 26.299999999700276, 39.680000000299799 ], [ 26.299999999700276, 40.000000000199918 ], [ 27.999999999900126, 40.699999999700253 ] ] ] } },
{ "type": "Feature", "properties": { "Id": 0, "Shape_Leng": 4.5519202398600003, "Shape_Area": 0.62125000021499999, "IDAS": 90 }, "geometry": { "type": "Polygon", "coordinates": [ [ [ 29.499999999600334, 41.049999999900137 ], [ 29.499999999600334, 40.699999999700253 ], [ 27.999999999900126, 40.699999999700253 ], [ 27.450000000099976, 41.049999999900137 ], [ 29.499999999600334, 41.049999999900137 ] ] ] } },
{ "type": "Feature", "properties": { "Id": 0, "Shape_Leng": 7.3726007893599999, "Shape_Area": 1.7775000002200001, "IDAS": 91 }, "geometry": { "type": "Polygon", "coordinates": [ [ [ 31.050000000099999, 41.099999999800218 ], [ 31.050000000099999, 40.500000000099988 ], [ 30.000000000399723, 40.249999999700265 ], [ 28.200000000399768, 40.249999999700265 ], [ 27.999999999900126, 40.699999999700253 ], [ 29.499999999600334, 40.699999999700253 ], [ 29.499999999600334, 41.049999999900137 ], [ 31.050000000099999, 41.099999999800218 ] ] ] } },
{ "type": "Feature", "properties": { "Id": 0, "Shape_Leng": 6.8388980592299999, "Shape_Area": 1.49749999954, "IDAS": 92 }, "geometry": { "type": "Polygon", "coordinates": [ [ [ 31.050000000099999, 40.500000000099988 ], [ 31.1, 39.699999999900115 ], [ 30.2, 39.699999999900115 ], [ 28.350000000099953, 39.879999999900122 ], [ 28.200000000399768, 40.249999999700265 ], [ 30.000000000399723, 40.249999999700265 ], [ 31.050000000099999, 40.500000000099988 ] ] ] } },
{ "type": "Feature", "properties": { "Id": 0, "Shape_Leng": 8.32929315278, "Shape_Area": 3.2830000004, "IDAS": 93 }, "geometry": { "type": "Polygon", "coordinates": [ [ [ 24.750000000099988, 38.449999999700253 ], [ 25.25, 38.150000000299826 ], [ 26.500000000199918, 37.750000000199918 ], [ 26.500000000199918, 37.30000000019993 ], [ 25.500000000399723, 36.649999999700299 ], [ 25.100000000299815, 36.450000000099976 ], [ 24.8, 36.750000000399723 ], [ 24.399999999900103, 36.95 ], [ 23.999999999800195, 36.649999999700299 ], [ 23.45, 37.149999999600368 ], [ 23.700000000399768, 37.499999999800195 ], [ 24.700000000199907, 37.949999999800184 ], [ 24.499999999700265, 38.319999999600327 ], [ 24.750000000099988, 38.449999999700253 ] ] ] } },
{ "type": "Feature", "properties": { "Id": 0, "Shape_Leng": 5.7678584652799998, "Shape_Area": 1.1430000007700001, "IDAS": 94 }, "geometry": { "type": "Polygon", "coordinates": [ [ [ 23.45, 37.149999999600368 ], [ 23.999999999800195, 36.649999999700299 ], [ 24.399999999900103, 36.450000000099976 ], [ 24.8, 36.750000000399723 ], [ 25.100000000299815, 36.450000000099976 ], [ 25.399999999700299, 36.220000000199889 ], [ 25.399999999700299, 35.799999999600345 ], [ 23.499999999900126, 36.249999999600334 ], [ 23.499999999900126, 36.649999999700299 ], [ 23.45, 37.149999999600368 ] ] ] } },
{ "type": "Feature", "properties": { "Id": 0, "Shape_Leng": 1.8944271913399999, "Shape_Area": 0.20000000001000001, "IDAS": 95 }, "geometry": { "type": "Polygon", "coordinates": [ [ [ 24.399999999900103, 36.95 ], [ 24.8, 36.750000000399723 ], [ 24.399999999900103, 36.450000000099976 ], [ 23.999999999800195, 36.649999999700299 ], [ 24.399999999900103, 36.95 ] ] ] } },
{ "type": "Feature", "properties": { "Id": 0, "Shape_Leng": 3.8791327831100002, "Shape_Area": 0.82875000031599999, "IDAS": 96 }, "geometry": { "type": "Polygon", "coordinates": [ [ [ 25.650000000099965, 36.450000000099976 ], [ 26.850000000399746, 36.450000000099976 ], [ 26.699999999800184, 35.850000000399746 ], [ 25.399999999700299, 35.799999999600345 ], [ 25.399999999700299, 36.220000000199889 ], [ 25.650000000099965, 36.450000000099976 ] ] ] } },
{ "type": "Feature", "properties": { "Id": 0, "Shape_Leng": 4.275125885, "Shape_Area": 0.97124999987299998, "IDAS": 97 }, "geometry": { "type": "Polygon", "coordinates": [ [ [ 26.400000000399757, 38.700000000099976 ], [ 27.099999999900149, 38.049999999600345 ], [ 26.500000000199918, 37.750000000199918 ], [ 25.25, 38.150000000299826 ], [ 26.15, 38.75 ], [ 26.400000000399757, 38.700000000099976 ] ] ] } },
{ "type": "Feature", "properties": { "Id": 0, "Shape_Leng": 5.0447944303099996, "Shape_Area": 1.2057499994700001, "IDAS": 98 }, "geometry": { "type": "Polygon", "coordinates": [ [ [ 27.649999999700299, 38.899999999700299 ], [ 28.599999999600357, 38.150000000299826 ], [ 27.300000000399734, 38.070000000099981 ], [ 27.099999999900149, 38.049999999600345 ], [ 26.400000000399757, 38.700000000099976 ], [ 26.529999999600363, 38.920000000199877 ], [ 27.649999999700299, 38.899999999700299 ] ] ] } },
{ "type": "Feature", "properties": { "Id": 0, "Shape_Leng": 4.4796091414600001, "Shape_Area": 0.89300000007699998, "IDAS": 99 }, "geometry": { "type": "Polygon", "coordinates": [ [ [ 28.350000000099953, 39.879999999900122 ], [ 28.149999999600368, 39.500000000299849 ], [ 27.649999999700299, 38.899999999700299 ], [ 26.529999999600363, 38.920000000199877 ], [ 27.000000000099988, 39.500000000299849 ], [ 28.350000000099953, 39.879999999900122 ] ] ] } },
{ "type": "Feature", "properties": { "Id": 0, "Shape_Leng": 6.3885780388800004, "Shape_Area": 0.82824999878899996, "IDAS": 100 }, "geometry": { "type": "Polygon", "coordinates": [ [ [ 31.1, 39.699999999900115 ], [ 31.1, 39.450000000399768 ], [ 28.149999999600368, 39.500000000299849 ], [ 28.350000000099953, 39.879999999900122 ], [ 30.2, 39.699999999900115 ], [ 31.1, 39.699999999900115 ] ] ] } },
{ "type": "Feature", "properties": { "Id": 0, "Shape_Leng": 8.3250141814499994, "Shape_Area": 2.795000002, "IDAS": 101 }, "geometry": { "type": "Polygon", "coordinates": [ [ [ 31.1, 39.450000000399768 ], [ 31.1, 38.349999999900149 ], [ 27.649999999700299, 38.899999999700299 ], [ 28.149999999600368, 39.500000000299849 ], [ 31.1, 39.450000000399768 ] ] ] } },
{ "type": "Feature", "properties": { "Id": 0, "Shape_Leng": 7.6644924856900003, "Shape_Area": 1.75250000081, "IDAS": 102 }, "geometry": { "type": "Polygon", "coordinates": [ [ [ 31.1, 38.349999999900149 ], [ 31.1, 37.949999999800184 ], [ 30.2, 37.949999999800184 ], [ 28.899999999900103, 37.949999999800184 ], [ 28.599999999600357, 38.150000000299826 ], [ 27.649999999700299, 38.899999999700299 ], [ 30.301270548497087, 38.477333681004609 ], [ 31.1, 38.349999999900149 ] ] ] } },
{ "type": "Feature", "properties": { "Id": 0, "Shape_Leng": 3.0183440629199998, "Shape_Area": 0.55850000007, "IDAS": 103 }, "geometry": { "type": "Polygon", "coordinates": [ [ [ 27.300000000399734, 38.070000000099981 ], [ 27.400000000199896, 37.279999999700294 ], [ 26.500000000199918, 37.30000000019993 ], [ 26.500000000199918, 37.750000000199918 ], [ 27.099999999900149, 38.049999999600345 ], [ 27.300000000399734, 38.070000000099981 ] ] ] } },
{ "type": "Feature", "properties": { "Id": 0, "Shape_Leng": 4.41290067013, "Shape_Area": 1.1527499999099999, "IDAS": 104 }, "geometry": { "type": "Polygon", "coordinates": [ [ [ 28.599999999600357, 38.150000000299826 ], [ 28.750000000199918, 37.200000000399768 ], [ 27.400000000199896, 37.279999999700294 ], [ 27.300000000399734, 38.070000000099981 ], [ 28.599999999600357, 38.150000000299826 ] ] ] } },
{ "type": "Feature", "properties": { "Id": 0, "Shape_Leng": 4.4056154216200003, "Shape_Area": 0.89499999990800005, "IDAS": 105 }, "geometry": { "type": "Polygon", "coordinates": [ [ [ 30.2, 37.949999999800184 ], [ 29.399999999800229, 37.149999999600368 ], [ 28.750000000199918, 37.200000000399768 ], [ 28.599999999600357, 38.150000000299826 ], [ 28.899999999900103, 37.949999999800184 ], [ 30.2, 37.949999999800184 ] ] ] } },
{ "type": "Feature", "properties": { "Id": 0, "Shape_Leng": 5.0728433769, "Shape_Area": 1.58250000013, "IDAS": 106 }, "geometry": { "type": "Polygon", "coordinates": [ [ [ 31.1, 37.949999999800184 ], [ 31.1, 36.699999999600379 ], [ 30.500000000299849, 36.699999999600379 ], [ 29.899999999700299, 36.900000000099965 ], [ 29.399999999800229, 37.149999999600368 ], [ 30.2, 37.949999999800184 ], [ 31.1, 37.949999999800184 ] ] ] } },
{ "type": "Feature", "properties": { "Id": 0, "Shape_Leng": 1.4149405130599999, "Shape_Area": 0.11824999982000001, "IDAS": 107 }, "geometry": { "type": "Polygon", "coordinates": [ [ [ 25.500000000399723, 36.649999999700299 ], [ 25.650000000099965, 36.450000000099976 ], [ 25.399999999700299, 36.220000000199889 ], [ 25.100000000299815, 36.450000000099976 ], [ 25.500000000399723, 36.649999999700299 ] ] ] } },
{ "type": "Feature", "properties": { "Id": 0, "Shape_Leng": 3.17655577761, "Shape_Area": 0.61749999969500002, "IDAS": 108 }, "geometry": { "type": "Polygon", "coordinates": [ [ [ 27.400000000199896, 37.279999999700294 ], [ 27.5, 36.599999999800218 ], [ 27.199999999700253, 36.5 ], [ 26.850000000399746, 36.450000000099976 ], [ 26.500000000199918, 37.30000000019993 ], [ 27.400000000199896, 37.279999999700294 ] ] ] } },
{ "type": "Feature", "properties": { "Id": 0, "Shape_Leng": 3.5521223795200001, "Shape_Area": 0.58000000030800003, "IDAS": 109 }, "geometry": { "type": "Polygon", "coordinates": [ [ [ 28.750000000199918, 37.200000000399768 ], [ 28.750000000199918, 36.999999999900126 ], [ 27.5, 36.599999999800218 ], [ 27.400000000199896, 37.279999999700294 ], [ 28.750000000199918, 37.200000000399768 ] ] ] } },
{ "type": "Feature", "properties": { "Id": 0, "Shape_Leng": 3.63193618171, "Shape_Area": 0.4737500004, "IDAS": 110 }, "geometry": { "type": "Polygon", "coordinates": [ [ [ 28.750000000199918, 36.999999999900126 ], [ 28.750000000199918, 36.699999999600379 ], [ 27.649999999700299, 36.249999999600334 ], [ 27.199999999700253, 36.5 ], [ 27.5, 36.599999999800218 ], [ 28.750000000199918, 36.999999999900126 ] ] ] } },
{ "type": "Feature", "properties": { "Id": 0, "Shape_Leng": 3.16009145129, "Shape_Area": 0.61124999964799998, "IDAS": 111 }, "geometry": { "type": "Polygon", "coordinates": [ [ [ 29.899999999700299, 36.900000000099965 ], [ 29.499999999600334, 36.400000000199896 ], [ 28.949999999800184, 36.599999999800218 ], [ 28.750000000199918, 36.699999999600379 ], [ 28.750000000199918, 36.999999999900126 ], [ 28.750000000199918, 37.200000000399768 ], [ 29.399999999800229, 37.149999999600368 ], [ 29.899999999700299, 36.900000000099965 ] ] ] } },
{ "type": "Feature", "properties": { "Id": 0, "Shape_Leng": 4.0107500636099997, "Shape_Area": 0.74499999994499999, "IDAS": 112 }, "geometry": { "type": "Polygon", "coordinates": [ [ [ 31.1, 36.699999999600379 ], [ 31.000000000199918, 36.099999999900149 ], [ 29.499999999600334, 36.400000000199896 ], [ 29.899999999700299, 36.900000000099965 ], [ 30.500000000299849, 36.699999999600379 ], [ 31.1, 36.699999999600379 ] ] ] } },
{ "type": "Feature", "properties": { "Id": 0, "Shape_Leng": 3.5619248598, "Shape_Area": 0.65874999990799998, "IDAS": 113 }, "geometry": { "type": "Polygon", "coordinates": [ [ [ 26.500000000199918, 37.30000000019993 ], [ 26.850000000399746, 36.450000000099976 ], [ 25.650000000099965, 36.450000000099976 ], [ 25.500000000399723, 36.649999999700299 ], [ 26.500000000199918, 37.30000000019993 ] ] ] } }
]
}
