{
"type": "FeatureCollection",
"name": "wcs_normal",
"crs": { "type": "name", "properties": { "name": "urn:ogc:def:crs:OGC:1.3:CRS84" } },
"features": [
{ "type": "Feature", "properties": { "LonA": 24.8995, "LatA": 41.1434, "LonB": 25.5621, "LatB": 41.2134, "SS_ID": 1011.0, "Shape_Leng": 0.66628826577300004 }, "geometry": { "type": "LineString", "coordinates": [ [ 24.8995, 41.1434 ], [ 24.911112305000074, 41.144660904000034 ], [ 24.922725054000068, 41.145920637000074 ], [ 24.934338248000074, 41.14717919800006 ], [ 24.945951886000046, 41.148436589000028 ], [ 24.95756596700005, 41.149692809000044 ], [ 24.969180492000078, 41.150947857000062 ], [ 24.980795459000035, 41.152201734000073 ], [ 24.992410868000036, 41.153454440000075 ], [ 25.00402672000007, 41.154705973000034 ], [ 25.015643013000044, 41.155956336000031 ], [ 25.027259748000063, 41.157205526000041 ], [ 25.038876923000032, 41.158453545000043 ], [ 25.050494539000056, 41.159700392000047 ], [ 25.062112595000031, 41.160946066000065 ], [ 25.07373109100007, 41.162190569000074 ], [ 25.085350026000071, 41.16343389900004 ], [ 25.096969401000024, 41.164676057000065 ], [ 25.108589214000062, 41.165917043000036 ], [ 25.120209465000073, 41.167156856000076 ], [ 25.131830154000056, 41.168395497000063 ], [ 25.143451280000079, 41.169632965000062 ], [ 25.155072844000074, 41.170869260000075 ], [ 25.166694844000062, 41.172104382000043 ], [ 25.178317281000034, 41.173338331000025 ], [ 25.189940154000055, 41.174571107000077 ], [ 25.201563462000024, 41.175802710000028 ], [ 25.213187206000043, 41.177033140000049 ], [ 25.224811384000077, 41.178262396000036 ], [ 25.236435997000058, 41.179490479000037 ], [ 25.248061044000053, 41.180717388000062 ], [ 25.259686524000074, 41.181943124000043 ], [ 25.271312438000052, 41.183167686000047 ], [ 25.282938785000056, 41.184391074000075 ], [ 25.294565564000038, 41.18561328800007 ], [ 25.306192776000046, 41.186834328000032 ], [ 25.317820419000043, 41.188054194000074 ], [ 25.329448494000076, 41.189272886000026 ], [ 25.341077, 41.190490404000059 ], [ 25.352705937000053, 41.191706747000069 ], [ 25.364335303000075, 41.192921916000046 ], [ 25.37596510000003, 41.194135910000057 ], [ 25.387595326000053, 41.195348730000035 ], [ 25.399225981000029, 41.196560374000057 ], [ 25.410857065000073, 41.197770844000047 ], [ 25.42248857800007, 41.198980139000071 ], [ 25.434120518000043, 41.200188259000072 ], [ 25.445752886000037, 41.20139520400005 ], [ 25.457385681000062, 41.202600974000063 ], [ 25.469018903000062, 41.203805568000064 ], [ 25.480652552000038, 41.205008987000042 ], [ 25.492286627000055, 41.206211230000065 ], [ 25.503921127000069, 41.207412298000065 ], [ 25.515556052000079, 41.208612190000053 ], [ 25.527191403000074, 41.20981090600003 ], [ 25.538827178000076, 41.21100844700004 ], [ 25.550463377000028, 41.212204811000049 ], [ 25.5621, 41.2134 ] ] } },
{ "type": "Feature", "properties": { "LonA": 23.6364, "LatA": 40.6184, "LonB": 23.1052, "LatB": 40.6536, "SS_ID": 1021.0, "Shape_Leng": 0.53236546683800001 }, "geometry": { "type": "LineString", "coordinates": [ [ 23.6364, 40.6184 ], [ 23.624858170000039, 40.619191191000027 ], [ 23.613316069000064, 40.619981229000075 ], [ 23.601773695000077, 40.620770113000049 ], [ 23.590231050000057, 40.621557843000062 ], [ 23.57868813500005, 40.622344420000047 ], [ 23.567144948000077, 40.623129843000072 ], [ 23.555601491000061, 40.62391411200008 ], [ 23.544057765000048, 40.62469722700007 ], [ 23.532513769000047, 40.625479188000043 ], [ 23.52096950400005, 40.626259996000044 ], [ 23.509424970000055, 40.627039649000039 ], [ 23.497880168000052, 40.627818148000074 ], [ 23.48633509800004, 40.628595493000034 ], [ 23.474789760000078, 40.629371683000045 ], [ 23.46324415600003, 40.630146719000038 ], [ 23.451698284000031, 40.630920601000071 ], [ 23.440152147000049, 40.631693329000029 ], [ 23.428605743000048, 40.632464902000038 ], [ 23.417059073000075, 40.63323532000004 ], [ 23.405512139000052, 40.634004584000024 ], [ 23.393964939000057, 40.634772694000048 ], [ 23.382417475000068, 40.635539648000076 ], [ 23.370869747000029, 40.63630544800003 ], [ 23.359321755000053, 40.637070093000034 ], [ 23.347773500000073, 40.637833583000031 ], [ 23.336224982000033, 40.638595918000078 ], [ 23.324676201000045, 40.639357099000051 ], [ 23.313127159000032, 40.640117124000028 ], [ 23.301577854000072, 40.640875994000055 ], [ 23.29002828800003, 40.641633709000075 ], [ 23.278478461000077, 40.642390268000042 ], [ 23.266928374000031, 40.643145673000049 ], [ 23.255378026000074, 40.64389992200006 ], [ 23.243827418000023, 40.644653016000063 ], [ 23.232276551000041, 40.645404954000071 ], [ 23.220725425000069, 40.646155737000072 ], [ 23.20917404100004, 40.646905364000077 ], [ 23.197622397000032, 40.647653836000075 ], [ 23.18607049600007, 40.648401152000076 ], [ 23.174518338000041, 40.649147312000025 ], [ 23.162965922000069, 40.649892316000034 ], [ 23.151413250000076, 40.650636165000037 ], [ 23.139860321000072, 40.651378858000044 ], [ 23.128307136000046, 40.652120394000065 ], [ 23.116753696000046, 40.652860775000079 ], [ 23.1052, 40.6536 ] ] } },
{ "type": "Feature", "properties": { "LonA": 22.1495, "LatA": 40.2695, "LonB": 21.5484, "LatB": 40.0042, "SS_ID": 1031.0, "Shape_Leng": 0.65704427729299997 }, "geometry": { "type": "LineString", "coordinates": [ [ 22.1495, 40.2695 ], [ 22.139443322000034, 40.265104071000053 ], [ 22.129387947000055, 40.260707264000075 ], [ 22.119333873000073, 40.25630958000005 ], [ 22.109281101000079, 40.25191102000008 ], [ 22.099229631000071, 40.247511583000062 ], [ 22.089179462000061, 40.243111270000043 ], [ 22.079130595000038, 40.238710081000079 ], [ 22.069083029000069, 40.234308016000057 ], [ 22.059036764000041, 40.22990507600008 ], [ 22.048991801000057, 40.225501260000044 ], [ 22.038948138000023, 40.221096570000043 ], [ 22.028905777000034, 40.21669100400004 ], [ 22.018864716000053, 40.212284565000061 ], [ 22.008824956000069, 40.20787725100007 ], [ 21.998786496000037, 40.203469063000057 ], [ 21.988749337000058, 40.199060001000078 ], [ 21.978713478000032, 40.194650066000065 ], [ 21.96867891900007, 40.19023925700003 ], [ 21.958645661000048, 40.185827576000065 ], [ 21.948613702000046, 40.181415021000078 ], [ 21.938583043000051, 40.177001594000046 ], [ 21.928553684000065, 40.172587295000028 ], [ 21.918525625000029, 40.16817212400008 ], [ 21.90849886500007, 40.163756081000031 ], [ 21.898473405000061, 40.159339167000041 ], [ 21.888449244000071, 40.154921381000065 ], [ 21.878426382000043, 40.150502724000035 ], [ 21.868404819000034, 40.146083197000053 ], [ 21.858384555000043, 40.141662798000027 ], [ 21.848365589000025, 40.13724153000004 ], [ 21.838347923000072, 40.132819391000055 ], [ 21.828331555000034, 40.128396383000052 ], [ 21.818316486000072, 40.12397250500004 ], [ 21.808302715000025, 40.119547758000067 ], [ 21.798290242000064, 40.115122141000029 ], [ 21.788279067000076, 40.110695656000075 ], [ 21.77826919000006, 40.106268303000036 ], [ 21.768260611000073, 40.101840080000045 ], [ 21.758253330000059, 40.097410990000071 ], [ 21.748247347000074, 40.092981032000068 ], [ 21.738242661000072, 40.088550206000036 ], [ 21.728239273000042, 40.084118513000078 ], [ 21.718237181000063, 40.07968595300008 ], [ 21.708236387000056, 40.075252526000043 ], [ 21.698236890000032, 40.070818233000068 ], [ 21.688238690000048, 40.066383073000054 ], [ 21.678241787000047, 40.061947046000057 ], [ 21.66824618000004, 40.057510154000056 ], [ 21.658251870000072, 40.053072397000051 ], [ 21.64825885700003, 40.048633774000052 ], [ 21.638267140000039, 40.04419428500006 ], [ 21.628276719000041, 40.039753932000053 ], [ 21.618287594000037, 40.035312715000032 ], [ 21.608299765000027, 40.030870632000074 ], [ 21.598313232000066, 40.026427686000034 ], [ 21.588327994000053, 40.021983876000036 ], [ 21.578344053000023, 40.01753920200008 ], [ 21.568361407000054, 40.013093664000053 ], [ 21.558380056000033, 40.008647264000047 ], [ 21.5484, 40.0042 ] ] } }
]
}
