{
"type": "FeatureCollection",
"name": "wcs_strike_slip",
"crs": { "type": "name", "properties": { "name": "urn:ogc:def:crs:OGC:1.3:CRS84" } },
"features": [
{ "type": "Feature", "properties": { "LonA": 27.3659, "LatA": 40.7463, "LonB": 24.983, "LatB": 40.1571, "SS_ID": 1001.0, "Shape_Leng": 2.45471930196 }, "geometry": { "type": "LineString", "coordinates": [ [ 27.3659, 40.7463 ], [ 27.354616158000056, 40.743649430000062 ], [ 27.343333211000072, 40.74099775600007 ], [ 27.332051161000038, 40.738344978000043 ], [ 27.320770008000068, 40.735691096000039 ], [ 27.309489751000058, 40.733036110000057 ], [ 27.298210391000055, 40.73038002100003 ], [ 27.286931929000048, 40.727722828000026 ], [ 27.275654363000058, 40.725064532000033 ], [ 27.264377696000054, 40.722405134000041 ], [ 27.253101926000056, 40.719744632000072 ], [ 27.241827054000055, 40.717083028000047 ], [ 27.23055308000005, 40.71442032200008 ], [ 27.21928000500003, 40.711756513000068 ], [ 27.208007828000063, 40.709091603000047 ], [ 27.196736550000026, 40.706425591000027 ], [ 27.185466172000076, 40.703758477000065 ], [ 27.174196692000066, 40.701090261000047 ], [ 27.162928112000031, 40.698420945000066 ], [ 27.151660432000028, 40.69575052700003 ], [ 27.140393652000057, 40.693079008000041 ], [ 27.129127772000061, 40.690406389000032 ], [ 27.117862792000039, 40.687732670000059 ], [ 27.106598713000039, 40.685057850000078 ], [ 27.095335535000061, 40.682381930000076 ], [ 27.084073258000046, 40.679704910000055 ], [ 27.072811882000053, 40.67702679000007 ], [ 27.061551407000024, 40.674347571000055 ], [ 27.050291834000063, 40.671667252000077 ], [ 27.039033163000056, 40.668985835000058 ], [ 27.027775394000059, 40.666303318000075 ], [ 27.016518527000073, 40.663619703000052 ], [ 27.005262563000031, 40.660934989000054 ], [ 26.994007502000045, 40.658249177000073 ], [ 26.98275334300007, 40.655562266000061 ], [ 26.971500088000028, 40.652874258000054 ], [ 26.960247735000053, 40.650185151000073 ], [ 26.948996287000057, 40.647494947000041 ], [ 26.937745742000061, 40.644803646000071 ], [ 26.926496101000055, 40.642111247000059 ], [ 26.915247364000038, 40.639417752000043 ], [ 26.903999532000057, 40.636723159000042 ], [ 26.892752604000066, 40.634027470000035 ], [ 26.881506581000053, 40.631330684000034 ], [ 26.870261464000066, 40.628632802000027 ], [ 26.859017251000068, 40.625933824000072 ], [ 26.847773944000039, 40.623233750000054 ], [ 26.836531542000046, 40.620532581000077 ], [ 26.825290046000077, 40.617830315000049 ], [ 26.814049457000067, 40.615126955000051 ], [ 26.802809773000035, 40.612422499000047 ], [ 26.791570996000075, 40.609716949000074 ], [ 26.780333126000073, 40.607010303000038 ], [ 26.769096162000039, 40.604302563000033 ], [ 26.757860106000066, 40.601593729000058 ], [ 26.746624957000051, 40.598883800000067 ], [ 26.73539071600004, 40.596172778000039 ], [ 26.724157382000044, 40.593460661000051 ], [ 26.712924956000052, 40.590747452000073 ], [ 26.701693438000063, 40.588033148000079 ], [ 26.690462829000069, 40.585317752000037 ], [ 26.679233128000078, 40.582601262000026 ], [ 26.668004335000035, 40.579883679000034 ], [ 26.656776452000031, 40.577165004000051 ], [ 26.645549478000078, 40.574445237000077 ], [ 26.634323413000061, 40.571724377000066 ], [ 26.623098258000027, 40.569002425000065 ], [ 26.611874012000044, 40.566279381000072 ], [ 26.600650677000033, 40.563555245000032 ], [ 26.589428251000072, 40.560830018000047 ], [ 26.578206736000027, 40.558103700000061 ], [ 26.566986132000068, 40.555376291000073 ], [ 26.555766438000035, 40.552647790000037 ], [ 26.544547655000031, 40.549918199000047 ], [ 26.533329784000045, 40.547187517000054 ], [ 26.522112823000043, 40.54445574500005 ], [ 26.510896775000049, 40.541722883000034 ], [ 26.499681638000027, 40.538988931000063 ], [ 26.488467413000023, 40.536253889000079 ], [ 26.477254100000039, 40.533517757000027 ], [ 26.466041700000062, 40.530780536000066 ], [ 26.454830212000047, 40.528042226000025 ], [ 26.44361963700004, 40.525302827000075 ], [ 26.432409975000041, 40.522562339000046 ], [ 26.421201226000051, 40.519820762000052 ], [ 26.409993391000057, 40.517078097000081 ], [ 26.398786469000072, 40.514334344000076 ], [ 26.387580461000027, 40.511589502000049 ], [ 26.376375366000048, 40.508843573000036 ], [ 26.365171186000055, 40.506096556000045 ], [ 26.353967921000049, 40.503348452000068 ], [ 26.34276557000004, 40.500599260000058 ], [ 26.331564133000029, 40.497848981000061 ], [ 26.320363612000051, 40.495097616000066 ], [ 26.30916400600006, 40.492345163000039 ], [ 26.297965315000056, 40.48959162500006 ], [ 26.286767540000028, 40.486836999000047 ], [ 26.275570680000044, 40.484081288000027 ], [ 26.264374736000036, 40.481324491000066 ], [ 26.253179709000051, 40.478566608000051 ], [ 26.241985598000042, 40.475807639000038 ], [ 26.230792403000066, 40.473047585000074 ], [ 26.219600125000056, 40.470286446000046 ], [ 26.208408765000058, 40.467524222000065 ], [ 26.197218321000037, 40.464760914000067 ], [ 26.186028794000038, 40.461996520000071 ], [ 26.17484018500005, 40.459231042000056 ], [ 26.163652494000075, 40.456464480000079 ], [ 26.152465721000056, 40.453696834000027 ], [ 26.141279865000058, 40.45092810500006 ], [ 26.130094928000062, 40.448158291000027 ], [ 26.118910910000068, 40.445387394000079 ], [ 26.107727810000029, 40.442615414000045 ], [ 26.096545629000047, 40.439842351000038 ], [ 26.085364367000068, 40.43706820500006 ], [ 26.074184024000033, 40.434292977000041 ], [ 26.063004601000046, 40.43151666600005 ], [ 26.051826098000049, 40.42873927200003 ], [ 26.040648514000054, 40.425960797000073 ], [ 26.02947185000005, 40.42318123900003 ], [ 26.018296107000026, 40.42040060000005 ], [ 26.00712128400005, 40.417618880000077 ], [ 25.995947381000065, 40.414836078000064 ], [ 25.984774399000059, 40.412052195000058 ], [ 25.973602339000024, 40.409267232000047 ], [ 25.962431199000036, 40.406481187000054 ], [ 25.951260981000075, 40.403694062000056 ], [ 25.940091684000038, 40.400905857000055 ], [ 25.928923309000027, 40.39811657100006 ], [ 25.917755856000042, 40.39532620600005 ], [ 25.906589325000027, 40.392534760000046 ], [ 25.895423717000028, 40.389742236000075 ], [ 25.884259031000056, 40.386948632000042 ], [ 25.873095267000053, 40.384153948000062 ], [ 25.861932427000056, 40.381358186000057 ], [ 25.850770509000029, 40.378561345000037 ], [ 25.839609515000063, 40.375763425000059 ], [ 25.828449444000057, 40.372964427000056 ], [ 25.817290297000056, 40.370164351000028 ], [ 25.806132074000061, 40.367363197000032 ], [ 25.794974774000025, 40.364560965000067 ], [ 25.78381839900004, 40.361757655000076 ], [ 25.772662948000061, 40.35895326800005 ], [ 25.761508422000077, 40.356147804000045 ], [ 25.75035482100003, 40.353341262000072 ], [ 25.739202144000046, 40.350533644000052 ], [ 25.728050393000046, 40.347724949000053 ], [ 25.716899566000052, 40.344915178000065 ], [ 25.705749666000031, 40.342104330000041 ], [ 25.694600691000062, 40.339292407000073 ], [ 25.683452642000077, 40.33647940700007 ], [ 25.672305519000076, 40.333665332000066 ], [ 25.66115932200006, 40.330850181000073 ], [ 25.650014051000028, 40.32803395500008 ], [ 25.638869707000026, 40.32521665400003 ], [ 25.627726290000055, 40.322398278000037 ], [ 25.616583800000058, 40.319578828000033 ], [ 25.605442237000034, 40.316758303000029 ], [ 25.59430160200003, 40.313936703000024 ], [ 25.583161894000057, 40.311114030000056 ], [ 25.572023113000057, 40.30829028200003 ], [ 25.560885261000067, 40.30546546100004 ], [ 25.54974833600005, 40.302639566000039 ], [ 25.538612340000043, 40.299812598000074 ], [ 25.527477272000056, 40.29698455700003 ], [ 25.516343133000078, 40.294155443000079 ], [ 25.505209923000052, 40.29132525600005 ], [ 25.494077641000047, 40.288493996000057 ], [ 25.48294628900004, 40.285661664000031 ], [ 25.471815866000043, 40.282828260000031 ], [ 25.460686373000044, 40.279993784000055 ], [ 25.449557809000055, 40.277158237000037 ], [ 25.438430175000065, 40.274321617000055 ], [ 25.427303471000073, 40.27148392600003 ], [ 25.41617769800007, 40.268645164000077 ], [ 25.405052854000076, 40.26580533200007 ], [ 25.393928942000059, 40.262964428000032 ], [ 25.382805960000042, 40.260122453000065 ], [ 25.371683909000069, 40.257279409000034 ], [ 25.360562789000028, 40.254435294000075 ], [ 25.349442601000078, 40.251590109000063 ], [ 25.338323344000059, 40.248743854000054 ], [ 25.327205019000075, 40.245896529000049 ], [ 25.316087625000023, 40.243048135000038 ], [ 25.304971164000051, 40.240198672000076 ], [ 25.293855635000057, 40.237348140000051 ], [ 25.28274103800004, 40.234496539000077 ], [ 25.271627374000047, 40.231643869000038 ], [ 25.260514642000032, 40.228790131000039 ], [ 25.249402843000041, 40.22593532500008 ], [ 25.238291978000063, 40.223079450000057 ], [ 25.227182045000063, 40.220222508000063 ], [ 25.216073046000076, 40.217364498000052 ], [ 25.204964981000046, 40.21450542000008 ], [ 25.193857850000029, 40.21164527500008 ], [ 25.182751652000036, 40.208784063000053 ], [ 25.171646389000045, 40.205921785000044 ], [ 25.160542059000079, 40.203058439000074 ], [ 25.149438665000048, 40.200194027000066 ], [ 25.13833620500003, 40.197328549000076 ], [ 25.127234679000026, 40.194462004000059 ], [ 25.11613408900007, 40.191594394000049 ], [ 25.105034434000061, 40.188725718000057 ], [ 25.093935715000043, 40.185855976000028 ], [ 25.082837930000039, 40.182985169000062 ], [ 25.071741082000074, 40.180113297000048 ], [ 25.060645169000054, 40.177240360000042 ], [ 25.049550193000073, 40.174366359000032 ], [ 25.038456153000027, 40.171491292000042 ], [ 25.02736304900003, 40.168615162000037 ], [ 25.016270881000025, 40.165737967000041 ], [ 25.005179650000059, 40.162859708000042 ], [ 24.994089357000064, 40.159980386000029 ], [ 24.983, 40.1571 ] ] } },
{ "type": "Feature", "properties": { "LonA": 25.9968, "LatA": 39.6116, "LonB": 24.8449, "LatB": 38.9874, "SS_ID": 1052.0, "Shape_Leng": 1.3101648779599999 }, "geometry": { "type": "LineString", "coordinates": [ [ 25.9968, 39.6116 ], [ 25.987274734000039, 39.60653050600007 ], [ 25.977750858000036, 39.601460226000029 ], [ 25.968228371000066, 39.596389162000037 ], [ 25.958707272000026, 39.591317313000047 ], [ 25.949187562000077, 39.58624467900006 ], [ 25.939669240000057, 39.581171261000065 ], [ 25.930152306000025, 39.576097059000062 ], [ 25.920636760000036, 39.571022074000041 ], [ 25.911122601000045, 39.565946305000068 ], [ 25.901609830000041, 39.560869753000077 ], [ 25.892098446000034, 39.555792418000067 ], [ 25.882588448000035, 39.550714300000038 ], [ 25.873079837000034, 39.545635400000037 ], [ 25.863572613000031, 39.540555717000075 ], [ 25.854066775000035, 39.535475253000072 ], [ 25.844562322000058, 39.530394007000041 ], [ 25.835059255000033, 39.525311979000037 ], [ 25.825557573000026, 39.52022917100004 ], [ 25.816057277000027, 39.51514558100007 ], [ 25.806558365000058, 39.51006121100005 ], [ 25.79706083800005, 39.504976060000047 ], [ 25.787564696000061, 39.49989012900005 ], [ 25.778069938000044, 39.49480341800006 ], [ 25.768576563000067, 39.489715928000066 ], [ 25.759084573000052, 39.484627658000079 ], [ 25.749593965000031, 39.479538609000031 ], [ 25.740104741000039, 39.474448781000035 ], [ 25.73061690000003, 39.469358174000035 ], [ 25.72113044200006, 39.464266789000078 ], [ 25.711645366000027, 39.45917462500006 ], [ 25.702161672000045, 39.454081684000073 ], [ 25.692679361000046, 39.448987965000072 ], [ 25.683198431000051, 39.443893469000045 ], [ 25.673718883000049, 39.438798195000061 ], [ 25.664240715000062, 39.433702145000041 ], [ 25.654763929000069, 39.428605318000052 ], [ 25.645288524000023, 39.423507714000039 ], [ 25.635814500000038, 39.418409334000046 ], [ 25.626341855000078, 39.413310179000064 ], [ 25.616870591000065, 39.408210248000046 ], [ 25.607400706000078, 39.403109541000049 ], [ 25.597932201000049, 39.398008059000063 ], [ 25.588465076000034, 39.39290580200003 ], [ 25.578999329000055, 39.387802771000054 ], [ 25.569534962000034, 39.382698965000031 ], [ 25.560071973000049, 39.377594385000066 ], [ 25.550610362000043, 39.372489031000043 ], [ 25.541150130000062, 39.367382903000077 ], [ 25.531691275000071, 39.362276002000044 ], [ 25.522233798000059, 39.357168328000057 ], [ 25.512777698000036, 39.352059881000059 ], [ 25.503322976000049, 39.346950661000051 ], [ 25.493869630000063, 39.341840668000032 ], [ 25.484417662000055, 39.336729904000038 ], [ 25.474967069000058, 39.331618368000079 ], [ 25.465517853000051, 39.326506060000042 ], [ 25.456070013000044, 39.321392980000041 ], [ 25.446623548000048, 39.316279130000055 ], [ 25.437178459000052, 39.311164508000047 ], [ 25.427734745000066, 39.306049116000054 ], [ 25.418292406000035, 39.300932953000029 ], [ 25.408851441000024, 39.295816020000075 ], [ 25.399411851000025, 39.290698317000079 ], [ 25.389973636000036, 39.285579845000029 ], [ 25.380536794000022, 39.280460603000051 ], [ 25.37110132600003, 39.275340592000077 ], [ 25.361667232000059, 39.27021981200005 ], [ 25.352234510000073, 39.265098263000027 ], [ 25.342803162000052, 39.259975946000054 ], [ 25.333373187000063, 39.254852861000074 ], [ 25.32394458400006, 39.249729008000031 ], [ 25.314517353000042, 39.244604387000038 ], [ 25.305091494000067, 39.239478998000038 ], [ 25.295667007000077, 39.234352843000067 ], [ 25.286243892000073, 39.229225920000033 ], [ 25.276822148000065, 39.224098231000028 ], [ 25.267401775000053, 39.218969775000062 ], [ 25.257982772000048, 39.213840553000068 ], [ 25.248565141000029, 39.208710565000047 ], [ 25.239148879000027, 39.203579812000044 ], [ 25.229733988000078, 39.198448293000069 ], [ 25.220320466000032, 39.193316008000068 ], [ 25.210908314000051, 39.188182959000073 ], [ 25.20149753100003, 39.183049145000041 ], [ 25.192088118000072, 39.177914567000073 ], [ 25.182680073000029, 39.172779224000067 ], [ 25.17327339600007, 39.167643118000058 ], [ 25.163868089000061, 39.162506247000067 ], [ 25.154464149000034, 39.157368614000063 ], [ 25.145061577000035, 39.152230216000078 ], [ 25.135660372000075, 39.147091056000079 ], [ 25.126260535000029, 39.141951134000067 ], [ 25.116862065000078, 39.136810448000062 ], [ 25.107464962000051, 39.131669001000034 ], [ 25.098069225000074, 39.12652679100006 ], [ 25.088674855000079, 39.121383820000062 ], [ 25.079281850000029, 39.116240087000051 ], [ 25.069890212000075, 39.111095593000073 ], [ 25.060499939000067, 39.105950338000071 ], [ 25.051111032000051, 39.100804322000045 ], [ 25.041723490000038, 39.095657546000041 ], [ 25.032337312000038, 39.09051001000006 ], [ 25.022952499000041, 39.085361713000054 ], [ 25.013569051000047, 39.080212657000061 ], [ 25.004186966000077, 39.075062841000033 ], [ 24.994806246000053, 39.069912265000028 ], [ 24.985426889000053, 39.06476093100008 ], [ 24.976048895000076, 39.059608838000031 ], [ 24.966672265000057, 39.05445598700004 ], [ 24.957296998000061, 39.04930237700006 ], [ 24.947923093000043, 39.044148009000025 ], [ 24.938550550000059, 39.038992883000049 ], [ 24.929179370000043, 39.033837 ], [ 24.919809551000071, 39.028680359000077 ], [ 24.910441094000078, 39.023522961000026 ], [ 24.901073999000062, 39.018364807000069 ], [ 24.891708264000044, 39.013205896000045 ], [ 24.882343891000062, 39.008046228000069 ], [ 24.872980878000078, 39.002885805000062 ], [ 24.863619225000036, 38.997724625000046 ], [ 24.85425893300004, 38.992562690000057 ], [ 24.8449, 38.9874 ] ] } },
{ "type": "Feature", "properties": { "LonA": 21.3135, "LatA": 38.424, "LonB": 21.0415, "LatB": 38.9494, "SS_ID": 1114.0, "Shape_Leng": 0.59163366373000004 }, "geometry": { "type": "LineString", "coordinates": [ [ 21.3135, 38.424 ], [ 21.309213452000051, 38.432344967000063 ], [ 21.304925917000048, 38.440689765000059 ], [ 21.300637394000034, 38.44903439400008 ], [ 21.296347884000056, 38.457378854000069 ], [ 21.292057385000078, 38.465723145000027 ], [ 21.287765897000043, 38.474067267000066 ], [ 21.283473421000053, 38.482411220000074 ], [ 21.279179954000028, 38.490755003000061 ], [ 21.274885497000071, 38.499098618000062 ], [ 21.270590049000077, 38.507442063000042 ], [ 21.266293609000058, 38.515785338000057 ], [ 21.261996178000061, 38.524128444000041 ], [ 21.257697754000048, 38.532471380000061 ], [ 21.253398338000068, 38.540814146000059 ], [ 21.249097928000026, 38.549156743000026 ], [ 21.244796524000037, 38.557499169000039 ], [ 21.240494126000044, 38.565841426000077 ], [ 21.236190733000058, 38.574183513000037 ], [ 21.231886344000031, 38.582525429000043 ], [ 21.227580959000022, 38.590867175000028 ], [ 21.22327457800003, 38.599208751000049 ], [ 21.218967200000066, 38.607550156000059 ], [ 21.214658825000072, 38.615891391000048 ], [ 21.21034945100007, 38.624232455000026 ], [ 21.20603907900005, 38.63257334900004 ], [ 21.201727708000078, 38.640914072000044 ], [ 21.197415338000042, 38.649254624000037 ], [ 21.193101968000065, 38.657595005000076 ], [ 21.188787597000044, 38.665935215000047 ], [ 21.184472225000036, 38.674275254000065 ], [ 21.180155851000052, 38.682615122000072 ], [ 21.175838475000035, 38.69095481800008 ], [ 21.171520097000041, 38.699294343000076 ], [ 21.167200716000025, 38.707633697000063 ], [ 21.162880331000054, 38.715972879000049 ], [ 21.15855894200007, 38.724311890000024 ], [ 21.154236548000029, 38.732650729000056 ], [ 21.149913149000042, 38.740989396000032 ], [ 21.145588745000055, 38.749327891000064 ], [ 21.14126333400003, 38.757666215000029 ], [ 21.136936917000071, 38.766004366000061 ], [ 21.132609492000029, 38.774342345000036 ], [ 21.128281060000063, 38.782680152000069 ], [ 21.123951620000071, 38.791017787000044 ], [ 21.119621171000063, 38.79935524900003 ], [ 21.115289712000049, 38.807692539000072 ], [ 21.110957244000076, 38.816029657000058 ], [ 21.106623765000052, 38.824366601000065 ], [ 21.102289276000022, 38.832703373000072 ], [ 21.097953775000065, 38.841039973000079 ], [ 21.093617263000056, 38.84937639900005 ], [ 21.089279738000073, 38.857712652000032 ], [ 21.08494120000006, 38.866048733000071 ], [ 21.080601649000073, 38.874384640000073 ], [ 21.076261084000066, 38.88272037400003 ], [ 21.07191950400005, 38.891055935000054 ], [ 21.067576910000071, 38.899391322000042 ], [ 21.063233300000036, 38.907726536000041 ], [ 21.058888674000059, 38.916061576000061 ], [ 21.054543032000026, 38.924396443000035 ], [ 21.050196372000073, 38.932731136000029 ], [ 21.045848695000075, 38.941065655000045 ], [ 21.0415, 38.9494 ] ] } },
{ "type": "Feature", "properties": { "LonA": 19.987, "LatA": 37.7434, "LonB": 20.639, "LatB": 38.9478, "SS_ID": 1130.0, "Shape_Leng": 1.3695691056099999 }, "geometry": { "type": "LineString", "coordinates": [ [ 19.987, 37.7434 ], [ 19.991393180000046, 37.751662334000059 ], [ 19.995787338000071, 37.759924493000028 ], [ 20.000182473000052, 37.768186477000029 ], [ 20.004578586000036, 37.776448285000072 ], [ 20.00897567800007, 37.784709917000043 ], [ 20.013373748000049, 37.792971374000047 ], [ 20.017772799000056, 37.801232655000035 ], [ 20.022172829000056, 37.809493760000066 ], [ 20.026573840000026, 37.817754688000036 ], [ 20.030975832000024, 37.826015441000038 ], [ 20.03537880500005, 37.834276018000025 ], [ 20.039782760000037, 37.842536418000066 ], [ 20.04418769800003, 37.850796642000034 ], [ 20.04859361900003, 37.859056690000045 ], [ 20.053000523000037, 37.867316561000052 ], [ 20.05740841100004, 37.875576255000055 ], [ 20.061817283000039, 37.883835773000044 ], [ 20.06622714100007, 37.892095114000028 ], [ 20.07063798400003, 37.900354279000055 ], [ 20.075049813000078, 37.908613266000032 ], [ 20.079462628000044, 37.916872076000061 ], [ 20.083876430000032, 37.92513070900003 ], [ 20.088291220000031, 37.933389165000051 ], [ 20.09270699700005, 37.941647444000068 ], [ 20.09712376300007, 37.949905545000036 ], [ 20.101541518000033, 37.958163469000056 ], [ 20.105960262000053, 37.966421215000025 ], [ 20.110379996000063, 37.974678783000059 ], [ 20.114800720000062, 37.982936174000031 ], [ 20.11922243500004, 37.991193387000067 ], [ 20.123645142000044, 37.999450423000042 ], [ 20.128068841000072, 38.007707280000034 ], [ 20.132493531000023, 38.015963959000032 ], [ 20.136919215000034, 38.024220460000038 ], [ 20.141345892000061, 38.03247678300005 ], [ 20.145773563000034, 38.040732927000079 ], [ 20.150202228000069, 38.048988893000057 ], [ 20.15463188800004, 38.057244681000043 ], [ 20.159062544000051, 38.065500290000045 ], [ 20.163494195000055, 38.073755720000065 ], [ 20.167926843000032, 38.082010971000045 ], [ 20.172360487000049, 38.090266044000032 ], [ 20.176795129000027, 38.098520938000036 ], [ 20.181230769000024, 38.106775653000057 ], [ 20.18566740600005, 38.115030188000048 ], [ 20.190105043000074, 38.123284545000047 ], [ 20.194543679000049, 38.131538722000073 ], [ 20.198983315000078, 38.13979271900007 ], [ 20.203423952000037, 38.148046538000074 ], [ 20.20786558900005, 38.156300176000059 ], [ 20.21230822800004, 38.164553635000061 ], [ 20.216751868000074, 38.172806915000081 ], [ 20.221196511000073, 38.181060014000025 ], [ 20.225642156000049, 38.189312934000043 ], [ 20.230088805000037, 38.197565674000032 ], [ 20.234536458000036, 38.205818233000059 ], [ 20.238985115000048, 38.214070613000047 ], [ 20.243434777000061, 38.222322812000073 ], [ 20.247885445000065, 38.230574831000069 ], [ 20.252337118000071, 38.238826669000048 ], [ 20.256789798000057, 38.247078327000054 ], [ 20.261243484000033, 38.255329804000041 ], [ 20.265698178000036, 38.263581101000057 ], [ 20.270153880000066, 38.271832217000053 ], [ 20.274610590000066, 38.280083152000032 ], [ 20.279068309000024, 38.288333906000048 ], [ 20.283527038000045, 38.296584479000046 ], [ 20.287986776000025, 38.304834870000036 ], [ 20.292447525000057, 38.313085081000054 ], [ 20.296909285000027, 38.321335110000064 ], [ 20.301372056000048, 38.329584958000055 ], [ 20.305835839000054, 38.337834624000038 ], [ 20.310300635000033, 38.34608410900006 ], [ 20.314766444000043, 38.354333412000074 ], [ 20.319233266000026, 38.362582534000069 ], [ 20.32370110200003, 38.370831473000067 ], [ 20.328169952000053, 38.379080231000046 ], [ 20.332639818000075, 38.387328807000074 ], [ 20.33711069900005, 38.395577200000048 ], [ 20.341582596000023, 38.403825411000071 ], [ 20.346055509000053, 38.412073440000029 ], [ 20.350529440000059, 38.420321287000036 ], [ 20.355004388000054, 38.428568951000045 ], [ 20.359480354000027, 38.436816433000047 ], [ 20.363957339000024, 38.445063732000051 ], [ 20.368435343000044, 38.453310848000058 ], [ 20.372914366000032, 38.461557781000067 ], [ 20.377394410000022, 38.469804532000069 ], [ 20.381875474000026, 38.478051099000027 ], [ 20.386357559000032, 38.486297484000033 ], [ 20.390840666000031, 38.494543685000053 ], [ 20.395324795000022, 38.502789703000076 ], [ 20.399809947000051, 38.511035537000055 ], [ 20.404296122000062, 38.519281188000036 ], [ 20.408783321000044, 38.527526656000077 ], [ 20.413271544000054, 38.535771940000075 ], [ 20.417760791000035, 38.544017040000028 ], [ 20.422251064000022, 38.552261956000052 ], [ 20.426742363000074, 38.560506689000078 ], [ 20.431234687000028, 38.568751237000072 ], [ 20.435728039000026, 38.576995602000068 ], [ 20.440222418000076, 38.585239782000031 ], [ 20.444717825000055, 38.593483778000063 ], [ 20.449214260000076, 38.601727589000063 ], [ 20.453711724000073, 38.609971217000066 ], [ 20.458210217000044, 38.618214659000046 ], [ 20.462709740000037, 38.626457917000039 ], [ 20.46721029400004, 38.634700991000045 ], [ 20.471711878000065, 38.642943879000029 ], [ 20.476214494000033, 38.651186583000026 ], [ 20.480718142000057, 38.659429101000057 ], [ 20.485222822000026, 38.667671435000045 ], [ 20.48972853500004, 38.675913583000067 ], [ 20.494235282000034, 38.684155546000056 ], [ 20.498743063000063, 38.692397324000069 ], [ 20.503251879000061, 38.700638916000059 ], [ 20.507761729000038, 38.708880323000074 ], [ 20.512272615000029, 38.717121544000065 ], [ 20.516784538000024, 38.725362579000034 ], [ 20.521297496000045, 38.733603429000027 ], [ 20.525811492000059, 38.741844093000054 ], [ 20.530326526000067, 38.75008457000007 ], [ 20.534842598000068, 38.758324862000052 ], [ 20.539359709000053, 38.766564968000068 ], [ 20.54387785800003, 38.774804887000073 ], [ 20.548397048000027, 38.783044620000055 ], [ 20.552917278000052, 38.791284166000025 ], [ 20.55743854900004, 38.79952352600003 ], [ 20.561960861000045, 38.807762699000079 ], [ 20.56648421500006, 38.81600168500006 ], [ 20.571008611000025, 38.824240485000075 ], [ 20.575534050000044, 38.832479098000078 ], [ 20.580060533000051, 38.84071752400007 ], [ 20.584588060000044, 38.84895576200006 ], [ 20.589116631000024, 38.857193814000027 ], [ 20.593646247000038, 38.86543167800005 ], [ 20.598176909000074, 38.873669355000061 ], [ 20.602708616000029, 38.881906844000071 ], [ 20.607241371000043, 38.890144146000068 ], [ 20.611775172000023, 38.898381260000065 ], [ 20.616310021000061, 38.906618187000049 ], [ 20.620845919000033, 38.914854926000032 ], [ 20.625382865000063, 38.923091476000025 ], [ 20.629920860000027, 38.931327839000062 ], [ 20.634459905000028, 38.939564014000041 ], [ 20.639, 38.9478 ] ] } },
{ "type": "Feature", "properties": { "LonA": 25.7564, "LatA": 34.9264, "LonB": 24.0122, "LatB": 34.5423, "SS_ID": 1154.0, "Shape_Leng": 1.78600987019 }, "geometry": { "type": "LineString", "coordinates": [ [ 25.7564, 34.9264 ], [ 25.745844780000027, 34.924161281000067 ], [ 25.735290134000024, 34.921921645000054 ], [ 25.724736062000034, 34.919681091000029 ], [ 25.714182563000065, 34.917439619000049 ], [ 25.703629638000052, 34.915197231000036 ], [ 25.693077287000051, 34.912953925000068 ], [ 25.682525510000062, 34.910709702000077 ], [ 25.671974308000074, 34.908464562000063 ], [ 25.661423680000041, 34.906218506000073 ], [ 25.650873627000067, 34.90397153300006 ], [ 25.640324149000037, 34.901723643000025 ], [ 25.629775246000065, 34.899474837000071 ], [ 25.619226918000038, 34.897225115000026 ], [ 25.608679165000069, 34.894974476000073 ], [ 25.598131988000034, 34.892722922000075 ], [ 25.587585386000057, 34.890470451000056 ], [ 25.577039360000072, 34.888217065000049 ], [ 25.566493910000077, 34.885962763000066 ], [ 25.555949036000072, 34.883707546000039 ], [ 25.545404738000059, 34.881451413000036 ], [ 25.534861017000026, 34.879194365000046 ], [ 25.52431787200004, 34.876936402000069 ], [ 25.513775304000035, 34.874677523000059 ], [ 25.503233313000067, 34.872417730000052 ], [ 25.492691899000079, 34.870157022000058 ], [ 25.482151062000071, 34.867895400000066 ], [ 25.471610802000043, 34.86563286300003 ], [ 25.461071120000042, 34.863369411000065 ], [ 25.450532015000078, 34.861105046000034 ], [ 25.439993488000027, 34.858839766000074 ], [ 25.42945553900006, 34.856573572000059 ], [ 25.418918168000062, 34.854306464000047 ], [ 25.408381376000023, 34.852038443000026 ], [ 25.397845161000077, 34.849769508000065 ], [ 25.387309526000024, 34.84749965900005 ], [ 25.376774468000065, 34.845228897000027 ], [ 25.366239990000054, 34.842957222000052 ], [ 25.355706091000059, 34.840684633000023 ], [ 25.345172771000023, 34.838411132000033 ], [ 25.33464003000006, 34.836136718000034 ], [ 25.324107868000056, 34.833861391000028 ], [ 25.313576286000057, 34.83158515100007 ], [ 25.303045284000063, 34.829307999000036 ], [ 25.292514862000075, 34.827029934000052 ], [ 25.281985020000036, 34.824750957000049 ], [ 25.271455758000059, 34.822471068000027 ], [ 25.26092707600003, 34.820190267000044 ], [ 25.250398975000053, 34.817908555000031 ], [ 25.23987145500007, 34.815625930000067 ], [ 25.229344515000037, 34.813342394000074 ], [ 25.218818156000054, 34.811057946000062 ], [ 25.208292378000067, 34.808772587000078 ], [ 25.197767182000064, 34.806486317000065 ], [ 25.187242567000055, 34.804199136000079 ], [ 25.176718534000031, 34.801911044000065 ], [ 25.166195082000058, 34.799622040000031 ], [ 25.15567221200007, 34.797332126000072 ], [ 25.145149924000066, 34.795041302000072 ], [ 25.134628218000046, 34.792749567000044 ], [ 25.124107095000056, 34.790456922000033 ], [ 25.113586553000061, 34.788163366000049 ], [ 25.10306659500003, 34.785868901000072 ], [ 25.092547219000039, 34.783573525000065 ], [ 25.082028426000079, 34.781277239000076 ], [ 25.071510217000025, 34.778980044000036 ], [ 25.060992590000069, 34.77668194000006 ], [ 25.050475547000076, 34.774382925000054 ], [ 25.039959087000057, 34.772083002000045 ], [ 25.029443211000057, 34.769782169000052 ], [ 25.018927918000031, 34.767480427000066 ], [ 25.008413210000072, 34.765177777000076 ], [ 24.997899085000029, 34.762874217000046 ], [ 24.987385545000052, 34.760569749000069 ], [ 24.976872589000038, 34.758264372000042 ], [ 24.966360218000034, 34.755958086000078 ], [ 24.955848431000049, 34.753650893000042 ], [ 24.945337230000064, 34.75134279100007 ], [ 24.934826613000041, 34.749033781000037 ], [ 24.924316581000028, 34.746723863000057 ], [ 24.91380713500007, 34.744413038000062 ], [ 24.903298273000075, 34.742101305000062 ], [ 24.892789998000069, 34.739788664000059 ], [ 24.882282308000072, 34.737475116000041 ], [ 24.871775204000073, 34.735160660000076 ], [ 24.861268686000074, 34.73284529700004 ], [ 24.850762754000073, 34.730529028000035 ], [ 24.84025740800007, 34.728211851000026 ], [ 24.829752649000056, 34.725893767000059 ], [ 24.819248477000031, 34.723574777000067 ], [ 24.80874489100006, 34.72125488100005 ], [ 24.798241892000078, 34.718934078000075 ], [ 24.787739480000027, 34.716612368000028 ], [ 24.777237655000079, 34.71428975300006 ], [ 24.766736417000061, 34.711966232000066 ], [ 24.756235767000078, 34.709641804000057 ], [ 24.745735704000026, 34.70731647100007 ], [ 24.735236230000055, 34.704990232000057 ], [ 24.724737343000072, 34.702663088000065 ], [ 24.714239044000067, 34.700335039000038 ], [ 24.703741333000039, 34.698006084000042 ], [ 24.693244210000046, 34.695676224000067 ], [ 24.682747676000076, 34.693345459000057 ], [ 24.672251731000074, 34.691013789000067 ], [ 24.661756374000049, 34.688681214000042 ], [ 24.651261607000038, 34.686347735000027 ], [ 24.640767428000061, 34.684013351000033 ], [ 24.630273838000051, 34.681678063000049 ], [ 24.619780838000054, 34.679341871000076 ], [ 24.609288427000024, 34.677004775000057 ], [ 24.598796606000064, 34.674666775000048 ], [ 24.588305375000061, 34.672327870000061 ], [ 24.577814733000025, 34.669988063000062 ], [ 24.567324682000049, 34.667647351000028 ], [ 24.556835220000039, 34.66530573600005 ], [ 24.546346349000032, 34.662963218000073 ], [ 24.535858069000028, 34.660619797000038 ], [ 24.525370379000037, 34.658275472000071 ], [ 24.51488327900006, 34.655930245000036 ], [ 24.504396771000074, 34.653584114000068 ], [ 24.493910854000035, 34.65123708200008 ], [ 24.483425528000055, 34.648889146000045 ], [ 24.472940793000078, 34.646540308000056 ], [ 24.462456650000036, 34.644190568000056 ], [ 24.451973098000053, 34.641839926000046 ], [ 24.441490138000063, 34.639488381000035 ], [ 24.431007770000065, 34.63713593500006 ], [ 24.420525994000059, 34.634782587000075 ], [ 24.410044810000045, 34.632428337000078 ], [ 24.399564218000023, 34.630073186000061 ], [ 24.38908421900004, 34.627717133000033 ], [ 24.378604813000038, 34.62536017900004 ], [ 24.368125999000029, 34.623002324000026 ], [ 24.357647778000057, 34.620643568000048 ], [ 24.347170150000068, 34.618283911000049 ], [ 24.33669311500006, 34.615923354000074 ], [ 24.326216673000033, 34.613561895000032 ], [ 24.315740825000034, 34.611199537000061 ], [ 24.305265571000064, 34.60883627700008 ], [ 24.294790910000074, 34.606472118000056 ], [ 24.284316843000056, 34.604107059000057 ], [ 24.273843370000066, 34.601741099000037 ], [ 24.263370491000046, 34.599374240000031 ], [ 24.252898207000044, 34.597006481000051 ], [ 24.242426517000069, 34.594637822000038 ], [ 24.231955421000066, 34.59226826400004 ], [ 24.221484920000023, 34.589897807000057 ], [ 24.211015014000054, 34.587526450000041 ], [ 24.200545703000046, 34.58515419500003 ], [ 24.190076987000054, 34.582781040000043 ], [ 24.179608866000024, 34.58040698700006 ], [ 24.169141341000056, 34.578032035000035 ], [ 24.15867441100005, 34.575656184000024 ], [ 24.148208077000049, 34.573279435000074 ], [ 24.137742338000066, 34.570901788000072 ], [ 24.127277196000023, 34.568523242000026 ], [ 24.116812650000043, 34.566143798000041 ], [ 24.106348699000023, 34.56376345700005 ], [ 24.095885346000046, 34.561382218000062 ], [ 24.085422588000029, 34.559000081000079 ], [ 24.074960428000054, 34.556617047000032 ], [ 24.064498864000029, 34.554233115000045 ], [ 24.054037896000068, 34.551848286000052 ], [ 24.043577526000036, 34.549462560000052 ], [ 24.033117754000045, 34.547075937000045 ], [ 24.022658578000062, 34.544688417000032 ], [ 24.0122, 34.5423 ] ] } },
{ "type": "Feature", "properties": { "LonA": 28.6553, "LatA": 36.5079, "LonB": 27.3522, "LatB": 35.3767, "SS_ID": 1160.0, "Shape_Leng": 1.72562633896 }, "geometry": { "type": "LineString", "coordinates": [ [ 28.6553, 36.5079 ], [ 28.647615468000026, 36.501365229000044 ], [ 28.639932228000077, 36.494829955000057 ], [ 28.632250279000061, 36.488294180000025 ], [ 28.624569621000035, 36.481757903000073 ], [ 28.616890252000076, 36.475221124000029 ], [ 28.609212174000049, 36.468683844000054 ], [ 28.601535384000044, 36.462146064000024 ], [ 28.59385988400004, 36.455607782000072 ], [ 28.586185672000056, 36.449069 ], [ 28.578512748000037, 36.44252971700007 ], [ 28.570841112000039, 36.435989934000077 ], [ 28.563170763000073, 36.429449651000027 ], [ 28.555501701000026, 36.422908868000036 ], [ 28.547833925000077, 36.416367585000046 ], [ 28.540167435000058, 36.409825803000047 ], [ 28.532502230000034, 36.403283522000038 ], [ 28.524838310000064, 36.396740741000031 ], [ 28.517175676000079, 36.39019746200006 ], [ 28.509514325000055, 36.38365368400008 ], [ 28.501854258000037, 36.377109408000024 ], [ 28.494195474000037, 36.370564633000072 ], [ 28.486537974000044, 36.364019360000043 ], [ 28.478881756000078, 36.357473590000041 ], [ 28.471226820000027, 36.350927321000029 ], [ 28.463573165000071, 36.344380556000033 ], [ 28.455920792000029, 36.337833293000074 ], [ 28.448269700000026, 36.331285533000027 ], [ 28.440619888000072, 36.324737276000064 ], [ 28.432971356000053, 36.318188522000071 ], [ 28.425324104000026, 36.311639272000036 ], [ 28.41767813000007, 36.305089525000028 ], [ 28.410033436000049, 36.298539283000025 ], [ 28.402390019000052, 36.291988544000048 ], [ 28.394747881000058, 36.285437310000077 ], [ 28.38710702000003, 36.278885580000065 ], [ 28.379467436000027, 36.272333356000047 ], [ 28.371829128000059, 36.265780636000045 ], [ 28.364192097000057, 36.259227421000048 ], [ 28.356556341000044, 36.252673711000057 ], [ 28.348921861000065, 36.24611950700006 ], [ 28.341288655000028, 36.239564808000068 ], [ 28.333656724000036, 36.233009616000061 ], [ 28.326026067000043, 36.226453929000058 ], [ 28.31839668300006, 36.21989774900004 ], [ 28.310768573000075, 36.213341075000073 ], [ 28.303141736000043, 36.206783908000034 ], [ 28.295516170000042, 36.200226248000035 ], [ 28.28789187700005, 36.193668095000078 ], [ 28.280268855000031, 36.187109449000047 ], [ 28.272647104000043, 36.180550310000058 ], [ 28.265026624000029, 36.173990679000042 ], [ 28.257407414000056, 36.167430556000056 ], [ 28.249789474000067, 36.160869941000044 ], [ 28.242172804000063, 36.154308835000052 ], [ 28.234557402000064, 36.147747236000043 ], [ 28.22694326900006, 36.141185147000044 ], [ 28.219330403000072, 36.134622566000075 ], [ 28.211718806000079, 36.12805949400007 ], [ 28.204108476000044, 36.121495932000073 ], [ 28.196499412000037, 36.114931879000039 ], [ 28.188891615000045, 36.108367335000025 ], [ 28.18128508500007, 36.101802301000077 ], [ 28.173679819000029, 36.095236778000071 ], [ 28.166075819000071, 36.088670764000028 ], [ 28.158473083000047, 36.08210426100004 ], [ 28.15087161200006, 36.075537268000062 ], [ 28.143271405000064, 36.068969786000025 ], [ 28.13567246100007, 36.062401816000033 ], [ 28.128074780000077, 36.055833356000051 ], [ 28.120478362000028, 36.049264408000056 ], [ 28.112883206000049, 36.04269497100006 ], [ 28.105289312000025, 36.036125046000052 ], [ 28.097696679000023, 36.029554633000032 ], [ 28.090105307000044, 36.022983732000057 ], [ 28.082515196000031, 36.016412344000059 ], [ 28.074926345000051, 36.00984046800005 ], [ 28.067338753000058, 36.003268104000028 ], [ 28.059752421000042, 35.996695254000031 ], [ 28.052167347000079, 35.990121917000067 ], [ 28.044583532000047, 35.983548093000024 ], [ 28.037000975000069, 35.976973782000073 ], [ 28.029419676000032, 35.970398985000031 ], [ 28.02183963300007, 35.96382370300006 ], [ 28.014260848000049, 35.957247934000065 ], [ 28.006683318000057, 35.950671679000038 ], [ 27.999107045000073, 35.944094939000024 ], [ 27.991532027000062, 35.93751771400008 ], [ 27.983958264000023, 35.930940003000046 ], [ 27.97638575600007, 35.924361808000072 ], [ 27.968814502000043, 35.917783128000053 ], [ 27.961244502000056, 35.911203963000048 ], [ 27.953675755000063, 35.904624314000046 ], [ 27.946108261000063, 35.898044181000046 ], [ 27.938542020000057, 35.891463563000059 ], [ 27.930977031000054, 35.884882462000064 ], [ 27.923413293000067, 35.878300877000072 ], [ 27.915850807000027, 35.871718809000072 ], [ 27.908289572000058, 35.865136258000064 ], [ 27.900729587000058, 35.858553224000048 ], [ 27.893170852000026, 35.85196970700008 ], [ 27.885613367000076, 35.845385707000048 ], [ 27.878057131000048, 35.838801225000054 ], [ 27.870502143000067, 35.832216260000052 ], [ 27.862948405000054, 35.825630814000078 ], [ 27.855395914000042, 35.819044885000039 ], [ 27.847844670000029, 35.812458475000028 ], [ 27.840294674000063, 35.805871584000045 ], [ 27.832745924000051, 35.799284211000042 ], [ 27.825198421000039, 35.792696357000068 ], [ 27.817652163000048, 35.786108022000064 ], [ 27.810107151000068, 35.779519206000032 ], [ 27.802563384000052, 35.772929910000073 ], [ 27.795020862000058, 35.766340134000075 ], [ 27.787479583000049, 35.759749878000036 ], [ 27.779939549000062, 35.753159141000026 ], [ 27.77240075800006, 35.746567925000079 ], [ 27.764863209000055, 35.739976229000035 ], [ 27.757326904000024, 35.733384054000055 ], [ 27.749791840000057, 35.726791399000035 ], [ 27.74225801800003, 35.720198266000068 ], [ 27.734725437000066, 35.713604654000051 ], [ 27.727194097000051, 35.70701056300004 ], [ 27.719663998000044, 35.700415994000025 ], [ 27.712135138000065, 35.693820947000063 ], [ 27.704607519000035, 35.687225421000051 ], [ 27.697081138000044, 35.680629418000024 ], [ 27.689555996000024, 35.67403293700005 ], [ 27.682032092000043, 35.667435979000061 ], [ 27.674509427000032, 35.660838543000068 ], [ 27.666987999000071, 35.654240630000061 ], [ 27.659467808000045, 35.647642241000028 ], [ 27.651948853000079, 35.641043374000049 ], [ 27.644431135000048, 35.634444031000044 ], [ 27.636914653000076, 35.62784421200007 ], [ 27.629399406000061, 35.621243917000072 ], [ 27.621885395000049, 35.614643146000049 ], [ 27.614372618000061, 35.608041899000057 ], [ 27.60686107500004, 35.60144017600004 ], [ 27.599350765000054, 35.594837978000044 ], [ 27.591841690000024, 35.588235305000069 ], [ 27.584333847000039, 35.581632157000058 ], [ 27.576827237000032, 35.575028534000069 ], [ 27.569321858000023, 35.568424437000033 ], [ 27.56181771200005, 35.561819865000075 ], [ 27.554314797000075, 35.555214818000024 ], [ 27.546813112000052, 35.548609298000031 ], [ 27.539312658000028, 35.542003304000048 ], [ 27.531813435000061, 35.535396836000075 ], [ 27.524315440000066, 35.528789895000045 ], [ 27.516818675000025, 35.522182481000073 ], [ 27.50932313900006, 35.515574593000053 ], [ 27.501828831000068, 35.508966232000034 ], [ 27.49433575200004, 35.502357399000061 ], [ 27.486843899000064, 35.495748093000032 ], [ 27.479353274000061, 35.489138315000048 ], [ 27.471863876000043, 35.482528065000054 ], [ 27.464375704000076, 35.475917343000049 ], [ 27.456888758000048, 35.469306149000033 ], [ 27.449403037000025, 35.462694483000064 ], [ 27.441918541000064, 35.456082346000073 ], [ 27.434435270000051, 35.449469738000062 ], [ 27.426953224000044, 35.442856658000039 ], [ 27.419472401000064, 35.436243108000042 ], [ 27.411992801000054, 35.42962908700008 ], [ 27.404514425000059, 35.42301459600003 ], [ 27.397037271000045, 35.416399635000062 ], [ 27.389561340000057, 35.409784203000072 ], [ 27.38208663000006, 35.403168301000051 ], [ 27.374613141000054, 35.396551930000044 ], [ 27.367140874000029, 35.389935089000062 ], [ 27.359669827000062, 35.383317779000038 ], [ 27.3522, 35.3767 ] ] } },
{ "type": "Feature", "properties": { "LonA": 27.1967, "LatA": 34.9023, "LonB": 24.7472, "LatB": 33.9166, "SS_ID": 1163.0, "Shape_Leng": 2.6404601938700001 }, "geometry": { "type": "LineString", "coordinates": [ [ 27.1967, 34.9023 ], [ 27.186826819000032, 34.898471511000025 ], [ 27.176954555000066, 34.894642218000058 ], [ 27.167083207000076, 34.890812121000067 ], [ 27.157212775000062, 34.886981220000052 ], [ 27.147343259000024, 34.883149515000071 ], [ 27.137474659000077, 34.879317007000054 ], [ 27.127606976000038, 34.875483695000071 ], [ 27.117740209000033, 34.871649580000053 ], [ 27.107874358000061, 34.867814662000058 ], [ 27.098009423000065, 34.863978942000074 ], [ 27.088145404000045, 34.860142418000066 ], [ 27.078282301000058, 34.85630509300006 ], [ 27.068420115000038, 34.852466965000076 ], [ 27.058558844000061, 34.848628035000047 ], [ 27.04869848900006, 34.84478830300003 ], [ 27.038839051000025, 34.840947769000024 ], [ 27.028980528000034, 34.837106434000077 ], [ 27.019122921000076, 34.833264298000074 ], [ 27.009266230000037, 34.829421361000072 ], [ 26.999410455000032, 34.825577622000026 ], [ 26.989555596000059, 34.821733083000026 ], [ 26.979701652000074, 34.817887744000075 ], [ 26.969848624000065, 34.814041604000067 ], [ 26.959996512000032, 34.810194663000061 ], [ 26.950145316000032, 34.806346923000035 ], [ 26.940295036000066, 34.802498383000056 ], [ 26.93044567100003, 34.798649043000069 ], [ 26.920597222000026, 34.794798904000061 ], [ 26.910749688000067, 34.790947966000033 ], [ 26.900903070000027, 34.787096229000042 ], [ 26.891057368000077, 34.783243692000042 ], [ 26.881212581000057, 34.779390358000057 ], [ 26.87136871000007, 34.775536224000064 ], [ 26.86152575400007, 34.771681292000039 ], [ 26.851683714000046, 34.767825562000041 ], [ 26.841842589000066, 34.763969035000059 ], [ 26.832002380000063, 34.760111709000057 ], [ 26.822163086000046, 34.756253586000071 ], [ 26.812324707000073, 34.752394665000054 ], [ 26.80248724300003, 34.748534948000042 ], [ 26.792650695000077, 34.744674433000057 ], [ 26.782815062000054, 34.740813121000031 ], [ 26.772980345000065, 34.736951013000066 ], [ 26.763146543000062, 34.73308810900005 ], [ 26.753313655000056, 34.72922440800005 ], [ 26.743481683000027, 34.725359911000055 ], [ 26.733650626000042, 34.721494618000065 ], [ 26.723820485000033, 34.717628529000024 ], [ 26.713991258000078, 34.713761645000034 ], [ 26.704162946000054, 34.709893966000038 ], [ 26.694335549000073, 34.706025491000048 ], [ 26.684509068000068, 34.702156222000042 ], [ 26.674683501000061, 34.69828615800003 ], [ 26.664858849000041, 34.69441529900007 ], [ 26.655035112000064, 34.690543646000037 ], [ 26.645212290000075, 34.686671198000056 ], [ 26.635390383000072, 34.682797957000048 ], [ 26.625569390000067, 34.678923922000024 ], [ 26.615749313000038, 34.675049093000041 ], [ 26.605930150000063, 34.671173470000042 ], [ 26.596111901000029, 34.667297055000063 ], [ 26.586294568000028, 34.663419846000068 ], [ 26.576478149000025, 34.659541844000046 ], [ 26.566662645000065, 34.655663050000044 ], [ 26.556848055000046, 34.651783463000072 ], [ 26.547034380000071, 34.647903084000063 ], [ 26.537221619000036, 34.644021912000028 ], [ 26.527409773000045, 34.640139949000059 ], [ 26.517598841000051, 34.636257194000052 ], [ 26.507788824000045, 34.632373647000065 ], [ 26.497979721000036, 34.628489309000031 ], [ 26.48817153300007, 34.624604179000073 ], [ 26.478364258000056, 34.620718259000057 ], [ 26.468557899000075, 34.61683154800005 ], [ 26.458752453000045, 34.612944046000052 ], [ 26.448947922000059, 34.609055753000064 ], [ 26.439144304000024, 34.605166671000063 ], [ 26.429341601000033, 34.601276798000072 ], [ 26.419539813000029, 34.597386135000079 ], [ 26.409738938000032, 34.593494683000074 ], [ 26.399938977000033, 34.589602441000068 ], [ 26.390139930000032, 34.58570940900006 ], [ 26.380341798000075, 34.58181558900003 ], [ 26.370544579000068, 34.577920979000055 ], [ 26.360748274000059, 34.574025581000058 ], [ 26.350952884000037, 34.570129394000048 ], [ 26.341158407000023, 34.566232418000027 ], [ 26.331364844000063, 34.562334655000029 ], [ 26.321572194000055, 34.558436103000076 ], [ 26.311780459000033, 34.554536763000044 ], [ 26.301989637000077, 34.550636636000036 ], [ 26.29219972900006, 34.546735721000061 ], [ 26.282410734000052, 34.542834019000054 ], [ 26.272622654000031, 34.53893153000007 ], [ 26.262835486000029, 34.535028254000053 ], [ 26.25304923300007, 34.53112419100006 ], [ 26.243263893000062, 34.527219342000024 ], [ 26.233479466000063, 34.523313706000067 ], [ 26.22369595300006, 34.519407284000067 ], [ 26.213913353000066, 34.515500076000023 ], [ 26.20413166700007, 34.51159208200005 ], [ 26.194350894000024, 34.507683302000032 ], [ 26.184571034000044, 34.503773737000074 ], [ 26.174792088000061, 34.499863387000062 ], [ 26.165014055000029, 34.495952252000052 ], [ 26.155236935000062, 34.492040331000055 ], [ 26.145460728000046, 34.48812762600005 ], [ 26.135685434000038, 34.484214137000038 ], [ 26.125911054000028, 34.480299863000027 ], [ 26.116137586000036, 34.476384805000066 ], [ 26.106365032000042, 34.47246896300004 ], [ 26.096593390000066, 34.468552338000052 ], [ 26.086822662000031, 34.464634928000066 ], [ 26.077052846000072, 34.460716736000052 ], [ 26.067283943000064, 34.456797760000029 ], [ 26.057515954000053, 34.452878001000045 ], [ 26.04774887700006, 34.448957459000042 ], [ 26.03798271200003, 34.445036134000077 ], [ 26.028217461000054, 34.441114027000026 ], [ 26.018453122000039, 34.43719113800006 ], [ 26.008689696000033, 34.433267467000064 ], [ 25.998927182000045, 34.42934301300005 ], [ 25.989165581000066, 34.425417778000053 ], [ 25.979404893000037, 34.421491762000073 ], [ 25.969645117000027, 34.417564964000064 ], [ 25.959886253000036, 34.413637385000072 ], [ 25.950128302000053, 34.409709025000041 ], [ 25.940371263000031, 34.405779884000026 ], [ 25.930615137000075, 34.401849962000028 ], [ 25.920859923000023, 34.397919260000037 ], [ 25.911105621000047, 34.393987778000053 ], [ 25.901352232000079, 34.390055516000075 ], [ 25.891599754000026, 34.386122474000047 ], [ 25.881848189000038, 34.382188652000025 ], [ 25.872097536000069, 34.378254051000056 ], [ 25.862347795000062, 34.374318670000036 ], [ 25.852598966000073, 34.37038251000007 ], [ 25.842851049000046, 34.366445571000042 ], [ 25.833104044000038, 34.362507854000057 ], [ 25.823357951000048, 34.358569358000068 ], [ 25.813612770000077, 34.354630083000075 ], [ 25.803868501000068, 34.350690030000067 ], [ 25.794125143000031, 34.346749200000033 ], [ 25.784382697000069, 34.342807591000053 ], [ 25.774641163000069, 34.338865205000047 ], [ 25.764900541000031, 34.334922041000027 ], [ 25.755160830000023, 34.330978100000038 ], [ 25.745422031000032, 34.327033382000025 ], [ 25.735684143000071, 34.323087887000042 ], [ 25.725947167000072, 34.319141615000035 ], [ 25.716211102000045, 34.315194567000049 ], [ 25.706475949000037, 34.311246743000027 ], [ 25.696741707000058, 34.307298142000036 ], [ 25.687008377000041, 34.303348765000067 ], [ 25.677275958000052, 34.299398612000061 ], [ 25.667544450000037, 34.295447684000067 ], [ 25.65781385300005, 34.291495981000025 ], [ 25.648084167000036, 34.287543502000062 ], [ 25.63835539300004, 34.283590248000053 ], [ 25.628627530000074, 34.279636219000054 ], [ 25.618900578000023, 34.275681416000054 ], [ 25.609174536000069, 34.271725838000066 ], [ 25.599449406000076, 34.267769486000077 ], [ 25.589725187000056, 34.263812359000042 ], [ 25.580001878000076, 34.259854459000053 ], [ 25.570279481000057, 34.255895785000064 ], [ 25.560557994000078, 34.251936337000075 ], [ 25.550837418000071, 34.247976116000075 ], [ 25.541117753000037, 34.244015122000064 ], [ 25.531398998000043, 34.240053355000043 ], [ 25.521681154000078, 34.236090814000079 ], [ 25.511964220000038, 34.232127502000026 ], [ 25.502248197000029, 34.228163416000029 ], [ 25.492533085000048, 34.224198559000058 ], [ 25.48281888300005, 34.220232929000076 ], [ 25.473105591000035, 34.216266528000062 ], [ 25.463393210000049, 34.212299355000027 ], [ 25.453681739000046, 34.208331410000028 ], [ 25.443971179000073, 34.204362694000054 ], [ 25.434261528000036, 34.200393206000058 ], [ 25.424552788000028, 34.196422948000077 ], [ 25.41484495800006, 34.192451919000064 ], [ 25.405138038000075, 34.188480119000076 ], [ 25.395432028000073, 34.184507549000045 ], [ 25.385726928000054, 34.180534209000029 ], [ 25.376022738000074, 34.176560099000028 ], [ 25.366319458000078, 34.172585218000052 ], [ 25.356617088000064, 34.168609568000079 ], [ 25.346915627000044, 34.164633149000053 ], [ 25.337215077000053, 34.160655960000042 ], [ 25.327515436000056, 34.156678002000035 ], [ 25.317816705000041, 34.152699275000032 ], [ 25.308118883000077, 34.148719780000079 ], [ 25.298421971000039, 34.144739516000072 ], [ 25.288725969000041, 34.14075848300007 ], [ 25.279030876000036, 34.136776682000061 ], [ 25.269336693000071, 34.132794113000045 ], [ 25.259643419000042, 34.128810777000069 ], [ 25.249951054000064, 34.12482667200004 ], [ 25.240259599000069, 34.12084180100004 ], [ 25.230569052000078, 34.116856161000044 ], [ 25.220879416000059, 34.112869755000077 ], [ 25.211190688000045, 34.108882582000035 ], [ 25.201502869000024, 34.104894642000033 ], [ 25.191815960000042, 34.100905936000061 ], [ 25.182129959000065, 34.096916463000071 ], [ 25.172444868000071, 34.092926224000053 ], [ 25.162760685000023, 34.088935220000053 ], [ 25.153077412000073, 34.084943449000036 ], [ 25.14339504700007, 34.080950913000038 ], [ 25.13371359100006, 34.076957611000068 ], [ 25.124033044000043, 34.072963544000061 ], [ 25.114353405000031, 34.068968712000071 ], [ 25.104674675000069, 34.064973115000043 ], [ 25.094996854000044, 34.060976753000034 ], [ 25.085319941000023, 34.056979627000032 ], [ 25.075643937000052, 34.052981736000049 ], [ 25.065968841000029, 34.048983082000063 ], [ 25.056294654000055, 34.044983663000039 ], [ 25.046621375000029, 34.040983481000069 ], [ 25.036949004000064, 34.03698253500005 ], [ 25.027277542000036, 34.032980825000038 ], [ 25.017606988000068, 34.02897835300007 ], [ 25.007937341000058, 34.024975117000054 ], [ 24.998268604000032, 34.020971119000023 ], [ 24.988600774000076, 34.016966357000058 ], [ 24.978933852000068, 34.012960834000069 ], [ 24.969267838000064, 34.008954548000077 ], [ 24.959602732000064, 34.004947500000071 ], [ 24.949938534000069, 34.000939690000052 ], [ 24.940275243000031, 33.996931118000077 ], [ 24.930612861000043, 33.992921785000078 ], [ 24.92095138600007, 33.988911690000066 ], [ 24.911290819000044, 33.98490083400003 ], [ 24.901631159000033, 33.980889217000026 ], [ 24.891972407000026, 33.976876840000045 ], [ 24.882314563000023, 33.972863701000051 ], [ 24.872657626000034, 33.968849802000079 ], [ 24.863001596000061, 33.964835143000073 ], [ 24.853346474000034, 33.960819724000032 ], [ 24.843692259000079, 33.956803545000071 ], [ 24.834038951000025, 33.952786606000075 ], [ 24.824386551000032, 33.948768908000034 ], [ 24.814735057000064, 33.944750450000072 ], [ 24.805084471000043, 33.940731233000065 ], [ 24.795434792000037, 33.936711258000059 ], [ 24.785786020000046, 33.932690523000076 ], [ 24.776138155000069, 33.928669030000037 ], [ 24.766491196000061, 33.924646778000067 ], [ 24.756845145000057, 33.920623768000041 ], [ 24.7472, 33.9166 ] ] } },
{ "type": "Feature", "properties": { "LonA": 28.6327, "LatA": 35.2728, "LonB": 25.6318, "LatB": 33.6663, "SS_ID": 1165.0, "Shape_Leng": 3.4040322429700001 }, "geometry": { "type": "LineString", "coordinates": [ [ 28.6327, 35.2728 ], [ 28.623402945000066, 35.268031116000031 ], [ 28.614106979000042, 35.263261515000067 ], [ 28.604812103000029, 35.258491195000033 ], [ 28.595518316000039, 35.253720158000078 ], [ 28.586225618000071, 35.248948404000032 ], [ 28.57693400900007, 35.244175932000076 ], [ 28.567643490000023, 35.239402743000028 ], [ 28.558354058000077, 35.234628838000049 ], [ 28.54906571600003, 35.229854215000046 ], [ 28.539778461000026, 35.225078877000044 ], [ 28.530492295000045, 35.220302822000065 ], [ 28.52120721700004, 35.21552605100004 ], [ 28.511923227000068, 35.210748565000074 ], [ 28.502640324000026, 35.205970363000063 ], [ 28.493358509000075, 35.201191445000063 ], [ 28.484077782000043, 35.196411813000054 ], [ 28.474798141000065, 35.191631465000057 ], [ 28.465519588000063, 35.186850403000051 ], [ 28.456242122000049, 35.182068626000046 ], [ 28.446965743000078, 35.177286135000031 ], [ 28.437690450000048, 35.172502929000075 ], [ 28.428416243000072, 35.167719010000042 ], [ 28.419143123000026, 35.162934377000056 ], [ 28.409871089000035, 35.15814903100005 ], [ 28.40060014200003, 35.153362971000035 ], [ 28.391330279000044, 35.148576199000047 ], [ 28.382061503000045, 35.143788713000049 ], [ 28.372793812000054, 35.139000515000077 ], [ 28.363527207000061, 35.134211604000029 ], [ 28.354261686000029, 35.129421981000064 ], [ 28.344997251000052, 35.124631646000068 ], [ 28.335733901000026, 35.119840600000032 ], [ 28.326471635000075, 35.115048841000032 ], [ 28.317210454000076, 35.110256371000048 ], [ 28.307950357000038, 35.10546319000008 ], [ 28.298691345000066, 35.100669298000071 ], [ 28.289433416000065, 35.095874695000077 ], [ 28.280176572000073, 35.091079382000032 ], [ 28.270920811000053, 35.08628335800006 ], [ 28.261666134000052, 35.081486624000036 ], [ 28.252412540000023, 35.076689180000074 ], [ 28.24316003000007, 35.07189102600006 ], [ 28.233908602000042, 35.067092163000041 ], [ 28.224658258000034, 35.062292590000027 ], [ 28.215408997000054, 35.057492308000064 ], [ 28.206160818000058, 35.052691318000029 ], [ 28.196913721000044, 35.047889618000056 ], [ 28.18766770700006, 35.043087210000067 ], [ 28.178422775000058, 35.038284094000062 ], [ 28.169178926000029, 35.033480269000052 ], [ 28.159936157000061, 35.028675737000071 ], [ 28.150694471000065, 35.023870497000075 ], [ 28.141453866000063, 35.019064549000063 ], [ 28.132214343000044, 35.014257895000071 ], [ 28.122975900000029, 35.009450533000063 ], [ 28.113738539000053, 35.004642464000028 ], [ 28.104502259000071, 34.99983368900007 ], [ 28.095267059000037, 34.995024207000029 ], [ 28.086032940000052, 34.990214019000064 ], [ 28.076799901000072, 34.985403124000072 ], [ 28.067567943000029, 34.980591524000033 ], [ 28.058337064000057, 34.97577921900006 ], [ 28.049107266000078, 34.97096620800005 ], [ 28.039878547000058, 34.966152491000059 ], [ 28.030650908000041, 34.961338070000068 ], [ 28.021424348000039, 34.956522944000028 ], [ 28.012198867000052, 34.951707113000055 ], [ 28.002974466000069, 34.94689057800008 ], [ 27.993751143000054, 34.942073338000057 ], [ 27.984528899000054, 34.937255395000079 ], [ 27.975307734000069, 34.932436748000043 ], [ 27.966087648000041, 34.927617397000063 ], [ 27.956868639000049, 34.92279734300007 ], [ 27.947650709000072, 34.917976586000066 ], [ 27.938433857000064, 34.913155126000049 ], [ 27.929218082000034, 34.908332963000078 ], [ 27.92000338500003, 34.903510097000037 ], [ 27.91078976600005, 34.898686529000031 ], [ 27.901577223000061, 34.893862259000059 ], [ 27.892365758000039, 34.889037287000065 ], [ 27.883155370000054, 34.884211614000037 ], [ 27.873946059000048, 34.879385238000054 ], [ 27.864737825000077, 34.874558162000028 ], [ 27.855530667000039, 34.869730384000036 ], [ 27.846324585000048, 34.864901906000057 ], [ 27.837119579000046, 34.860072726000055 ], [ 27.827915650000023, 34.855242847000056 ], [ 27.818712796000057, 34.850412266000035 ], [ 27.809511018000023, 34.845580986000073 ], [ 27.800310315000047, 34.840749006000067 ], [ 27.79111068800006, 34.835916327000064 ], [ 27.781912136000074, 34.831082947000027 ], [ 27.77271465900003, 34.82624886900004 ], [ 27.763518257000044, 34.821414091000065 ], [ 27.754322930000058, 34.816578615000026 ], [ 27.745128677000025, 34.811742440000046 ], [ 27.73593549800006, 34.806905567000058 ], [ 27.726743394000039, 34.802067995000073 ], [ 27.717552363000038, 34.797229725000079 ], [ 27.708362407000038, 34.792390757000078 ], [ 27.699173524000059, 34.787551092000058 ], [ 27.689985715000034, 34.78271072900003 ], [ 27.680798979000031, 34.77786967000003 ], [ 27.671613316000048, 34.773027913000078 ], [ 27.66242872600003, 34.768185459000051 ], [ 27.653245210000023, 34.763342309000052 ], [ 27.644062766000047, 34.758498462000034 ], [ 27.634881394000047, 34.753653919000044 ], [ 27.625701095000068, 34.748808680000025 ], [ 27.616521868000063, 34.743962745000033 ], [ 27.607343713000034, 34.739116115000058 ], [ 27.598166630000037, 34.734268789000055 ], [ 27.588990619000072, 34.729420768000068 ], [ 27.579815679000035, 34.724572052000042 ], [ 27.57064181100003, 34.719722642000079 ], [ 27.561469014000068, 34.71487253600003 ], [ 27.552297287000044, 34.710021737000034 ], [ 27.543126632000053, 34.705170243000055 ], [ 27.533957048000048, 34.700318055000025 ], [ 27.524788534000038, 34.695465174000049 ], [ 27.515621090000025, 34.690611599000079 ], [ 27.506454717000054, 34.685757331000048 ], [ 27.497289414000079, 34.68090236900008 ], [ 27.488125181000044, 34.676046715000041 ], [ 27.478962017000072, 34.671190367000065 ], [ 27.469799923000039, 34.666333328000064 ], [ 27.46063889800007, 34.661475596000059 ], [ 27.451478943000041, 34.65661717200004 ], [ 27.442320056000028, 34.651758056000062 ], [ 27.433162239000069, 34.64689824800007 ], [ 27.42400549000007, 34.642037748000064 ], [ 27.414849810000078, 34.637176558000078 ], [ 27.405695198000046, 34.632314676000078 ], [ 27.396541654000032, 34.627452103000053 ], [ 27.387389179000024, 34.622588840000049 ], [ 27.378237771000045, 34.617724886000076 ], [ 27.369087431000025, 34.612860242000068 ], [ 27.359938159000023, 34.60799490800008 ], [ 27.350789954000049, 34.603128884000057 ], [ 27.341642816000046, 34.598262170000055 ], [ 27.332496745000071, 34.593394767000063 ], [ 27.323351741000067, 34.588526674000036 ], [ 27.314207804000034, 34.583657893000066 ], [ 27.30506493300004, 34.578788422000059 ], [ 27.295923129000073, 34.573918263000053 ], [ 27.286782391000031, 34.569047415000057 ], [ 27.277642719000028, 34.564175879000061 ], [ 27.268504113000063, 34.559303655000065 ], [ 27.259366573000023, 34.554430744000058 ], [ 27.250230098000031, 34.549557144000062 ], [ 27.241094688000032, 34.544682857000055 ], [ 27.231960344000072, 34.539807883000037 ], [ 27.222827065000047, 34.534932222000066 ], [ 27.213694850000024, 34.530055874000027 ], [ 27.204563700000051, 34.525178839000034 ], [ 27.19543361500007, 34.520301118000077 ], [ 27.186304594000035, 34.515422710000053 ], [ 27.177176638000049, 34.510543617000053 ], [ 27.168049745000076, 34.505663837000043 ], [ 27.158923916000049, 34.500783373000047 ], [ 27.149799151000025, 34.495902222000041 ], [ 27.140675449000071, 34.491020387000049 ], [ 27.131552811000063, 34.486137866000036 ], [ 27.122431236000068, 34.481254661000037 ], [ 27.11331072400003, 34.476370771000063 ], [ 27.104191274000073, 34.471486196000058 ], [ 27.095072888000061, 34.466600937000067 ], [ 27.085955564000074, 34.461714995000079 ], [ 27.076839302000053, 34.45682836800006 ], [ 27.067724102000057, 34.451941058000045 ], [ 27.058609964000027, 34.447053065000034 ], [ 27.049496889000068, 34.442164388000037 ], [ 27.04038487400004, 34.437275028000045 ], [ 27.031273921000036, 34.432384986000045 ], [ 27.022164030000056, 34.42749426000006 ], [ 27.013055200000053, 34.422602853000058 ], [ 27.003947430000039, 34.417710763000059 ], [ 26.994840722000049, 34.412817991000054 ], [ 26.985735074000047, 34.407924538000032 ], [ 26.976630486000033, 34.403030403000059 ], [ 26.967526959000054, 34.398135586000024 ], [ 26.958424492000063, 34.393240088000027 ], [ 26.949323084000071, 34.38834391000006 ], [ 26.940222737000056, 34.383447050000029 ], [ 26.93112344900004, 34.378549510000028 ], [ 26.922025221000069, 34.373651290000055 ], [ 26.912928052000041, 34.368752389000065 ], [ 26.903831941000078, 34.363852808000047 ], [ 26.894736890000047, 34.358952548000047 ], [ 26.885642898000071, 34.354051608000077 ], [ 26.876549964000048, 34.349149988000079 ], [ 26.867458088000035, 34.344247690000032 ], [ 26.858367271000077, 34.33934471200007 ], [ 26.849277512000072, 34.33444105600006 ], [ 26.840188810000029, 34.329536721000068 ], [ 26.831101167000043, 34.324631708000027 ], [ 26.822014581000076, 34.319726016000061 ], [ 26.812929052000072, 34.314819647000036 ], [ 26.803844580000032, 34.309912600000075 ], [ 26.794761166000058, 34.305004875000066 ], [ 26.785678808000057, 34.300096473000053 ], [ 26.776597507000076, 34.295187394000038 ], [ 26.767517263000059, 34.290277637000031 ], [ 26.758438074000026, 34.285367204000067 ], [ 26.749359942000069, 34.280456095000034 ], [ 26.74028286600003, 34.275544309000054 ], [ 26.731206846000077, 34.270631847000061 ], [ 26.722131882000042, 34.265718709000055 ], [ 26.713057973000048, 34.260804895000035 ], [ 26.703985119000038, 34.255890405000059 ], [ 26.694913320000069, 34.250975240000059 ], [ 26.685842576000027, 34.246059401000025 ], [ 26.676772887000027, 34.241142886000034 ], [ 26.667704253000068, 34.236225696000076 ], [ 26.658636673000046, 34.231307832000027 ], [ 26.649570147000077, 34.226389293000068 ], [ 26.640504676000035, 34.221470080000074 ], [ 26.631440258000055, 34.216550193000046 ], [ 26.62237689400007, 34.21162963300003 ], [ 26.613314584000022, 34.206708399000036 ], [ 26.604253327000038, 34.201786491000064 ], [ 26.595193123000058, 34.196863911000037 ], [ 26.586133972000027, 34.191940657000032 ], [ 26.577075875000048, 34.187016731000028 ], [ 26.568018829000039, 34.182092132000037 ], [ 26.558962837000024, 34.177166861000046 ], [ 26.549907897000026, 34.172240917000067 ], [ 26.540854008000053, 34.167314302000079 ], [ 26.53180117200003, 34.162387015000036 ], [ 26.522749388000022, 34.15745905600005 ], [ 26.513698655000042, 34.152530426000055 ], [ 26.504648974000077, 34.147601125000051 ], [ 26.495600345000071, 34.142671153000038 ], [ 26.486552766000045, 34.137740510000071 ], [ 26.477506238000046, 34.132809196000039 ], [ 26.468460761000074, 34.127877212000044 ], [ 26.459416335000071, 34.122944558000029 ], [ 26.450372959000049, 34.118011234000051 ], [ 26.441330633000064, 34.113077240000052 ], [ 26.432289358000048, 34.108142577000024 ], [ 26.423249132000024, 34.103207244000032 ], [ 26.414209956000036, 34.098271242000067 ], [ 26.405171830000029, 34.093334571000071 ], [ 26.396134753000069, 34.088397231000044 ], [ 26.387098725000044, 34.083459223000034 ], [ 26.378063746000066, 34.07852054600005 ], [ 26.369029816000022, 34.073581202000071 ], [ 26.359996935000026, 34.068641189000061 ], [ 26.350965102000032, 34.063700508000068 ], [ 26.341934318000028, 34.058759160000079 ], [ 26.332904582000026, 34.053817145000039 ], [ 26.323875893000036, 34.048874462000072 ], [ 26.314848253000036, 34.043931112000053 ], [ 26.305821660000049, 34.038987096000028 ], [ 26.296796115000063, 34.034042412000076 ], [ 26.287771617000033, 34.029097063000052 ], [ 26.278748166000071, 34.024151047000032 ], [ 26.269725762000064, 34.019204366000054 ], [ 26.260704404000023, 34.014257018000023 ], [ 26.251684094000041, 34.009309005000034 ], [ 26.242664829000034, 34.004360327000029 ], [ 26.23364661100004, 33.999410983000075 ], [ 26.224629439000068, 33.994460974000049 ], [ 26.215613313000063, 33.989510301000053 ], [ 26.206598232000033, 33.98455896300004 ], [ 26.197584197000026, 33.979606961000059 ], [ 26.188571208000042, 33.974654294000061 ], [ 26.179559263000044, 33.969700963000037 ], [ 26.170548364000069, 33.964746969000032 ], [ 26.161538509000025, 33.959792311000058 ], [ 26.15252969900007, 33.954836989000057 ], [ 26.143521933000045, 33.949881005000066 ], [ 26.134515212000053, 33.944924357000048 ], [ 26.125509535000049, 33.939967046000049 ], [ 26.116504901000042, 33.93500907300006 ], [ 26.107501312000068, 33.930050437000034 ], [ 26.098498766000034, 33.925091140000063 ], [ 26.089497263000055, 33.920131180000055 ], [ 26.080496804000063, 33.915170558000057 ], [ 26.071497388000068, 33.910209275000057 ], [ 26.062499014000025, 33.905247330000066 ], [ 26.053501683000036, 33.900284724000073 ], [ 26.044505395000044, 33.89532145700008 ], [ 26.035510149000061, 33.890357529000028 ], [ 26.026515945000028, 33.885392941000077 ], [ 26.01752278400005, 33.880427692000069 ], [ 26.008530664000034, 33.875461783000048 ], [ 25.999539585000036, 33.870495213000027 ], [ 25.990549548000047, 33.865527984000039 ], [ 25.981560552000076, 33.860560095000039 ], [ 25.972572598000056, 33.855591547000074 ], [ 25.963585684000066, 33.850622340000029 ], [ 25.954599811000037, 33.84565247300003 ], [ 25.945614979000027, 33.840681948000054 ], [ 25.936631187000046, 33.835710764000055 ], [ 25.927648435000037, 33.830738921000034 ], [ 25.918666723000058, 33.825766420000036 ], [ 25.909686051000051, 33.820793261000063 ], [ 25.900706418000027, 33.815819445000045 ], [ 25.891727826000078, 33.810844970000062 ], [ 25.882750272000067, 33.805869838000035 ], [ 25.873773757000038, 33.800894049000078 ], [ 25.864798282000038, 33.795917602000031 ], [ 25.855823845000032, 33.790940499000044 ], [ 25.846850447000065, 33.78596273900007 ], [ 25.837878087000036, 33.780984323000041 ], [ 25.828906766000046, 33.776005250000026 ], [ 25.81993648200006, 33.77102552100007 ], [ 25.810967237000057, 33.766045136000059 ], [ 25.801999029000058, 33.761064096000041 ], [ 25.793031858000063, 33.756082400000025 ], [ 25.784065725000062, 33.751100048000069 ], [ 25.775100629000065, 33.746117042000037 ], [ 25.766136570000072, 33.741133380000065 ], [ 25.757173548000026, 33.736149064000074 ], [ 25.748211562000051, 33.731164093000075 ], [ 25.739250613000024, 33.726178468000057 ], [ 25.730290700000069, 33.721192189000078 ], [ 25.72133182400006, 33.716205256000023 ], [ 25.712373983000077, 33.711217669000064 ], [ 25.703417177000063, 33.706229428000029 ], [ 25.694461408000052, 33.701240535000068 ], [ 25.685506674000067, 33.696250988000031 ], [ 25.67655297400006, 33.691260788000079 ], [ 25.667600310000068, 33.686269935000041 ], [ 25.658648681000045, 33.681278430000077 ], [ 25.649698086000058, 33.676286272000027 ], [ 25.640748526000039, 33.671293462000051 ], [ 25.6318, 33.6663 ] ] } }
]
}
