{
"type": "FeatureCollection",
"name": "WCS_polylines",
"crs": { "type": "name", "properties": { "name": "urn:ogc:def:crs:OGC:1.3:CRS84" } },
"features": [
{ "type": "Feature", "properties": { "Shape_Leng": 2.9556834814399999, "SS_ID": 1003, "START_SS_I": 1003, "END_SS_ID": 1003, "START_Stri": 82, "END_Strike": 82, "START_Dip_": 172, "END_Dip_Di": 172, "START_Dip": 50, "END_Dip": 50, "START_Rake": 255, "END_Rake": 255, "START_Leng": 56.0, "END_Length": 56.0, "START_Widt": 25.0, "END_Width_": 25.0, "START_Min_": 0, "END_Min_De": 0, "START_Max_": 19.2, "END_Max_De": 19.2, "START_Rupt": 1400.0, "END_Ruptur": 1400.0, "START_Aver": 1.51, "END_Averag": 1.51, "START_Mw__": 7.1, "END_Mw__W_": 7.1, "START_Mw_1": 7.1, "END_Mw__K_": 7.1, "START_M0__": 6.342e+19, "END_M0__Nm": 6.342e+19, "START_Slip": null, "END_Slip_r": null }, "geometry": { "type": "LineString", "coordinates": [ [ 24.8995, 41.1434 ], [ 25.5621, 41.2134 ], [ 24.8995, 41.1434 ], [ 25.5621, 41.2134 ], [ 25.5884, 41.0703 ], [ 24.9265, 41.0002 ], [ 24.8995, 41.1434 ] ] } },
{ "type": "Feature", "properties": { "Shape_Leng": 2.4042630794600002, "SS_ID": 1011, "START_SS_I": 1011, "END_SS_ID": 1011, "START_Stri": 275, "END_Strike": 275, "START_Dip_": 5, "END_Dip_Di": 5, "START_Dip": 45, "END_Dip": 45, "START_Rake": 270, "END_Rake": 270, "START_Leng": 45.0, "END_Length": 45.0, "START_Widt": 21.5, "END_Width_": 21.5, "START_Min_": 0, "END_Min_De": 0, "START_Max_": 15.2, "END_Max_De": 15.2, "START_Rupt": 967.5, "END_Ruptur": 967.5, "START_Aver": 1.25, "END_Averag": 1.25, "START_Mw__": 7.0, "END_Mw__W_": 7.0, "START_Mw_1": 7.0, "END_Mw__K_": 7.0, "START_M0__": 3.61448e+19, "END_M0__Nm": 3.61448e+19, "START_Slip": null, "END_Slip_r": null }, "geometry": { "type": "LineString", "coordinates": [ [ 23.6364, 40.6184 ], [ 23.1052, 40.6536 ], [ 23.6364, 40.6184 ], [ 23.1052, 40.6536 ], [ 23.1206, 40.7898 ], [ 23.6524, 40.7546 ], [ 23.6364, 40.6184 ] ] } },
{ "type": "Feature", "properties": { "Shape_Leng": 2.3628829014799999, "SS_ID": 1015, "START_SS_I": 1015, "END_SS_ID": 1015, "START_Stri": 279, "END_Strike": 279, "START_Dip_": 9, "END_Dip_Di": 9, "START_Dip": 40, "END_Dip": 40, "START_Rake": 280, "END_Rake": 280, "START_Leng": 44.0, "END_Length": 44.0, "START_Widt": 21.0, "END_Width_": 21.0, "START_Min_": 0, "END_Min_De": 0, "START_Max_": 13.5, "END_Max_De": 13.5, "START_Rupt": 924.0, "END_Ruptur": 924.0, "START_Aver": 1.22, "END_Averag": 1.22, "START_Mw__": 7.0, "END_Mw__W_": 7.0, "START_Mw_1": 7.0, "END_Mw__K_": 7.0, "START_M0__": 3.36882e+19, "END_M0__Nm": 3.36882e+19, "START_Slip": null, "END_Slip_r": null }, "geometry": { "type": "LineString", "coordinates": [ [ 23.2749, 40.4505 ], [ 22.761, 40.5124 ], [ 23.2749, 40.4505 ], [ 22.761, 40.5124 ], [ 22.7905, 40.6553 ], [ 23.3049, 40.5934 ], [ 23.2749, 40.4505 ] ] } },
{ "type": "Feature", "properties": { "Shape_Leng": 3.010091263, "SS_ID": 1023, "START_SS_I": 1023, "END_SS_ID": 1023, "START_Stri": 239, "END_Strike": 239, "START_Dip_": 329, "END_Dip_Di": 329, "START_Dip": 40, "END_Dip": 40, "START_Rake": 265, "END_Rake": 265, "START_Leng": 59.0, "END_Length": 59.0, "START_Widt": 26.0, "END_Width_": 26.0, "START_Min_": 0, "END_Min_De": 0, "START_Max_": 16.7, "END_Max_De": 16.7, "START_Rupt": 1534.0, "END_Ruptur": 1534.0, "START_Aver": 1.59, "END_Averag": 1.59, "START_Mw__": 7.2, "END_Mw__W_": 7.2, "START_Mw_1": 7.2, "END_Mw__K_": 7.2, "START_M0__": 7.31666e+19, "END_M0__Nm": 7.31666e+19, "START_Slip": null, "END_Slip_r": null }, "geometry": { "type": "LineString", "coordinates": [ [ 22.1653, 40.2771 ], [ 21.5703, 40.0038 ], [ 22.1653, 40.2771 ], [ 21.5703, 40.0038 ], [ 21.4493, 40.1573 ], [ 22.0447, 40.4306 ], [ 22.1653, 40.2771 ] ] } },
{ "type": "Feature", "properties": { "Shape_Leng": 1.9314243276600001, "SS_ID": 1037, "START_SS_I": 1037, "END_SS_ID": 1037, "START_Stri": 94, "END_Strike": 94, "START_Dip_": 184, "END_Dip_Di": 184, "START_Dip": 45, "END_Dip": 45, "START_Rake": 270, "END_Rake": 270, "START_Leng": 36.5, "END_Length": 36.5, "START_Widt": 18.5, "END_Width_": 18.5, "START_Min_": 0, "END_Min_De": 0, "START_Max_": 13.1, "END_Max_De": 13.1, "START_Rupt": 675.2, "END_Ruptur": 675.2, "START_Aver": 1.03, "END_Averag": 1.03, "START_Mw__": 6.8, "END_Mw__W_": 6.8, "START_Mw_1": 6.8, "END_Mw__K_": 6.8, "START_M0__": 2.08488e+19, "END_M0__Nm": 2.08488e+19, "START_Slip": null, "END_Slip_r": null }, "geometry": { "type": "LineString", "coordinates": [ [ 22.3762, 39.3558 ], [ 22.7996, 39.333 ], [ 22.3762, 39.3558 ], [ 22.7996, 39.333 ], [ 22.7888, 39.2156 ], [ 22.3657, 39.2385 ], [ 22.3762, 39.3558 ] ] } },
{ "type": "Feature", "properties": { "Shape_Leng": 4.56236696757, "SS_ID": 1046, "START_SS_I": 1046, "END_SS_ID": 1046, "START_Stri": 284, "END_Strike": 284, "START_Dip_": 14, "END_Dip_Di": 14, "START_Dip": 45, "END_Dip": 45, "START_Rake": 280, "END_Rake": 280, "START_Leng": 90.0, "END_Length": 90.0, "START_Widt": 35.0, "END_Width_": 35.0, "START_Min_": 0, "END_Min_De": 0, "START_Max_": 24.7, "END_Max_De": 24.7, "START_Rupt": 3150.0, "END_Ruptur": 3150.0, "START_Aver": 2.33, "END_Averag": 2.33, "START_Mw__": 7.5, "END_Mw__W_": 7.5, "START_Mw_1": 7.5, "END_Mw__K_": 7.5, "START_M0__": 2.19996e+20, "END_M0__Nm": 2.19996e+20, "START_Slip": null, "END_Slip_r": null }, "geometry": { "type": "LineString", "coordinates": [ [ 23.0545, 38.7241 ], [ 22.0465, 38.9199 ], [ 23.0545, 38.7241 ], [ 22.0465, 38.9199 ], [ 22.115, 39.1359 ], [ 23.1244, 38.9401 ], [ 23.0545, 38.7241 ] ] } },
{ "type": "Feature", "properties": { "Shape_Leng": 2.3937839535099998, "SS_ID": 1052, "START_SS_I": 1052, "END_SS_ID": 1052, "START_Stri": 338, "END_Strike": 338, "START_Dip_": 68, "END_Dip_Di": 68, "START_Dip": 85, "END_Dip": 85, "START_Rake": 350, "END_Rake": 350, "START_Leng": 63.0, "END_Length": 63.0, "START_Widt": 14.0, "END_Width_": 14.0, "START_Min_": 0, "END_Min_De": 0, "START_Max_": 13.9, "END_Max_De": 13.9, "START_Rupt": 882.0, "END_Ruptur": 882.0, "START_Aver": 1.41, "END_Averag": 1.41, "START_Mw__": 7.0, "END_Mw__W_": 7.0, "START_Mw_1": 7.0, "END_Mw__K_": 7.0, "START_M0__": 3.72878e+19, "END_M0__Nm": 3.72878e+19, "START_Slip": null, "END_Slip_r": null }, "geometry": { "type": "LineString", "coordinates": [ [ 21.3135, 38.424 ], [ 21.0415, 38.9494 ], [ 21.3135, 38.424 ], [ 21.0415, 38.9494 ], [ 21.0546, 38.9535 ], [ 21.3265, 38.4282 ], [ 21.3135, 38.424 ] ] } },
{ "type": "Feature", "properties": { "Shape_Leng": 9.8569826811500008, "SS_ID": 1065, "START_SS_I": 1065, "END_SS_ID": 1065, "START_Stri": 252, "END_Strike": 252, "START_Dip_": 342, "END_Dip_Di": 342, "START_Dip": 85, "END_Dip": 85, "START_Rake": 200, "END_Rake": 200, "START_Leng": 212.0, "END_Length": 212.0, "START_Widt": 23.5, "END_Width_": 23.5, "START_Min_": 0, "END_Min_De": 0, "START_Max_": 23.4, "END_Max_De": 23.4, "START_Rupt": 4982.0, "END_Ruptur": 4982.0, "START_Aver": 3.53, "END_Averag": 3.53, "START_Mw__": 7.8, "END_Mw__W_": 7.8, "START_Mw_1": 7.8, "END_Mw__K_": 7.8, "START_M0__": 5.27263e+20, "END_M0__Nm": 5.27263e+20, "START_Slip": null, "END_Slip_r": null }, "geometry": { "type": "LineString", "coordinates": [ [ 27.3659, 40.7463 ], [ 24.983, 40.1571 ], [ 27.3659, 40.7463 ], [ 24.983, 40.1571 ], [ 24.9754, 40.1746 ], [ 27.3586, 40.7638 ], [ 27.3659, 40.7463 ] ] } },
{ "type": "Feature", "properties": { "Shape_Leng": 5.2727707118499998, "SS_ID": 1074, "START_SS_I": 1074, "END_SS_ID": 1074, "START_Stri": 235, "END_Strike": 235, "START_Dip_": 325, "END_Dip_Di": 325, "START_Dip": 85, "END_Dip": 85, "START_Rake": 193, "END_Rake": 193, "START_Leng": 121.0, "END_Length": 121.0, "START_Widt": 18.5, "END_Width_": 18.5, "START_Min_": 0, "END_Min_De": 0, "START_Max_": 18.4, "END_Max_De": 18.4, "START_Rupt": 2238.5, "END_Ruptur": 2238.5, "START_Aver": 2.31, "END_Averag": 2.31, "START_Mw__": 7.4, "END_Mw__W_": 7.4, "START_Mw_1": 7.4, "END_Mw__K_": 7.4, "START_M0__": 1.55037e+20, "END_M0__Nm": 1.55037e+20, "START_Slip": null, "END_Slip_r": null }, "geometry": { "type": "LineString", "coordinates": [ [ 25.9968, 39.6116 ], [ 24.8449, 38.9874 ], [ 25.9968, 39.6116 ], [ 24.8449, 38.9874 ], [ 24.8341, 38.9993 ], [ 25.9861, 39.6235 ], [ 25.9968, 39.6116 ] ] } },
{ "type": "Feature", "properties": { "Shape_Leng": 3.7395781434000002, "SS_ID": 1095, "START_SS_I": 1095, "END_SS_ID": 1095, "START_Stri": 56, "END_Strike": 56, "START_Dip_": 146, "END_Dip_Di": 146, "START_Dip": 85, "END_Dip": 85, "START_Rake": 190, "END_Rake": 190, "START_Leng": 87.0, "END_Length": 87.0, "START_Widt": 16.0, "END_Width_": 16.0, "START_Min_": 0, "END_Min_De": 0, "START_Max_": 15.9, "END_Max_De": 15.9, "START_Rupt": 1392.0, "END_Ruptur": 1392.0, "START_Aver": 1.63, "END_Averag": 1.63, "START_Mw__": 7.2, "END_Mw__W_": 7.2, "START_Mw_1": 7.2, "END_Mw__K_": 7.2, "START_M0__": 7.49494e+19, "END_M0__Nm": 7.49494e+19, "START_Slip": null, "END_Slip_r": null }, "geometry": { "type": "LineString", "coordinates": [ [ 25.826, 37.3591 ], [ 26.6445, 37.7966 ], [ 25.826, 37.3591 ], [ 26.6445, 37.7966 ], [ 26.6533, 37.7862 ], [ 25.8349, 37.3487 ], [ 25.826, 37.3591 ] ] } },
{ "type": "Feature", "properties": { "Shape_Leng": 4.9166543919299999, "SS_ID": 1105, "START_SS_I": 1105, "END_SS_ID": 1105, "START_Stri": 235, "END_Strike": 235, "START_Dip_": 325, "END_Dip_Di": 325, "START_Dip": 65, "END_Dip": 65, "START_Rake": 260, "END_Rake": 260, "START_Leng": 109.0, "END_Length": 109.0, "START_Widt": 40.0, "END_Width_": 40.0, "START_Min_": 0, "END_Min_De": 0, "START_Max_": 36.3, "END_Max_De": 36.3, "START_Rupt": 4360.0, "END_Ruptur": 4360.0, "START_Aver": 2.77, "END_Averag": 2.77, "START_Mw__": 7.6, "END_Mw__W_": 7.6, "START_Mw_1": 7.6, "END_Mw__K_": 7.6, "START_M0__": 3.61755e+20, "END_M0__Nm": 3.61755e+20, "START_Slip": null, "END_Slip_r": null }, "geometry": { "type": "LineString", "coordinates": [ [ 26.4331, 36.7929 ], [ 25.434, 36.2306 ], [ 26.4331, 36.7929 ], [ 25.434, 36.2306 ], [ 25.3252, 36.3552 ], [ 26.3247, 36.9174 ], [ 26.4331, 36.7929 ] ] } },
{ "type": "Feature", "properties": { "Shape_Leng": 2.1553744622400002, "SS_ID": 1139, "START_SS_I": 1139, "END_SS_ID": 1139, "START_Stri": 165, "END_Strike": 165, "START_Dip_": 255, "END_Dip_Di": 255, "START_Dip": 45, "END_Dip": 45, "START_Rake": 285, "END_Rake": 285, "START_Leng": 49.0, "END_Length": 49.0, "START_Widt": 23.0, "END_Width_": 23.0, "START_Min_": 0, "END_Min_De": 0, "START_Max_": 16.3, "END_Max_De": 16.3, "START_Rupt": 1127.0, "END_Ruptur": 1127.0, "START_Aver": 1.35, "END_Averag": 1.35, "START_Mw__": 7.0, "END_Mw__W_": 7.0, "START_Mw_1": 7.0, "END_Mw__K_": 7.0, "START_M0__": 4.56503e+19, "END_M0__Nm": 4.56503e+19, "START_Slip": null, "END_Slip_r": null }, "geometry": { "type": "LineString", "coordinates": [ [ 22.1402, 36.8853 ], [ 22.2824, 36.4597 ], [ 22.1402, 36.8853 ], [ 22.2824, 36.4597 ], [ 22.1065, 36.4218 ], [ 21.9639, 36.8475 ], [ 22.1402, 36.8853 ] ] } },
{ "type": "Feature", "properties": { "Shape_Leng": 6.9480758901300002, "SS_ID": 1143, "START_SS_I": 1143, "END_SS_ID": 1143, "START_Stri": 223, "END_Strike": 223, "START_Dip_": 313, "END_Dip_Di": 313, "START_Dip": 84, "END_Dip": 84, "START_Rake": 20, "END_Rake": 20, "START_Leng": 172.0, "END_Length": 172.0, "START_Widt": 21.5, "END_Width_": 21.5, "START_Min_": 0, "END_Min_De": 0, "START_Max_": 21.4, "END_Max_De": 21.4, "START_Rupt": 3698.0, "END_Ruptur": 3698.0, "START_Aver": 2.74, "END_Averag": 2.74, "START_Mw__": 7.6, "END_Mw__W_": 7.6, "START_Mw_1": 7.6, "END_Mw__K_": 7.6, "START_M0__": 3.34187e+20, "END_M0__Nm": 3.34187e+20, "START_Slip": null, "END_Slip_r": null }, "geometry": { "type": "LineString", "coordinates": [ [ 28.66, 36.5079 ], [ 27.3569, 35.3767 ], [ 28.66, 36.5079 ], [ 27.3569, 35.3767 ], [ 27.3387, 35.3904 ], [ 28.6417, 36.5217 ], [ 28.66, 36.5079 ] ] } },
{ "type": "Feature", "properties": { "Shape_Leng": 7.2436558122400001, "SS_ID": 1147, "START_SS_I": 1147, "END_SS_ID": 1147, "START_Stri": 255, "END_Strike": 255, "START_Dip_": 345, "END_Dip_Di": 345, "START_Dip": 75, "END_Dip": 75, "START_Rake": 0, "END_Rake": 0, "START_Leng": 165.0, "END_Length": 165.0, "START_Widt": 21.0, "END_Width_": 21.0, "START_Min_": 0, "END_Min_De": 0, "START_Max_": 20.3, "END_Max_De": 20.3, "START_Rupt": 3465.0, "END_Ruptur": 3465.0, "START_Aver": 2.91, "END_Averag": 2.91, "START_Mw__": 7.6, "END_Mw__W_": 7.6, "START_Mw_1": 7.6, "END_Mw__K_": 7.6, "START_M0__": 3.02514e+20, "END_M0__Nm": 3.02514e+20, "START_Slip": null, "END_Slip_r": null }, "geometry": { "type": "LineString", "coordinates": [ [ 25.7564, 34.9264 ], [ 24.0122, 34.5423 ], [ 25.7564, 34.9264 ], [ 24.0122, 34.5423 ], [ 23.9966, 34.5895 ], [ 25.7412, 34.9736 ], [ 25.7564, 34.9264 ] ] } },
{ "type": "Feature", "properties": { "Shape_Leng": 10.6836129889, "SS_ID": 1149, "START_SS_I": 1149, "END_SS_ID": 1149, "START_Stri": 244, "END_Strike": 244, "START_Dip_": 334, "END_Dip_Di": 334, "START_Dip": 75, "END_Dip": 75, "START_Rake": 10, "END_Rake": 10, "START_Leng": 250.0, "END_Length": 250.0, "START_Widt": 25.0, "END_Width_": 25.0, "START_Min_": 0, "END_Min_De": 0, "START_Max_": 24.1, "END_Max_De": 24.1, "START_Rupt": 6250.0, "END_Ruptur": 6250.0, "START_Aver": 5.54, "END_Averag": 5.54, "START_Mw__": 7.9, "END_Mw__W_": 7.9, "START_Mw_1": 7.9, "END_Mw__K_": 7.9, "START_M0__": 1.03875e+21, "END_M0__Nm": 1.03875e+21, "START_Slip": null, "END_Slip_r": null }, "geometry": { "type": "LineString", "coordinates": [ [ 27.1967, 34.9023 ], [ 24.7472, 33.9166 ], [ 27.1967, 34.9023 ], [ 24.7472, 33.9166 ], [ 24.716, 33.969 ], [ 27.166, 34.9546 ], [ 27.1967, 34.9023 ] ] } },
{ "type": "Feature", "properties": { "Shape_Leng": 13.7576439677, "SS_ID": 1151, "START_SS_I": 1151, "END_SS_ID": 1151, "START_Stri": 237, "END_Strike": 237, "START_Dip_": 327, "END_Dip_Di": 327, "START_Dip": 75, "END_Dip": 75, "START_Rake": 10, "END_Rake": 10, "START_Leng": 328.0, "END_Length": 328.0, "START_Widt": 28.5, "END_Width_": 28.5, "START_Min_": 0, "END_Min_De": 0, "START_Max_": 27.5, "END_Max_De": 27.5, "START_Rupt": 9348.0, "END_Ruptur": 9348.0, "START_Aver": 4.92, "END_Averag": 4.92, "START_Mw__": 8.0, "END_Mw__W_": 8.0, "START_Mw_1": 8.0, "END_Mw__K_": 8.0, "START_M0__": 1.38102e+21, "END_M0__Nm": 1.38102e+21, "START_Slip": null, "END_Slip_r": null }, "geometry": { "type": "LineString", "coordinates": [ [ 28.6327, 35.2728 ], [ 25.6318, 33.6663 ], [ 28.6327, 35.2728 ], [ 25.6318, 33.6663 ], [ 25.5877, 33.7219 ], [ 28.5892, 35.3285 ], [ 28.6327, 35.2728 ] ] } },
{ "type": "Feature", "properties": { "Shape_Leng": 5.5936247509700001, "SS_ID": 1161, "START_SS_I": 1161, "END_SS_ID": 1161, "START_Stri": 23, "END_Strike": 23, "START_Dip_": 113, "END_Dip_Di": 113, "START_Dip": 75, "END_Dip": 75, "START_Rake": 186, "END_Rake": 186, "START_Leng": 145.5, "END_Length": 145.5, "START_Widt": 20.0, "END_Width_": 20.0, "START_Min_": 0, "END_Min_De": 0, "START_Max_": 19.3, "END_Max_De": 19.3, "START_Rupt": 2910.0, "END_Ruptur": 2910.0, "START_Aver": 2.65, "END_Averag": 2.65, "START_Mw__": 7.5, "END_Mw__W_": 7.5, "START_Mw_1": 7.5, "END_Mw__K_": 7.5, "START_M0__": 2.31609e+20, "END_M0__Nm": 2.31609e+20, "START_Slip": null, "END_Slip_r": null }, "geometry": { "type": "LineString", "coordinates": [ [ 19.987, 37.7434 ], [ 20.639, 38.9478 ], [ 19.987, 37.7434 ], [ 20.639, 38.9478 ], [ 20.6938, 38.9297 ], [ 20.0415, 37.7252 ], [ 19.987, 37.7434 ] ] } },
{ "type": "Feature", "properties": { "Shape_Leng": 4.0986106652299998, "SS_ID": 1163, "START_SS_I": 1163, "END_SS_ID": 1163, "START_Stri": 321, "END_Strike": 321, "START_Dip_": 51, "END_Dip_Di": 51, "START_Dip": 25, "END_Dip": 25, "START_Rake": 80, "END_Rake": 80, "START_Leng": 146.0, "END_Length": 146.0, "START_Widt": 42.5, "END_Width_": 42.5, "START_Min_": 7, "END_Min_De": 7, "START_Max_": 25.0, "END_Max_De": 25.0, "START_Rupt": 6205.0, "END_Ruptur": 6205.0, "START_Aver": 2.58, "END_Averag": 2.58, "START_Mw__": 7.7, "END_Mw__W_": 7.7, "START_Mw_1": 7.7, "END_Mw__K_": 7.7, "START_M0__": 5.12285e+20, "END_M0__Nm": 5.12285e+20, "START_Slip": null, "END_Slip_r": null }, "geometry": { "type": "LineString", "coordinates": [ [ 20.3217, 38.8006 ], [ 19.2521, 39.821 ], [ 19.7373, 40.1239 ], [ 20.8057, 39.1035 ], [ 20.3217, 38.8006 ] ] } },
{ "type": "Feature", "properties": { "Shape_Leng": 4.6253241452399996, "SS_ID": 2003, "START_SS_I": 2003, "END_SS_ID": 2003, "START_Stri": 72, "END_Strike": 72, "START_Dip_": 162, "END_Dip_Di": 162, "START_Dip": 50, "END_Dip": 50, "START_Rake": 245, "END_Rake": 245, "START_Leng": 90.0, "END_Length": 90.0, "START_Widt": 35.0, "END_Width_": 35.0, "START_Min_": 0, "END_Min_De": 0, "START_Max_": 26.8, "END_Max_De": 26.8, "START_Rupt": 3150.0, "END_Ruptur": 3150.0, "START_Aver": 2.33, "END_Averag": 2.33, "START_Mw__": 7.5, "END_Mw__W_": 7.5, "START_Mw_1": 7.5, "END_Mw__K_": 7.5, "START_M0__": 2.20185e+20, "END_M0__Nm": 2.20185e+20, "START_Slip": null, "END_Slip_r": null }, "geometry": { "type": "LineString", "coordinates": [ [ 24.4977, 40.9858 ], [ 25.5194, 41.236 ], [ 24.4977, 40.9858 ], [ 25.5194, 41.236 ], [ 25.6016, 41.0435 ], [ 24.5812, 40.7934 ], [ 24.4977, 40.9858 ] ] } }
]
}
