{
"type": "FeatureCollection",
"name": "WCS_strike_slip_faultline",
"crs": { "type": "name", "properties": { "name": "urn:ogc:def:crs:OGC:1.3:CRS84" } },
"features": [
{ "type": "Feature", "properties": { "Shape_Leng": 3.45119286624, "SS_ID": 1143.0, "START_OBJE": 1, "END_OBJECT": 1, "START_Lon": 28.66, "END_Lon": 28.66, "START_Lat": 36.5079, "END_Lat": 36.5079, "START_poin": "A", "END_point_": "A", "START_po_1": 1, "END_point1": 1, "START_SS_I": 1143.0, "END_SS_ID": 1143.0, "START_Stri": 223.0, "END_Strike": 223.0, "START_Dip_": 313.0, "END_Dip_Di": 313.0, "START_Dip": 84.0, "END_Dip": 84.0, "START_Rake": 20.0, "END_Rake": 20.0, "START_Leng": 172.0, "END_Length": 172.0, "START_Widt": 21.5, "END_Width_": 21.5, "START_Min_": 0.0, "END_Min_De": 0.0, "START_Max_": 21.4, "END_Max_De": 21.4, "START_Rupt": 3698.0, "END_Ruptur": 3698.0, "START_Aver": 2.74, "END_Averag": 2.74, "START_Mw__": 7.6, "END_Mw__W_": 7.6, "START_Mw_1": 7.6, "END_Mw__K_": 7.6, "START_M0__": 3.34187e+20, "END_M0__Nm": 3.34187e+20, "START_LonA": 28.66, "END_LonA": 28.66, "START_LatA": 36.5079, "END_LatA": 36.5079, "START_LonB": 27.3569, "END_LonB": 27.3569, "START_LatB": 35.3767, "END_LatB": 35.3767, "START_Lon1": 28.66, "END_Lon1": 28.66, "START_Lat1": 36.5079, "END_Lat1": 36.5079, "START_Lon2": 27.3569, "END_Lon2": 27.3569, "START_Lat2": 35.3767, "END_Lat2": 35.3767, "START_Lon3": 27.3387, "END_Lon3": 27.3387, "START_Lat3": 35.3904, "END_Lat3": 35.3904, "START_Lon4": 28.6417, "END_Lon4": 28.6417, "START_Lat4": 36.5217, "END_Lat4": 36.5217, "START_Slip": null, "END_Slip_r": null, "START_po_2": "A", "END_poin_1": "A", "START_po_3": 1, "END_poin_2": 1 }, "geometry": { "type": "LineString", "coordinates": [ [ 28.66, 36.5079 ], [ 27.3569, 35.3767 ], [ 28.66, 36.5079 ] ] } },
{ "type": "Feature", "properties": { "Shape_Leng": 3.5719834546100002, "SS_ID": 1147.0, "START_OBJE": 3, "END_OBJECT": 3, "START_Lon": 25.7564, "END_Lon": 25.7564, "START_Lat": 34.9264, "END_Lat": 34.9264, "START_poin": "A", "END_point_": "A", "START_po_1": 1, "END_point1": 1, "START_SS_I": 1147.0, "END_SS_ID": 1147.0, "START_Stri": 255.0, "END_Strike": 255.0, "START_Dip_": 345.0, "END_Dip_Di": 345.0, "START_Dip": 75.0, "END_Dip": 75.0, "START_Rake": 0.0, "END_Rake": 0.0, "START_Leng": 165.0, "END_Length": 165.0, "START_Widt": 21.0, "END_Width_": 21.0, "START_Min_": 0.0, "END_Min_De": 0.0, "START_Max_": 20.3, "END_Max_De": 20.3, "START_Rupt": 3465.0, "END_Ruptur": 3465.0, "START_Aver": 2.91, "END_Averag": 2.91, "START_Mw__": 7.6, "END_Mw__W_": 7.6, "START_Mw_1": 7.6, "END_Mw__K_": 7.6, "START_M0__": 3.02514e+20, "END_M0__Nm": 3.02514e+20, "START_LonA": 25.7564, "END_LonA": 25.7564, "START_LatA": 34.9264, "END_LatA": 34.9264, "START_LonB": 24.0122, "END_LonB": 24.0122, "START_LatB": 34.5423, "END_LatB": 34.5423, "START_Lon1": 25.7564, "END_Lon1": 25.7564, "START_Lat1": 34.9264, "END_Lat1": 34.9264, "START_Lon2": 24.0122, "END_Lon2": 24.0122, "START_Lat2": 34.5423, "END_Lat2": 34.5423, "START_Lon3": 23.9966, "END_Lon3": 23.9966, "START_Lat3": 34.5895, "END_Lat3": 34.5895, "START_Lon4": 25.7412, "END_Lon4": 25.7412, "START_Lat4": 34.9736, "END_Lat4": 34.9736, "START_Slip": null, "END_Slip_r": null, "START_po_2": "A", "END_poin_1": "A", "START_po_3": 1, "END_poin_2": 1 }, "geometry": { "type": "LineString", "coordinates": [ [ 25.7564, 34.9264 ], [ 24.0122, 34.5423 ], [ 25.7564, 34.9264 ] ] } },
{ "type": "Feature", "properties": { "Shape_Leng": 5.2807782532500003, "SS_ID": 1149.0, "START_OBJE": 5, "END_OBJECT": 5, "START_Lon": 27.1967, "END_Lon": 27.1967, "START_Lat": 34.9023, "END_Lat": 34.9023, "START_poin": "A", "END_point_": "A", "START_po_1": 1, "END_point1": 1, "START_SS_I": 1149.0, "END_SS_ID": 1149.0, "START_Stri": 244.0, "END_Strike": 244.0, "START_Dip_": 334.0, "END_Dip_Di": 334.0, "START_Dip": 75.0, "END_Dip": 75.0, "START_Rake": 10.0, "END_Rake": 10.0, "START_Leng": 250.0, "END_Length": 250.0, "START_Widt": 25.0, "END_Width_": 25.0, "START_Min_": 0.0, "END_Min_De": 0.0, "START_Max_": 24.1, "END_Max_De": 24.1, "START_Rupt": 6250.0, "END_Ruptur": 6250.0, "START_Aver": 5.54, "END_Averag": 5.54, "START_Mw__": 7.9, "END_Mw__W_": 7.9, "START_Mw_1": 7.9, "END_Mw__K_": 7.9, "START_M0__": 1.03875e+21, "END_M0__Nm": 1.03875e+21, "START_LonA": 27.1967, "END_LonA": 27.1967, "START_LatA": 34.9023, "END_LatA": 34.9023, "START_LonB": 24.7472, "END_LonB": 24.7472, "START_LatB": 33.9166, "END_LatB": 33.9166, "START_Lon1": 27.1967, "END_Lon1": 27.1967, "START_Lat1": 34.9023, "END_Lat1": 34.9023, "START_Lon2": 24.7472, "END_Lon2": 24.7472, "START_Lat2": 33.9166, "END_Lat2": 33.9166, "START_Lon3": 24.716, "END_Lon3": 24.716, "START_Lat3": 33.969, "END_Lat3": 33.969, "START_Lon4": 27.166, "END_Lon4": 27.166, "START_Lat4": 34.9546, "END_Lat4": 34.9546, "START_Slip": null, "END_Slip_r": null, "START_po_2": "A", "END_poin_1": "A", "START_po_3": 1, "END_poin_2": 1 }, "geometry": { "type": "LineString", "coordinates": [ [ 27.1967, 34.9023 ], [ 24.7472, 33.9166 ], [ 27.1967, 34.9023 ] ] } },
{ "type": "Feature", "properties": { "Shape_Leng": 6.8077141714399998, "SS_ID": 1151.0, "START_OBJE": 7, "END_OBJECT": 7, "START_Lon": 28.6327, "END_Lon": 28.6327, "START_Lat": 35.2728, "END_Lat": 35.2728, "START_poin": "A", "END_point_": "A", "START_po_1": 1, "END_point1": 1, "START_SS_I": 1151.0, "END_SS_ID": 1151.0, "START_Stri": 237.0, "END_Strike": 237.0, "START_Dip_": 327.0, "END_Dip_Di": 327.0, "START_Dip": 75.0, "END_Dip": 75.0, "START_Rake": 10.0, "END_Rake": 10.0, "START_Leng": 328.0, "END_Length": 328.0, "START_Widt": 28.5, "END_Width_": 28.5, "START_Min_": 0.0, "END_Min_De": 0.0, "START_Max_": 27.5, "END_Max_De": 27.5, "START_Rupt": 9348.0, "END_Ruptur": 9348.0, "START_Aver": 4.92, "END_Averag": 4.92, "START_Mw__": 8.0, "END_Mw__W_": 8.0, "START_Mw_1": 8.0, "END_Mw__K_": 8.0, "START_M0__": 1.38102e+21, "END_M0__Nm": 1.38102e+21, "START_LonA": 28.6327, "END_LonA": 28.6327, "START_LatA": 35.2728, "END_LatA": 35.2728, "START_LonB": 25.6318, "END_LonB": 25.6318, "START_LatB": 33.6663, "END_LatB": 33.6663, "START_Lon1": 28.6327, "END_Lon1": 28.6327, "START_Lat1": 35.2728, "END_Lat1": 35.2728, "START_Lon2": 25.6318, "END_Lon2": 25.6318, "START_Lat2": 33.6663, "END_Lat2": 33.6663, "START_Lon3": 25.5877, "END_Lon3": 25.5877, "START_Lat3": 33.7219, "END_Lat3": 33.7219, "START_Lon4": 28.5892, "END_Lon4": 28.5892, "START_Lat4": 35.3285, "END_Lat4": 35.3285, "START_Slip": null, "END_Slip_r": null, "START_po_2": "A", "END_poin_1": "A", "START_po_3": 1, "END_poin_2": 1 }, "geometry": { "type": "LineString", "coordinates": [ [ 28.6327, 35.2728 ], [ 25.6318, 33.6663 ], [ 28.6327, 35.2728 ] ] } }
]
}
